rec_id,depname,altname,includes,cntrycd,latdeg,latmin,latsec,londeg,lonmin,lonsec,oreton,cugrd,cogrd,aggrd,country,stprov,deptype,hostrock,rockunder,depage,agemy,rockover,assoctype,comments,geolunit,geolprov,latitude,longitude,cuton,continent
1,Mehirize,,,ALGR,33,50,50,0,-20,-30,,,,,Algeria,,"Redbed Cu","Green argillite, sandstone",Conglomerate,"Cretaceous, Lower Aptian",115,,,,,2053,33.8472222222222,-0.341666666666667,,AF
2,Tansrift,Tamarift,,MRCO,33,0,0,-4,-15,0,1,1.3,,,Morocco,,"Redbed Cu","Red sandstone",,Cretaceous,120,,,,,2061,33,-4.25,0.013,AF
3,Tiloula,,,ALGR,32,51,0,0,-27,0,,,,,Algeria,,"Redbed Cu","Green argillite, sandstone",Conglomerate,"Cretaceous, L.Aptian",115,,,,,2053,32.85,-0.45,,AF
4,"Djebel Djara",,,ALGR,32,50,0,0,-14,-30,,,,,Algeria,,"Redbed Cu","Green argillite, sandstone",Conglomerate,"Cretaceous, L.Aptian",115,,,,,2053,32.8333333333333,-0.241666666666667,,AF
5,"Garat Debba",,,ALGR,32,46,12,0,-40,0,,,,,Algeria,,"Redbed Cu","Green argillite, sandstone",Conglomerate,"Cretaceous, L.Aptian",115,,,,,2053,32.77,-0.666666666666667,,AF
6,"Ain Sefra",,,ALGR,32,45,0,0,-35,0,,,,,Algeria,,"Redbed Cu","Green argillite, sandstone",Conglomerate,"Cretaceous, L.Aptian",115,,,,,2053,32.75,-0.583333333333333,,AF
7,Merija,Meridja,,ALGR,31,30,,-2,-58,,,,,,Algeria,,"Redbed Cu","Conglomerate, white sandstone, siltstone",,Cretaceous,120,,,,,2058,31.5,-2.96666666666667,,AF
8,Argana,,,MRCO,30,47,0,-9,-6,0,,,,,Morocco,,"Redbed Cu","Red argillaceous sandstone, bleached",,Triassic,225,,,"Calcareous cement. Little or no organic matter",,2053,30.7833333333333,-9.1,,AF
9,Tirzzitt,,,MRCO,30,28,0,-7,-30,0,,,,,Morocco,,"Redbed Cu","Red and green sandstone and mudstone",,"U. Proterozoic",900,,,,,2061,30.4666666666667,-7.5,,AF
10,"Talat n Ouamane",,,MRCO,30,5,40,-8,-21,,3,1.5,,,Morocco,,"Reduced facies Cu",siltstone,,"U. Proterozoic",900,,,,,2061,30.0944444444444,-8.35,0.045,AF
11,Iminirfi,,,MRCO,30,3,45,-8,-24,-30,,,,,Morocco,,"Reduced facies Cu","Dolomite, limestone",,"U. Proterozoic",900,,,,,2061,30.0625,-8.40833333333333,,AF
12,Agoujgal,,,MRCO,29,23,,-9,-2,,0.8,1.7,,,Morocco,,Uncl.,Arkose,Siltstone,"U. Proterozoic",900,"Dolomite, gypsum",,,,2061,29.3833333333333,-9.03333333333333,0.0136,AF
13,"W Araba",,,EGPT,29,15,0,32,28,0,,,,,Egypt,,Uncl.,Sandstone,,Caboniferous,320,,,,,2036,29.25,32.4666666666667,,AF
14,"Sarabit Al Khadin",,,EGPT,28,58,,32,28,,,,,,Egypt,,Uncl.,"Sandstone, clay",,"L. Carboniferous",340,,,,,2033,28.9666666666667,32.4666666666667,,AF
15,"Adrar Ouanas",,,MRCO,28,16,0,-9,-14,0,,,,,Morocco,,"Reduced facies Cu","Dolomite, calcareous shale, mudstone",,"L. Cambrian",560,,,,,2061,28.2666666666667,-9.23333333333333,,AF
16,"Ras Banas",,,EGPT,23,59,,35,40,,,,,,Egypt,,Uncl.,Sandstone,,Miocene,12,,,,,2073,23.9833333333333,35.6666666666667,,AF
17,Agadez,,,NGRA,16,59,0,7,56,,,,,,Nigeria,,"Redbed Cu","Conglomerate, argillite, sandstone",,"L. Cretaceous",130,,,,,7066,16.9833333333333,7.93333333333333,,AF
18,Niami,,,MALI,15,10,,-9,-59,,,,,,Mali,,"Redbed Cu",Sandstone,,L.Cambrian,560,,,"Southwest of Nioro. Kiffa Series. Mineralized bed 0.3 to 8 m thick. Grade < 1% Cu",,7035,15.1666666666667,-9.98333333333333,,AF
19,Gangontery,,,MALI,14,5,0,-9,-45,0,,,,,Mali,,"Reduced facies Cu","Black shale",,L.Cambrian,560,,,"North of Bafoulabe, SE of Kayes. Kiffa Series. Mineralized bed severalcm thick. Grade 0.5% Cu",,7035,14.0833333333333,-9.75,,AF
20,Falea,,,MALI,12,16,0,-11,-21,0,,,,,Mali,,Uncl.,Sandstone,,"U. Proterozoic",900,,,"Kania Fm., Taoudeni Basin. Cu grades 1.46 to 4.7 %.",,7021,12.2666666666667,-11.35,,AF
21,"N' Toum",,,GABN,1,5,,9,59,,,,,,Gabon,,Uncl.,,,"Cretaceous, L.Aptian",115,,,,,7211,1.08333333333333,9.98333333333333,,AF
22,Kilembe,,,UGND,0,13,,30,3,,19.5,1.87,0.15,,Uganda,,Uncl.,"Meta dolomitic shale. Banded oligoclase-hornblende-biotite-epidote-quartz granulite","Meta dolomite. Fine-grained albite-pyroxine-amphibole-quartz-epidote rock","L. Proterozoic",2000,"Meta siliceous dolomite",,,,7246,0.216666666666667,30.05,0.36465,AF
23,Minduli,,"Mt Passa",CNGO,-4,-14,,15,14,,,,,,"Congo Brazzaville",,"Redbed Cu","Sandstone, shale",,Proterozoic,1500,,,,,,-4.23333333333333,15.2333333333333,,AF
24,Dikulushi,,,ZIRE,-9,-10,,28,15,,1.94,8.59,,266,"Democratic Republic of Congo",,"Reduced facies Cu","silstone, dolomite",,,,,,,,,-9.16666666666667,28.25,0.166646,AF
25,Tenke,,"Fwalu, Kwatebala, Goma",ZIRE,-10,-34,-48,26,9,12,195,3.3,0.37,,"Democratic Republic of Congo",,"Reduced facies Cu","Dolomitic, carbonaceous, pyritic shale and siltstone","Siliceous dolomite","U. Proterozoic",900,"Siliceous dolomite",,"Two ore beds with siliceous dolomite between.","Mines Group, Roan Supergroup",7246,-10.58,26.1533333333333,6.435,AF
26,Fungurume,,,ZIRE,-10,-36,,26,18,3,1370,2.68,0.3,,"Democratic Republic of Congo",,"Reduced facies Cu","Dolomitic, carbonaceous, pyritic shale and siltstone","Siliceous dolomite","U. Proterozoic",900,"Siliceous dolomite",,"Two ore beds with siliceous dolomite between","Mines Group, Roan Supergroup.",7246,-10.6,26.3008333333333,36.716,AF
27,Mutoshi,,,ZIRE,-10,-40,,25,31,,80,1.95,,,"Democratic Republic of Congo",,"Reduced facies Cu","Dolomitic, carbonaceous, pyritic shale and siltstone","Dolomitic chloritic hematitic quartz sandstone","U. Proterozoic",900,"Siliceous dolomite",,"East end of Kolwesi Dome, 10 km from nearest deposit. Siliceous dolomite bed lies between two ore-bearing beds","Mines Group, Roan Supergroup.",7246,-10.6666666666667,25.5166666666667,1.56,AF
28,Kakanda,,,ZIRE,-10,-43,-30,26,24,25,30,3.7,0.2,,"Democratic Republic of Congo",,"Reduced facies Cu","Dolomitic, carbonaceous, pyritic shale and siltstone",,"U. Proterozoic",900,,,,"Mines Group, Roan Supergroup",7246,-10.725,26.4069444444444,1.11,AF
29,Kolwezi,"Kolwezi Dome","Dikuluwe, Mashamba, Kamoto, Mupine, Musonoi|",ZIRE,-10,-44,,25,25,,761,4.4,0.3,,"Democratic Republic of Congo",Shaba,"Reduced facies Cu","Dolomitic, carbonaceous, pyritic shale and siltstone","Dolomitic chloritic hematitic quartz sandstone","U. Proterozoic",900,"Siliceous dolomite",,"Ore beds broken by thrust faults and stacked one over the other. Siliceous dolomite bed lies between two ore-bearing beds","Mines Group, Roan Supergroup",7291,-10.7333333333333,25.4166666666667,33.484,AF
30,Kamfundwa,,,ZIRE,-10,-48,-30,26,35,26,10,2.75,0.3,,"Democratic Republic of Congo",,"Reduced facies Cu",,,"U. Proterozoic",900,,,,"Mines Group, Roan Supergroup",7246,-10.8083333333333,26.5905555555556,0.275,AF
31,Kabolela,,,ZIRE,-10,-50,-24,26,28,50,5,4.1,1.07,,"Democratic Republic of Congo",,"Reduced facies Cu",,,"U. Proterozoic",900,,,,"Mines Group, Roan Supergroup",7246,-10.84,26.4805555555556,0.205,AF
32,Sesa,Msesa,,ZIRE,-10,-50,-42,26,37,7,8,5.75,0.2,,"Democratic Republic of Congo",,"Reduced facies Cu",,,"U. Proterozoic",900,,,,"Mines Group, Roan Supergroup",7246,-10.845,26.6186111111111,0.46,AF
33,Kambove,,,ZIRE,-10,-52,-45,26,36,23,35,7,0.4,,"Democratic Republic of Congo",,"Reduced facies Cu","Dolomitic, carbonaceous, pyritic shale and siltstone","Stromatolitic dolomite","U. Proterozoic",900,"Stromatolitic dolomite",,"Two ore beds with stromatolitic dolomite between. Zoned py-cp-bn-cp-py","Mines Group, Roan Supergroup",7246,-10.8791666666667,26.6063888888889,2.45,AF
34,Kamatanda,,,ZIRE,-10,-56,-59,26,46,36,10,5,,,"Democratic Republic of Congo",,"Reduced facies Cu","Dolomitic shale",,"U. Proterozoic",900,,,,"Mines Group, Roan Supergroup",7246,-10.9497222222222,26.7766666666667,0.5,AF
35,"Menda Mendipe",,,ZIRE,-10,-58,-36,25,55,30,30,3,0.2,,"Democratic Republic of Congo",,Uncl.,"Dolomitic, carbonaceous, pyritic shale and siltstone","Dolomite, sandstone","U. Proterozoic",900,"Stromatolitic dolomite",,,"Mines Group, Roan Supergroup.",7291,-10.9766666666667,25.925,0.9,AF
36,"Novo Redondo",,,ANGL,-11,0,-30,14,30,0,,,,,Angola,,"Redbed Cu","Conglomeratic arkosic sandstone",,"Cretaceous, Lower Aptian",115,,,,,7203,-11.0083333333333,14.5,,AF
37,Kalongwe,,,ZIRE,-11,-1,-36,25,12,30,,,,,"Democratic Republic of Congo",Shaba,Uncl.,"Siliceous dolomite",,"U. Proterozoic",600,,,"Includes cross cutting veins with uraninite","Mines Group, Roan Supergroup",7291,-11.0266666666667,25.2083333333333,,AF
38,"Cachoeiras de Binga",,,ANGL,-11,-5,,14,5,40,7,2,,,Angola,,"Reduced facies Cu","Fine sandstone, siltstone, argillite, coal","Red sandstone, conglomerate","Cretaceous, L.Aptian",115,"Evaporite, limestone",,,,7203,-11.0833333333333,14.0944444444444,0.14,AF
39,Kimbwe,,,ZIRE,-11,-8,-30,27,30,38,50,4,,,"Democratic Republic of Congo",,"Reduced facies Cu","Dolomitic shale",,"U. Proterozoic",900,,,,"Mines Group, Roan Supergroup",7246,-11.1416666666667,27.5105555555556,2,AF
40,Luishia,,,ZIRE,-11,-10,-8,27,0,33,43,4.21,0.2,,"Democratic Republic of Congo",,"Reduced facies Cu","Dolomitic shale",,"U. Proterozoic",900,,,,"Mines Group, Roan Supergroup",7246,-11.1688888888889,27.0091666666667,1.8103,AF
41,Lukuni,,,ZIRE,-11,-30,-50,27,25,14,10,4.86,0.1,,"Democratic Republic of Congo",,"Reduced facies Cu","Dolomitic shale",,"U. Proterozoic",900,,,"Uranium vein deposits nearby","Mines Group, Roan Supergroup",7246,-11.5138888888889,27.4205555555556,0.486,AF
42,Lupato,,,ZIRE,-11,-37,-16,27,15,42,5,4,0.2,,"Democratic Republic of Congo",,"Reduced facies Cu","Dolomitic shale",,"U. Proterozoic",900,,,,"Mines Group, Roan Supergroup",7246,-11.6211111111111,27.2616666666667,0.2,AF
43,Etoile,"lEtoile, Star of the Congo",,ZIRE,-11,-38,-54,27,34,38,40,4.375,0.5,,"Democratic Republic of Congo",,"Reduced facies Cu","Laminated siltstone, dolomitic shale",,"U. Proterozoic",900,,,,"Mines Group, Roan Supergroup",7246,-11.6483333333333,27.5772222222222,1.75,AF
44,Kipapila,,,ZIRE,-12,-1,,27,55,,,,,,"Democratic Republic of Congo",,"Reduced facies Cu",,,"U. Proterozoic",900,,,,"Mines Group, Roan Supergroup",7246,-12.0166666666667,27.9166666666667,,AF
45,Lubwe,,,ZMBA,-12,-3.1,,25,57,30,70,0.8,,,Zambia,,Uncl.,,,"U. Proterozoic",900,,,,,7291,-12.0516666666667,25.9583333333333,0.56,AF
46,Kansanshi,,,ZMBA,-12,-5,,26,25,,3.4,2.75,,,Zambia,,Uncl.,"Quartz-biotite schist, biotite-garnet schist, carbonaceous phyllite, marble",,Cambrian,512,,,"U-Pb and Re-Os ages of brannerite, molydenite and monazite indicate 2 pulses of mineralization at 512 and 502 Ma. Possible IOCG deposit","Kundelungu Grp.",7291,-12.0833333333333,26.4166666666667,0.0935,AF
47,Malundwe-Lumwana,,,ZMBA,-12,-9,-42,25,45,15,125,1.03,,,Zambia,,Uncl.,,,"U. Proterozoic",900,,,,,7291,-12.1616666666667,25.7541666666667,1.2875,AF
48,Chimiwungo-Lumwana,,,ZMBA,-12,-10,-44,25,51,5,953,0.64,,,Zambia,,Uncl.,,,"U. Proterozoic",900,,,,,7291,-12.1788888888889,25.8513888888889,6.0992,AF
49,"Musoshi (see Konkola)",,,ZIRE,-12,-15,-57,27,42,49,,,,,"Democratic Republic of Congo",,"Reduced facies Cu","Black biotite silstone","hematitic arkose, conglomerate","U. Proterozoic",900,"shale, arkose",,"Footwall cut by veins of quartz, hematite with rutile. U-Pb age 514±2 Ma. Fluid inclusions indicate fluids with 54 wt % NACl+KCl and T of 397°C","Mines Group, Roan Supergroup",,-12.2658333333333,27.7136111111111,,AF
50,Kinsenda,,,ZIRE,-12,-16,-31,27,58,2,31.75,5.5,,,"Democratic Republic of Congo",,"Reduced facies Cu","Gritty arkose","Mafic lava","U. Proterozoic",900,,,"Three ore beds","Mines Group, Roan Supergroup",7246,-12.2752777777778,27.9672222222222,1.74625,AF
51,"Konkola-Kirila Bombwe",Bancroft,"Musoshi in Shaba Prov.",ZMBA,-12,-23,-24,27,49,35,584.5,2.95,0.07,,Zambia,,"Reduced facies Cu","Siltstone, shale, feldspathic arenite","Quartzite, conglomerate","U. Proterozoic",900,Arkose,,"North and south orebodies separated by a bioherm","Mines Group, Roan Supergroup",7291,-12.39,27.8263888888889,17.24275,AF
52,Luansobe,,,ZMBA,-12,-25,-54,28,18,53,8.4,1.6,,,Zambia,,"Redbed Cu",,,"U. Proterozoic",900,,,,"Footwall Quartzite",7246,-12.4316666666667,28.3147222222222,0.1344,AF
53,Mokambo,,,ZMBA,-12,-28,-38,28,22,47,12.2,1.8,,,Zambia,,"Reduced facies Cu",,,"U. Proterozoic",900,,,,"Mines Group, Roan Supergroup",7246,-12.4772222222222,28.3797222222222,0.2196,AF
54,"English Mine",Benguela,,ANGL,-12,-30,-40,13,31,0,,,,,Angola,,"Reduced facies Cu","Fine sandstone, siltstone, argillite, coal","Red sandstone, conglomerate","Cretaceous, L.Aptian",115,"Evaporite, limestone",,,,7203,-12.5111111111111,13.5166666666667,,AF
55,Mufulira,,,ZMBA,-12,-31,-22,28,14,10,294.9,3.36,,,Zambia,,"Reduced facies Cu","Carbonaceous graywacke","Aeolian gypsiferous sandstone, conglomerate","U. Proterozoic",900,"Quartzite, dolomite",,"Three ore beds. Carbon up to 2% in host rock. Drops to 0.5% in copper ore. Upper Roan Cu-Co orebody, 150 m above A orebody level with zinc-bearing blue shale .","Mines Group, Roan Supergroup",7246,-12.5227777777778,28.2361111111111,9.90864,AF
56,Chingola,,,ZMBA,-12,-33,0,27,49,50,31.9,3.52,,,Zambia,,"Reduced facies Cu",,,"U. Proterozoic",900,,,,"Mines Group, Roan Supergroup",7291,-12.55,27.8305555555556,1.12288,AF
57,Nchanga,,,ZMBA,-12,-31,-30,27,52,0,400,3.64,,,Zambia,,"Reduced facies Cu","Carbonaceous shale, feldspathic quartzite","Arkose, granite","U. Proterozoic",900,"Shale, dolomite",,,"Mines Group, Roan Supergroup",7291,-12.525,27.8666666666667,14.56,AF
58,Lubembe,,,ZMBA,-12,-35,-11,28,21,56,,,,,Zambia,,"Redbed Cu",,,"U. Proterozoic",900,,,,"Footwall Quartzite",7246,-12.5863888888889,28.3655555555556,,AF
59,Mimbula,,,ZMBA,-12,-38,-44,27,51,56,9,2.7,,,Zambia,,"Reduced facies Cu",,,"U. Proterozoic",900,,,,"Mines Group, Roan Supergroup",7246,-12.6455555555556,27.8655555555556,0.243,AF
60,Pitanda,,,ZMBA,-12,-39,-30,27,59,12,15,1.7,,,Zambia,,"Redbed Cu",,,"U. Proterozoic",900,,,,"Footwall Quartzite",5042,-12.6583333333333,27.9866666666667,0.255,AF
61,Chambishi,,,ZMBA,-12,-40,-40,28,2,45,362.5,2.87,,,Zambia,,"Reduced facies Cu","Carbonaceous shale, siltstone, argillite, dolomite","Conglomerate, quartzite","U. Proterozoic",900,"Argillite, quartzite",,"Continuity of ore zone interrupted by dolomitic bioherms. Fluid Inclusions: salinity, 12-20 wt. % NaCl equiv.; homogenization temperatures, 130-150°C.","Mines Group, Roan Supergroup",7291,-12.6777777777778,28.0458333333333,10.40375,AF
62,Fitula,,,ZMBA,-12,-40,-55,27,55,0,4.1,5.28,,,Zambia,,"Reduced facies Cu",,,"U. Proterozoic",900,,,,"Mines Group, Roan Supergroup",7246,-12.6819444444444,27.9166666666667,0.21648,AF
63,"Pitanda South",,,ZMBA,-12,-42,-48,27,58,36,0.4,1.68,,,Zambia,,"Redbed Cu",,,"U. Proterozoic",900,,,,"Footwall Quartzite",7291,-12.7133333333333,27.9766666666667,0.00672,AF
64,Kasaria,,,ZMBA,-12,-44,-27,28,6,23,5,2.51,,,Zambia,,"Redbed Cu",,,"U. Proterozoic",900,,,,"Footwall Quartzite",7291,-12.7408333333333,28.1063888888889,0.1255,AF
65,Mwambashi,,,ZMBA,-12,-45,-33,28,0,17,7.9,2.72,0.8,,Zambia,,"Redbed Cu",,,"U. Proterozoic",900,,,,"Footwall Quartzite",7291,-12.7591666666667,28.0047222222222,0.21488,AF
66,"Mindola-Nkana N-S",,,ZMBA,-12,-48,-16,28,10,17,259.9,3.06,0.14,,Zambia,,"Reduced facies Cu","Argillite, dolomite, cherty argillite","Sandstone, conglomerate","U. Proterozoic",900,"Sandstone, dolomite, argillite",,"Barren gaps: ore beds replaced by siliceous dolomite bioherms. Cut by veins of pitchblende, uraninite, brannerite, coffinite, molybdenite, vanadinite. Age 520 Ma","Mines Group, Roan Supergroup",7291,-12.8044444444444,28.1713888888889,7.95294,AF
67,Mwerkera,,,ZMBA,-12,-48,-16,28,30,0,7.1,1.53,,,Zambia,,"Redbed Cu",,,"U. Proterozoic",900,,,,"Footwall Quartzite",7246,-12.8044444444444,28.5,0.10863,AF
68,"Chibuluma-Chibuluma West",,,ZMBA,-12,-49,-30,28,7,30,26.7,3.79,0.21,,Zambia,,"Reduced facies Cu","Sericitic arkose","Arkose, conglomerate, aeolian quartzite","U. Proterozoic",900,"Pyritic feldspathic arenite, conglomerate",,"Three sulfidite beds composed of Co-pyrite and linnaeite have 2 to 10 % Co. Sills of metagabbro. Rare quartz veins with galena and copper minerals","Mines Group, Roan Supergroup",7291,-12.825,28.125,1.01193,AF
69,"Nkana North Limb",,,ZMBA,-12,-49,-55,27,10,30,51.7,2.44,,,Zambia,,"Redbed Cu",,,"U. Proterozoic",900,,,,"Footwall Quartzite",7246,-12.8319444444444,27.175,1.26148,AF
70,"Chibuluma South",,,ZMBA,-12,-50,,28,3,,11.1,4.33,,,Zambia,,"Reduced facies Cu",,,"U. Proterozoic",900,,,,"Mines Group, Roan Supergroup",7291,-12.8333333333333,28.05,0.48063,AF
71,"Nkana South Limb",,,ZMBA,-12,-51,-33,28,12,40,,,,,Zambia,,"Redbed Cu",Argillite,,"U. Proterozoic",900,,,,"Lower Roan, Footwall Quartzite",,-12.8591666666667,28.2111111111111,,AF
72,Chifupu,,,ZMBA,-12,-55,,28,3,15,0.2,2.79,,,Zambia,,"Redbed Cu",,,"U. Proterozoic",900,,,,"Footwall Quartzite",7291,-12.9166666666667,28.0541666666667,0.00558,AF
73,Itawa,,,ZMBA,-13,0,,28,36,40,40,0.76,,,Zambia,,"Redbed Cu",,,"U. Proterozoic",900,,,,"Footwall Quartzite",7246,-13,28.6111111111111,0.304,AF
74,"Bwana Mkubwa",,,ZMBA,-13,-1,-15,28,41,7,17.6,3.24,,,Zambia,,"Reduced facies Cu","Feldspathic sandstone, graywacke, dolomitic siltstone",,"U. Proterozoic",900,,,"Five superimposed ore beds","Mines Group, Roan Supergroup",7246,-13.0208333333333,28.6852777777778,0.57024,AF
75,"Baluba (see Luanshya)",,,ZMBA,-13,-3,,28,22,40,,,,,Zambia,,"Reduced facies Cu","Silty argillite",,"U. Proterozoic",900,Arkose,,"Ore beds continuous with Luanshya-Muliashi","Mines Group, Roan Supergroup",7246,-13.05,28.3777777777778,,AF
76,"Muliashi (see Luanshiya)","Roan extension",,ZMBA,-13,-4,-45,28,16,30,,,,,Zambia,,"Reduced facies Cu","Silty argillite","Arkose, conglomerate, granite","U. Proterozoic",900,,,,"Mines Group, Roan Supergroup",7246,-13.0791666666667,28.275,,AF
77,Luanshya,"Roan Antelope","Muliashi-Roan extension and Baluba",ZMBA,-13,-7,-50,28,23,,306.7,2.79,,,Zambia,,"Reduced facies Cu","Silty argillite","Feldspathic arenite","U. Proterozoic",900,Arkose,,"Basement schist and granite has quartz veins with chalcopyrite, pyrite, and pyrrhotite","Mines Group, Roan Supergroup",7246,-13.1305555555556,28.3833333333333,8.55693,AF
78,Kalengwa,,,ZMBA,-13,-25,,25,0,,4,8.7,,20,Zambia,,Uncl.,Conglomerate,Shale,"U. Proterozoic",900,"Silty, dolomitic limestone",,"Supergene. Includes 0.3 Mmt at 20% Cu",,7291,-13.4166666666667,25,0.348,AF
79,Mufumbwe,,,ZMBA,-13,-37,-30,24,47,,5.2,2.3,,,Zambia,,Uncl.,,,"U. Proterozoic",900,,,,,7291,-13.625,24.7833333333333,0.1196,AF
80,Mangula,,,ZIMB,-16,-52,-46,30,9,,62,1.2,,12,Zimbabwe,,Uncl.,"Calcareous argillite, arkose",,"Mid Proterozoic",1250,,,"Deweras Group","Lomagubdi Suite, Dweras Grp",7331,-16.8794444444444,30.15,0.744,AF
81,Norah,,,ZIMB,-16,-55,-38,30,9,,10,1.2,,,Zimbabwe,,Uncl.,"Chloritic quartzite, arkose, argillite, anhydrite",,"Mid Proterozoic",1250,,,"4 km south of Mangula. Stratigraphically higher. Ore follows epidiorite sill. Evidence of evaporites present","Dweras Grp.",7331,-16.9272222222222,30.15,0.12,AF
82,Silverside,,"Old Hat, Manchester, Shebaside",ZIMB,-16,-56,-40,30,17,-45,0.9,1.8,,,Zimbabwe,,Uncl.,"Calcareous argillite, arkose",,"Mid Proterozoic",1250,,,"Ore zones crosscut bedding and are associated wth quartzveins","Dweras Grp.",7331,-16.9444444444444,30.2708333333333,0.0162,AF
83,"Avondale-(see Shackelton)",,,ZIMB,-17,-15,-40,30,3,,,,,,Zimbabwe,,Uncl.,"Calcareous argillite, arkose",Conglomerate,"Mid Proterozoic",1250,,,"Ore zones are stratabound but follow epidiorite dike contact","Dweras Grp.",,-17.2611111111111,30.05,,AF
84,Shackleton,,Avondale,ZIMB,-17,-15,-56,30,2,40,3.4,1.2,,,Zimbabwe,,Uncl.,"Calcareous argillite, arkose",,"Mid Proterozoic",1250,,,"Shackleton and Avondale are 800 m apart but Shackleton is 400 m higher in section","Dweras Grp.",7331,-17.2655555555556,30.0444444444444,0.0408,AF
85,Alaska,,"Hans, Angwa",ZIMB,-17,-24.9,-55,30,0,30,0.5,1.11,,,Zimbabwe,,Uncl.,"Calcareous argillite, arkose",,"Mid Proterozoic",1250,,,"Ore is mainly strata-bound but some is in crosscutting veins","Mcheka Grp.",7331,-17.4302777777778,30.0083333333333,0.00555,AF
86,"Bushman Group",,,BOTS,-20,-30,0,26,33,30,2,2,,,Botswana,,Uncl.,"Graphitic quartzite and schist",,"U. Proterozoic",900,,,"Matsitama Schist Belt, biotite grade",,7325,-20.5,26.5583333333333,0.04,AF
87,"Ngwako Pan","Lake Ngami",,BOTS,-20,-45,,23,6,,80,2,,40,Botswana,,"Redbed Cu","Calcareous argillite","Coarse sandstone","U. Proterozoic",900,,,"Lake Ngami district. Copper beds 300 km long, .5-2.5 % Cu plus Ag",,7325,-20.75,23.1,1.6,AF
88,Matsitama,,"Logolo, Makala, Thakadu",BOTS,-21,-5,0,26,45,0,8,2,,,Botswana,,Uncl.,"Siliceous limestone, calcareous quartzite, phyllite",,"U. Proterozoic",900,,,"Three deposits probably less than 2 km apart. Amphibolite metamorphism",,7331,-21.0833333333333,26.75,0.16,AF
89,Ghanzi,,,BOTS,-21,-43,,21,37,,,,,,Botswana,,"Redbed Cu",Sandstone,,"U. Proterozoic",900,,,,,7311,-21.7166666666667,21.6166666666667,,AF
90,Witvlei,"Pos , Copper Causeway, Malachite Pan prospects",,NAMB,-22,-23,,18,32,,6,2,,30,Namibia,,"Reduced facies Cu","Argillite, greenish gray to dull red, calcareous silty shale","Red sandstone, conglomerate","U. Proterozoic",900,Sandstone,,"?34S of ores between - 9 and -22 per mil",,7311,-22.3833333333333,18.5333333333333,0.12,AF
91,Dordabis,,,NAMB,-22,-57,-30,17,41,0,,,,,Namibia,,"Redbed Cu","argillite, calcareous argillite",,M.Proterozoic,1200,,,,,7311,-22.9583333333333,17.6833333333333,,AF
92,Oamites,,,NAMB,-22,-59,,17,6,,6.1,1.33,,12.3,Namibia,,"Reduced facies Cu","Biotite schist, amphibole schist, quartzite, conglomerate (Hakos Subgroup)","Red-brown quartzite (Kamtsas Fm.) Meta evaporites (Duruchaus Fm.)","U. Proterozoic",900,"Pink quartzite, marble, graphitic schist",,"In the Nosib Group, underlain by Duruchaus Fm. Overlain by Swakop Group.",,7311,-22.9833333333333,17.1,0.08113,AF
93,"Klein Aub",,,NAMB,-23,-48,,16,38,,18,2,,45,Namibia,,"Reduced facies Cu","Green argillite","Red conglomerate, sandstone","U. Proterozoic",900,"Red sandstone",,"?34S of ores between - 20 and -40 per mil",,7311,-23.8,16.6333333333333,0.36,AF
94,Duitschland,Nederland,,SAFR,-24,-20,0,29,0,0,,,,,"South Africa",,Uncl.,"Stromatolitic dolomite, limestone, chert, conglomerate",,"L. Proterozoic",2000,,,"Basal Pretoria Group",,7331,-24.3333333333333,29,,AF
95,Chernorechenskaya,,,RUSA,68,15,,87,15,,,,,,Russia,,Uncl.,"Limestone, argillite|",,"U. Proterozoic",600,,,,"Sukharikha Fm.",,68.25,87.25,,AS
96,"Mount Sauri Pe",,,RUSA,68,0,,66,50,,,,,,Russia,,"Redbed Cu",Sandstone|,|,Cambrian-Ordovician,505,,,,"Manitanyrd Fm.",,68,66.8333333333333,,AS
97,Rudnii,,,RUSA,67,50,,86,48,,,,,,Russia,,Uncl.,"Limestone, siltstone|",,"U. Proterozoic",600,,,,"Izluchinsk Fm.",,67.8333333333333,86.8,,AS
98,Sukharikha,,,RUSA,67,40,,87,0,,,,,,Russia,,Uncl.,"Sandstone, siltstone|","Dolomite, limestone, marl","U. Proterozoic",600,,,,"Sukharikha Fm.",,67.6666666666667,87,,AS
99,Izluchinsk,,,RUSA,67,36,,86,45,,,,,,Russia,,Uncl.,"Conglomerate, siltstone|","Dolomite, limestone, marl","U. Proterozoic",600,,,,"Izluchinsk Fm.",,67.6,86.75,,AS
100,"Pad-Yaga Musyur Range",,,RUSA,67,30,,65,30,,,,,,Russia,,"Redbed Cu",Sandstone|,|,Cambrian-Ordovician,505,,,,.,,67.5,65.5,,AS
101,Padyagin,,,RUSA,67,0,,65,0,,,,,,Russia,,Uncl.,"Sandstone, shale|",|,Cambrian-Ordovician,505,,,,.,,67,65,,AS
102,Graviisk,Gravyisk,,RUSA,66,31,,87,33,,,,,,Russia,,"Reduced facies Cu","Arkose, conglomerate, siltstone|","Dolomite, limestone, marl","U. Proterozoic",600,,,"Copper deposited at major redox boundary between fluids from redbeds and fluids from reef dolomites. High levels of Ag, Cd, Ge, W, Ni, and Co","Izluchinsk Fm.",,66.5166666666667,87.55,,AS
103,"Igadei-Yugan River",,,RUSA,65,30,,60,30,,,,,,Russia,,Uncl.,"Arkose, phyllite, conglomerate|",|,"L. Ordovician",480,,,,"Grubeyu Fm.",,65.5,60.5,,AS
104,"Nidysei Syncline",,,RUSA,65,15,,60,0,,,,,,Russia,,Uncl.,"Sandstone, shale|",|,"L. Cambrian",570,,,,"Manitanyrd Fm.",,65.25,60,,AS
105,Kurpandzha,,,RUSA,61,15,,137,30,,,,,,Russia,,"Reduced facies Cu","dolomitic sandstone, dolomite breccia|","Amygdaloidal basalt","Devonian Carboniferous",345,,,,"Perelomnya Series",,61.25,137.5,,AS
106,"Velmo River",,,RUSA,60,45,,92,30,,,,,,Russia,,"Reduced facies Cu","Limestone, sandstone|",,Cambrian,540,,,,"Evenki Fm.",,60.75,92.5,,AS
107,"Kamo River",,,RUSA,60,30,,97,30,,,,,,Russia,,"Reduced facies Cu","Limestone, dolomite|",,Cambrian,530,,,,"Evenki Fm.",,60.5,97.5,,AS
108,"Irkineeva River",,,RUSA,59,30,,98,15,,,,,,Russia,,"Reduced facies Cu","Algal limestone, dolomite|",,Cambrian,530,,,"Grades up to 0.3% Cu","Evenki Fm.",,59.5,98.25,,AS
109,Katanga-Chadobets,,,RUSA,59,30,,100,45,,,,,,Russia,,"Reduced facies Cu","Algal limestone, dolomite|",,Cambrian,530,,,,"Evenki Fm.",,59.5,100.75,,AS
110,"Ugui Graben",,,RUSA,59,0,,119,59,,,,,,Russia,,"Reduced facies Cu","dolomitic sandstone, dolomite breccia|",,"L. Proterozoic",2000,,,"Correlates with upper Sakukan Suite at Udokan","Chourodinski Fm.",,59,119.983333333333,,AS
111,"Bedoba River",,,RUSA,58,50,,97,15,,,,,,Russia,,"Reduced facies Cu","Algal limestone, sandstone, silstone, dolomite|",,Cambrian,530,,,,"Evenki Fm.",,58.8333333333333,97.25,,AS
112,Lena,,,RUSA,58,46,,106,30,,,,,,Russia,,"Reduced facies Cu",Sandstone|,,"U. Cambrian",520,,,,"Ilga Fm.",,58.7666666666667,106.5,,AS
113,"Bilyakchan Series",,,RUSA,58,45,,139,0,,,,,,Russia,,Uncl.,"Siltstone, sandstone|",,"L. Proterozoic",2000,,,,"Bilyakchan Series",,58.75,139,,AS
114,"Yenisei Ridge",,,RUSA,58,30,,94,0,,,,,,Russia,,"Redbed Cu","Sandstone, siltstone|",,Proterozoic-Vendian,580,,,,"Taseevo Ser.",,58.5,94,,AS
115,"Kirov Region",,,RUSA,58,20,,49,50,,,,,,Russia,,"Reduced facies Cu","Shale, claystone, dolomite|",|,"U. Permian",250,,,,,,58.3333333333333,49.8333333333333,,AS
116,"Irkutsk Amphitheater",,,RUSA,58,0,,107,30,,,,,,Russia,,Uncl.,"Silstone, sandstone|",,M.Ordovician,460,,,,"Krivolutsk and MakarovSuites",,58,107.5,,AS
117,"Kan-Taseyeva Basin",,,RUSA,57,30,,95,0,,,,,,Russia,,"Reduced facies Cu","Sandstone, siltstone, dolomite gypsum|",,"U. Cambrian",520,,,"Mineral horizon persists for tens of kms","Verkholensk Ser.",,57.5,95,,AS
118,Krasnoye,,,RUSA,56,45,,119,12,,,,,,Russia,,"Reduced facies Cu",Sandstone|,,"L. Proterozoic",2000,,,,"Udokan Series, Chitkanda Suite",,56.75,119.2,,AS
119,"Olekma Branch",,,RUSA,57,20,,119,55,,,,,,Russia,,"Reduced facies Cu",Sandstone|,,"L. Proterozoic",2000,,,,"Kebekta Suite",,57.3333333333333,119.916666666667,,AS
120,"South Muya Range",,,RUSA,57,15,,113,30,,,,,,Russia,,Uncl.,"Sandstone, siltstone|",,"L. Proterozoic",2000,,,,"Samodurovka Suite",,57.25,113.5,,AS
121,Kukurunde,,,RUSA,56,47,,117,5,,,,,,Russia,,"Reduced facies Cu","Siltstone, sandstone|",,"L. Proterozoic",2000,,,,"Udokan Series, Aleksandrovka Suite",,56.7833333333333,117.083333333333,,AS
122,"Perm Vyatka",,,RUSA,56,30,,50,45,,,,,,Russia,,"Redbed Cu",Sandstone|,|,"U. Permian",250,,,,"Sheshma Ss.",,56.5,50.75,,AS
123,Burpalin,,,RUSA,56,30,,119,55,,,,,,Russia,,"Reduced facies Cu",Sandstone|,,"L. Proterozoic",2000,,,,"Udokan Series, Talakan Suite",,56.5,119.916666666667,,AS
124,Udokan,,,RUSA,56,35,,118,30,,1200,2,,,Russia,,"Reduced facies Cu","argillite, silty sandstone, sandy limestone","Quartz-feldspar sandstone, pinkish gray","L. Proterozoic",2100,"Quartz-feldspar sandstone, pinkish gray",,"Udokan series intruded by 2000Ma granite","Udokan series",1216,56.5833333333333,118.5,24,AS
125,Pravo-Ingamakitsk,,,RUSA,56,25,,118,40,,,,,,Russia,,"Reduced facies Cu",Siltstone|,,"L. Proterozoic",2000,,,,"Udokan Series, Namingin Suite",,56.4166666666667,118.666666666667,,AS
126,"Bryansk Rapids",,,RUSA,55,30,,103,45,,,,,,Russia,,"Reduced facies Cu","Algal limestone, dolomite|",,"L. Ordovician",480,,,"Five meters with<0.3% Cu. Ust Kut unit contains galena","Iya and Ust Kut Suites",,55.5,103.75,,AS
127,Kandrykul,,,RUSA,55,25,,53,0,,,,,,Russia,,"Reduced facies Cu","Sandstone, limestone",Redbeds,"U. Permian",250,,,,,,55.4166666666667,53,,AS
128,Unkursk,,,RUSA,56,45,,118,20,,,,,,Russia,,"Reduced facies Cu",Siltstone|,,"L. Proterozoic",2000,,,,"Udokan Series, Butun Suite",,56.75,118.333333333333,,AS
129,Bugulma,Bugulminskaya,,RUSA,54,32,,52,46,,,,,,Russia,,"Reduced facies Cu","Claystone, marl, dolomite",Redbeds,"U. Permian",250,,,,,,54.5333333333333,52.7666666666667,,AS
130,Belebey,"Belebeevskaya, Belebei, Kursak Rudniki",,RUSA,54,5,,54,7,,,,,,Russia,,"Reduced facies Cu","Sandstone, limestone",Redbeds,"U. Permian",250,,,,,,54.0833333333333,54.1166666666667,,AS
131,Aksakovskaya,,,RUSA,54,0,,54,14,,,,,,Russia,,"Reduced facies Cu","Sandstone, limestone",Redbeds,"U. Permian",250,,,,,,54,54.2333333333333,,AS
132,"Tagul-Uda Rivers",,,RUSA,54,0,,98,0,,,,,,Russia,,"Reduced facies Cu","Sandstone, shale|",,"U. Proterozoic-Vendian",580,,,"Mineral horizon persists for tens of kms","Asinskaya Ser.",,54,98,,AS
133,Urshak,"Belebei, Kursak Rudniki",,RUSA,53,55,,54,55,,,,,,Russia,,"Reduced facies Cu","Sandstone, limestone",Redbeds,"U. Permian",250,,,,,,53.9166666666667,54.9166666666667,,AS
134,Malokos,,,RUSA,53,45,,108,0,,,,,,Russia,,Uncl.,"Sandstone, conglomerate|",,"L. Proterozoic",1800,,,"Contains Cu-Ag-Co","Malokos Suite",,53.75,108,,AS
135,Baza,,"Tustuzhul, Pechishchi-Raisino, Kazyngol",RUSA,53,40,,96,48,,,,,,Russia,,Uncl.,Sandstone|,"Andesite tuff|",Devonian,385,"Limestone and siltstone",,"Minusinsk Basin","Kazanovskaya Fm.",,53.6666666666667,96.8,,AS
136,"Bulgin Shiver",,,MNGL,50,42,,92,24,,,,,,Mongolia,,"Redbed Cu",Sandstone,,Devonian,350,,,"Within 10 km of large halite and gypsum deposits in Devonian sequence",,,50.7,92.4,,AS
137,"Baruun Termis Uul",,,MNGL,50,30,,91,30,,,,,,Mongolia,,"Redbed Cu",,,Devonian,350,,,,,,50.5,91.5,,AS
138,"Baruun Turaag Uul",,,MNGL,50,8,40,91,28,45,,,,,Mongolia,,"Redbed Cu",,,Devonian,350,,,,,,50.1444444444444,91.4791666666667,,AS
139,"Federovo Sterlibasevo",,,RUSA,53,30,,55,5,,,,,,Russia,,"Reduced facies Cu","Sandstone, limestone",Redbeds,"U. Permian",250,,,,,,53.5,55.0833333333333,,AS
140,Atbasar-3,,,KAZN,52,10,,68,40,,,,,,Kazakstan,,"Revett Cu",Sandstone,,"M. Carboniferous",320,,,,,,52.1666666666667,68.6666666666667,,AS
141,"Iliktinsk Suite",,,RUSA,53,30,,107,55,,,,,,Russia,,Uncl.,"Black phyllite|",,"L. Proterozoic",1800,,,"Contains Cu-Co","Iliktinsk Suite",,53.5,107.916666666667,,AS
142,Sakmara,,,RUSA,52,0,,55,20,,,,,,Russia,,"Redbed Cu",Sandstone,,"U. Permian",250,,,"Coarse sandstone and fine lake sediments",,,52,55.3333333333333,,AS
143,Salmysh,,,RUSA,52,30,,55,7,,,,,,Russia,,"Reduced facies Cu",Sandstone,,"U. Permian",250,,,,,,52.5,55.1166666666667,,AS
144,Atbasar-2,,,KAZN,51,55,,68,2,,,,,,Kazakstan,,"Revett Cu",Sandstone,,"U. Devonian",370,,,,,,51.9166666666667,68.0333333333333,,AS
145,Ushkarasu,,,KAZN,51,50,,67,0,,,,,,Kazakstan,,"Revett Cu","Sandy shale",,Carboniferous,320,,,"Contains Re and Mo","Vladimirovskaya Suite",,51.8333333333333,67,,AS
146,Atbasar-1,,,KAZN,51,49,50,68,27,,,,,,Kazakstan,,"Revett Cu",Sandstone,,"M. Carboniferous",320,,,,,,51.8305555555556,68.45,,AS
147,Vyasovka,,,RUSA,51,47,,55,51,,,,,,Russia,,"Redbed Cu","Sandstone, graywacke",,"U. Permian",250,,,"Deltaic, fluviatile, with plant debris",,,51.7833333333333,55.85,,AS
148,Kargala,,,RUSA,51,45,,56,51,,,,,,Russia,,"Redbed Cu",Sandstone,,"U. Permian",250,,,"Cu minerals form cement and concretions, and replace plant remains.",,,51.75,56.85,,AS
149,"Bolshoi Bogdo Mountains",,,RUSA,51,15,,55,0,,,,,,Russia,,Uncl.,"Sandy clay",,Triassic,220,,,"Pb-Zn in overlying carbonate rocks",,,51.25,55,,AS
150,"Turgan Gulf",,,KAZN,51,10,,67,43,,,,,,Kazakstan,,"Revett Cu",Sandstone,,"L. Permian",250,,,,"Kiyma Suite",,51.1666666666667,67.7166666666667,,AS
151,"Olenty River",,,KAZN,50,55,,73,30,,,,,,Kazakstan,,"Redbed Cu",Sandstone,,"U. Devonian",370,,,,,,50.9166666666667,73.5,,AS
152,Kyzyloba,,,KAZN,50,49,30,68,26,,,,,,Kazakstan,,"Revett Cu","Sandy shale",,Carboniferous,320,,,"Contains Re and Mo","Vladimirovskaya Suite",,50.825,68.4333333333333,,AS
153,Kokpekty,,,KAZN,50,48,12,68,10,,,,,,Kazakstan,,"Revett Cu","Sandy shale",,Carboniferous,320,,,"Cu:Re ratio, 1:7500; Re:Mo, !:3","Vladimirovskaya Suite",,50.8033333333333,68.1666666666667,,AS
154,Akken,,,KAZN,50,45,,68,30,,,,,,Kazakstan,,"Revett Cu","Sandy shale",,Carboniferous,320,,,"Contains Re, Mo","Vladimirovskaya Suite",,50.75,68.5,,AS
155,Kopkazgen,,,KAZN,50,37,30,68,8,,,,,,Kazakstan,,"Revett Cu","Sandy shale",,Carboniferous,320,,,"Contains Re, Mo","Vladimirovskaya Suite",,50.625,68.1333333333333,,AS
156,"Aschilin Bay",,,KAZN,50,30,,68,7,,,,,,Kazakstan,,"Revett Cu","Sandy shale",,"L. Permian",250,,,,,,50.5,68.1166666666667,,AS
157,"Teniz-Sarysu Divide",,,KAZN,50,25,,67,53,,,,,,Kazakstan,,"Revett Cu",Sandstone,,"U. Devonian",370,,,,,,50.4166666666667,67.8833333333333,,AS
158,Akmolynsk-Ishim,,,KAZN,50,25,,67,53,,,,,,Kazakstan,,"Revett Cu",Sandstone,,"Upper Devonian",370,,,"Salt-gypsum beds. Deposit containsPb",,,50.4166666666667,67.8833333333333,,AS
159,Kenen,,,KAZN,50,20,30,68,0,0,,,,,Kazakstan,,"Revett Cu","Sandy shale",,"M. Carboniferous",320,,,"Cu:Re, 1:540; Re:Mo, 1:1.5",,,50.3416666666667,68,,AS
160,Aktubinsk,,,KAZN,50,16,,57,20,,,,,,Kazakstan,,"Redbed Cu",Sandstone,,"L. Permian",250,,,"2,800 occurrences in area100 by 600 km",,,50.2666666666667,57.3333333333333,,AS
161,"Ulutau North",,,KAZN,49,6,,67,0,,,,,,Kazakstan,,"Revett Cu",Sandstone,,"U. Devonian",370,,,,,,49.1,67,,AS
162,"Ulutau South",,,KAZN,48,31,,67,0,,,,,,Kazakstan,,"Revett Cu",Sandstone,,"U. Devonian",370,,,,,,48.5166666666667,67,,AS
163,Karashoshak,,Kipshakpai,KAZN,48,20,28,67,43,25,47.45,1.04,,,Kazakstan,,"Revett Cu",Sandstone,,"U. Carboniferous",300,,,"Contains Re, Mo. Taskuduk Belt","Dzhezkazgan Grp.",,48.3411111111111,67.7236111111111,0.49348,AS
164,Kipshakpay,,,KAZN,48,18,,67,34,,,,,,Kazakstan,,"Revett Cu",Sandstone,,"U. Carboniferous",300,,,"Contains Re, Mo. Taskuduk Belt",,,48.3,67.5666666666667,,AS
165,Sarioba,,,KAZN,48,17,,67,26,,177.7,0.87,,,Kazakstan,,"Revett Cu","Sandstone, silstone conglomerate",,"U. Carboniferous",300,,,"Cu, Pb, Zn, Ag, Re","Dzhezkazgan Grp.",,48.2833333333333,67.4333333333333,1.54599,AS
166,Itauz,,,KAZN,48,16,,67,20,,77.15,0.83,,,Kazakstan,,"Revett Cu","Sandstone, silstone conglomerate",,"U. Carboniferous",300,,,"Contains Re, Mo. Taskuduk Belt","Dzhezkazgan Grp.",,48.2666666666667,67.3333333333333,0.640345,AS
167,Kengir,,,KAZN,48,11,36,68,0,0,,,,,Kazakstan,,"Revett Cu",Sandstone,,"U. Devonian",370,,,,"Dzhezkazgan Grp.",,48.1933333333333,68,,AS
168,Dzhartas,,,KAZN,48,7,36,67,32,30,,,,,Kazakstan,,"Revett Cu",Sandstone,,"U. Carboniferous",300,,,"Re:Cu, 1:3200; Re:Mo, 1:0.6","Dzhezkazgan Grp.",,48.1266666666667,67.5416666666667,,AS
169,Sorkuduk,,,KAZN,48,1,,67,32,25,,,,,Kazakstan,,"Revett Cu",Sandstone,,Carboniferous,320,,,"Re:Cu, 1:7500; Re:Mo, 1:1.1","Dzhezkazgan Grp.",,48.0166666666667,67.5402777777778,,AS
170,Dzhezkazgan,"Jeskesgan, Zhezkazgan",,KAZN,48,7,20,67,23,31,439,1.54,,,Kazakstan,,"Revett Cu","Sandstone, siltstone, conglomerate",,Carboniferous,320,,,"26 layers of gray sandstone are mineralized, 19, economic. Anomalous As, Cd, Bi, Co, Hg,. Au, Ni, Mo","Dzhezkazgan suite","Chu Sari Su Basin|1168",48.1222222222222,67.3919444444444,6.7606,AS
171,Spasski,,,KAZN,47,49,,67,18,,,,,,Kazakstan,,"Revett Cu","Sandstone, silstone, conglomerate",,Carboniferous,320,,,"Cu, Pb, Zn, Ag, Re","Dzhezkazgan Grp.",,47.8166666666667,67.3,,AS
172,Shipisai,,,KAZN,47,48,,67,8,,,,,,Kazakstan,,"Revett Cu","Sandstone, silstone, conglomerate",,Carboniferous,320,,,"Cu, Pb, Zn, Ag, Re","Dzhezkazgan Grp.",,47.8,67.1333333333333,,AS
173,Dzhezdy,,,KAZN,47,35,,66,52,,,,,,Kazakstan,,"Revett Cu","Sandstone, silstone, conglomerate",,Carboniferous,320,,,"Cu, Pb, Zn, Ag, Re","Dzhezkazgan Grp.",,47.5833333333333,66.8666666666667,,AS
174,"Chu River",,,KAZN,45,,,70,,,,,,,Kazakstan,,"Redbed Cu",Sandstone,,"L. Carboniferous",340,,,,,,45,70,,AS
175,Naukatski,,,KAZN,44,52,,65,28,,,,,,Kazakstan,,"Redbed Cu",Sandstone,,Tertiary,30,,,,"Arkozovy Ss.",,44.8666666666667,65.4666666666667,,AS
176,"Mangyshlak Peninsula-Karaduan",,,KAZN,44,30,,51,0,,,,,,Kazakstan,,Uncl.,"Conglomerate, sandstone, limestone, siltstone",,"M. Triassic",220,,,"Other copper occurrences in overlying M. Triassic redbeds of Karduan Fm.","Tartala Fm",,44.5,51,,AS
177,"Mangyshlak Peninsula-Tartala",,,KAZN,44,28,,50,45,,,,,,Kazakstan,,"Reduced facies Cu","Calcareous sandstone, limestone, siltstone",,"L. Triassic",220,,,,"Tartala Fm",,44.4666666666667,50.75,,AS
178,"Urup Sandstone",,,RUSA,43,42,,40,58,,,,,,Russia,,"Reduced facies Cu","Siltstone, sandstone|",,Jurassic,180,,,"Source of copper in underlying Paleozoic Chalcopyrite deposit.",,,43.7,40.9666666666667,,AS
179,Zhanatas,,,KAZN,43,30,,69,50,,,,,,Kazakstan,,"Redbed Cu",Sandstone,,"L. Carboniferous",340,,,,,,43.5,69.8333333333333,,AS
180,Mirgalim-Sai,,,KAZN,43,27,,68,29,,,,,,Kazakstan,,Uncl.,,,"L, Carboniferous",340,,,"Contains Pb, Zn, Cu",,,43.45,68.4833333333333,,AS
181,Dzhambul,,,KAZN,42,45,,71,30,,,,,,Kazakstan,,"Redbed Cu",Sandstone,,"L. Carboniferous",340,,,,,,42.75,71.5,,AS
182,"Northern Kirgizia",,"Atdzhayly, Dalen, Dzhilubulak, Skoye Utor, Tuyuk Kegeninskoye",KYRZ,42,38,,75,14,,,,,,Kyrgyzstan,,"Reduced facies Cu","Conglomerate, sandstone, siltstone, argillite",Gypsum,"L. Carboniferous",340,,,,"Malinov Suite",,42.6333333333333,75.2333333333333,,AS
183,Dzhergalansk,,,KYRZ,42,38,,79,0,,,,,,Kyrgyzstan,,"Reduced facies Cu",Sandstone,,Carboniferous,320,Gypsum,,,,,42.6333333333333,79,,AS
184,Frunzeul,,,KYRZ,42,32,,74,55,,,,,,Kyrgyzstan,,"Redbed Cu",Sandstone,,Carboniferous,320,,,,,,42.5333333333333,74.9166666666667,,AS
185,Przheval,,,KYRZ,42,31,30,78,40,,,,,,Kyrgyzstan,,"Redbed Cu",Sandstone,,Carboniferous,320,,,,,,42.525,78.6666666666667,,AS
186,"Kara Balty",,,KYRZ,42,31,,73,50,,,,,,Kyrgyzstan,,"Redbed Cu",Sandstone,,Carboniferous,320,,,,,,42.5166666666667,73.8333333333333,,AS
187,Kyzyl-Bel,,,KYRZ,42,30,,72,0,,,,,,Kyrgyzstan,,"Redbed Cu",Argillite,,"U. Proterozic",700,,,,,,42.5,72,,AS
188,Rybachye,,,KYRZ,42,30,,75,40,,,,,,Kyrgyzstan,,"Redbed Cu",Sandstone,,Carboniferous,320,,,,"Malinov Suite",,42.5,75.6666666666667,,AS
189,"Talas Alatau",,,KYRZ,42,15,,72,30,,,,,,Kyrgyzstan,,Uncl.,Schist,,"L. Cambrian",560,,,,"Malinov Ser.",,42.25,72.5,,AS
190,Dschurger,,,CINA,41,48,,81,50,,,,,,China,Sinkiang,"Redbed Cu","Shale, sandstone",,"L. Tertiary",60,,,,,3154,41.8,81.8333333333333,,AS
191,Kucha,Kuqa,,CINA,41,45,,82,45,,,,,,China,Xinjiang,"Redbed Cu",Sandstone,,"L. Tertiary",60,,,.,"Konchan Fm",3154,41.75,82.75,,AS
192,Aksu,,,CINA,41,36,,80,18,,,,,,China,Xinjiang,"Redbed Cu",Sandstone,,"L. Tertiary",60,,,"Konchan Fm.",,,41.6,80.3,,AS
193,Disue-2,,,CINA,41,34,,82,0,,,,,,China,Xinjiang,"Redbed Cu",Sandstone,,Miocene-Pliocene,12,,,,"Konchan Fm.",3154,41.5666666666667,82,,AS
194,Disue-1,,,CINA,41,30,,81,15,,,,,,China,Xinjiang,"Redbed Cu",Sandstone,,Miocene-Pliocene,12,,,"Konchan Fm.","Konchan Fm.",3154,41.5,81.25,,AS
195,Naukat,,,UZBN,40,50,,71,36,,,,,,Uzbekistan,,"Redbed Cu",Sandstone,,Neogene,12,,,,,,40.8333333333333,71.6,,AS
196,Chimbai-Saluk,,,KYRG,40,15,,73,0,,,,,,Kyrghyzstan,,"Redbed Cu",Sandstone,,Neogene,12,,,,,,40.25,73,,AS
197,Ravinou,,,KYRG,40,12,,72,24,,,,,,Kyrghyzstan,,"Reduced facies Cu",Sandstone,,"U. Permian",260,,,,Khatarminsk,,40.2,72.4,,AS
198,Naykatskoye,,,CINA,40,0,,74,45,,,,,,China,Xinjiang,"Redbed Cu",Sandstone,,"L. Tertiary",60,,,,,,40,74.75,,AS
199,Kungitang,,,CINA,39,44,,74,2,,,,,,China,Xinjiang,"Redbed Cu",Sandstone,,"L. Tertiary",60,,,,,3154,39.7333333333333,74.0333333333333,,AS
200,Gaudan,,,CINA,39,43,,74,2,,,,,,China,Xinjiang,"Redbed Cu",Sandstone,,"L. Tertiary",60,,,,,1158,39.7166666666667,74.0333333333333,,AS
201,Daraitang,,,TAJI,39,20,,72,30,,,,,,Tajikistan,,"Reduced facies Cu",Sandstone,,"U. Permian",260,,,,"Daraitang Series",,39.3333333333333,72.5,,AS
202,Khozretishi,,,TADZ,39,15,,68,0,,,,,,Tajikistan,,Uncl.,"Sandstone, conglomerate",,"L. Cretaceous",120,,,,"Karakuz Fm.",,39.25,68,,AS
203,"Gissar Range",,,TADZ,39,0,,68,0,,,,,,Tajikistan,,Uncl.,Sandstone,,"L. Cretaceous",120,,,,"Obigarm Fm.",,39,68,,AS
204,"Vakhsh Range",,,TADZ,38,15,,69,10,,,,,,Tajikistan,,Uncl.,"Sandstone, conglomerate",,"L. Cretaceous",120,,,,"Yavan Fm.",,38.25,69.1666666666667,,AS
205,Hadilik,KuQa,,CINA,37,38,,87,0,,,,,,China,Xinjiang,"Redbed Cu",Sandstone,,"L. Tertiary",60,,,,,3118,37.6333333333333,87,,AS
206,"Lake Ayakkum",KuQa,,CINA,37,35,,89,10,,,,,,China,Xinjiang,"Redbed Cu",Sandstone,,"L. Tertiary",60,,,,,3117,37.5833333333333,89.1666666666667,,AS
207,"West Sinkiang",,,CINA,35,35,,111,15,,,,,,China,,Uncl.,"Sandstone, shale",,,,,,,,,35.5833333333333,111.25,,AS
208,Surkh-i-Parso,,,AFGN,34,51,,68,39,,,,,,Afganistan,Parwan,Uncl.,"Marble, limestone",,"Carbonif.- L. Permian",286,,,"Uranium minerals present",,8001,34.85,68.65,,AS
209,Taghar,,,AFGH,34,25,53,69,22,43,,,,,Afganistan,Kabul,Uncl.,"Micaceous carbonate, phyllite",,Vendian-Cambrian,570,,,,,8001,34.4313888888889,69.3786111111111,,AS
210,Ghuldarra,,,AFGH,34,23,53,69,18,20,,,,,Afganistan,Kabul,Uncl.,Marble,,Vendian-Cambrian,570,,,,,8002,34.3980555555556,69.3055555555556,,AS
211,Khurdkabul,,,AFGH,34,22,20,69,22,40,,,,,Afganistan,Kabul,Uncl.,"Carbonate-phyllite, garnet-mica schist, marble",,Vendian-Cambrian,570,,,,,8002,34.3722222222222,69.3777777777778,,AS
212,Zakhel,,,AFGH,34,20,5,69,16,,,,,,Afganistan,Kabul,Uncl.,Marble,,Vendian-Cambrian,570,,,"Two zones, 1000 m long, 40 m thick, 1.06% Cu",,8002,34.3347222222222,69.2666666666667,,AS
213,Jawkhar,,,AFGH,34,18,57,69,18,10,,,,,Afganistan,Kabul,Uncl.,"Calcareous sedimentary rocks, amphibolite, quartzite",,Vendian-Cambrian,570,,,,,8002,34.3158333333333,69.3027777777778,,AS
214,Darband,,,AFGH,34,16,,69,24,,1,1,,,Afganistan,Kabul,Uncl.,"Micaceous marble, biotite-amphibole schist",,Vendian-Cambrian,570,,,,,8002,34.2666666666667,69.4,0.01,AS
215,Aynak,,,AFGH,34,15,58,69,18,2,350,2,,,Afganistan,Kabul,Uncl.,"Sandstone, dolomite, carbonaceous shale",,Vendian-Cambrian,570,,,,,8002,34.2661111111111,69.3005555555555,7,AS
216,Khundara,,,AFGH,34,13,55,69,15,40,,,,,Afganistan,Loghar,Uncl.,"Slate, marble",,Vendian-Cambrian,570,,,"200-500 m long, 10-20 m thick, 0.8-1.7 % Cu",,8002,34.2319444444444,69.2611111111111,,AS
217,"Jhakkar Kot",,,PKTH,32,33,33,72,28,0,,,,,Pakistan,,"Redbed Cu","Arkose, conglomerate, coal",,"L. Permian",260,,,"Central Salt Range","Warchha Sandstone",,32.5591666666667,72.4666666666667,,AS
218,TungKung,HsiKu,,CINA,31,22,,111,46,,,,,,China,Hubei,"Redbed Cu",Limestone,,Triassic,225,,,,,3168,31.3666666666667,111.766666666667,,AS
219,Qamdo,Zhangdu,,CINA,31,10,,97,14,,,,,,China,Xizang,"Reduced facies Cu",Sandstone,,Triassic,220,,,"Deposit type doubtful.",,3137,31.1666666666667,97.2333333333333,,AS
220,DaTongChang,,,CINA,30,40,,105,4,,,,,,China,Sichuan,"Redbed Cu","Purple and gray mudstone, sandstone|","Sandstone, coal",Cretaceous,100,"Salt bearing mudstone",,,,3142,30.6666666666667,105.066666666667,,AS
221,ChienChupa,,,CINA,30,,,103,,,,,,,China,Sichuan,"Redbed Cu","Gray-black sandy shale",,Triassic,220,,,,,3142,30,103,,AS
222,OmeiHsien,,,CINA,29,17,,106,12,,,,,,China,Sichuan,"Redbed Cu","Sandy shale",Basalt,Triassic,220,,,"Underlain by Permian basalt",,3142,29.2833333333333,106.2,,AS
223,Weining,,,CINA,26,51,,104,12,,,,,,China,Kweichow,"Redbed Cu",Shale,,Cretaceous,100,,,,,3161,26.85,104.2,,AS
224,"Tang tang",,,CINA,26,29,,104,12,,,,,,China,Yunnan,"Redbed Cu","Red sandstone",Basalt,Triassic,220,,,"Grade 4% Cu",,3161,26.4833333333333,104.2,,AS
225,CheJiang,,,CINA,26,47,,112,34,,,,,,China,Hunan,"Redbed Cu","Purple and gray sandstone|",Mudstone,Cretaceous,75,"Halite-bearing mudstone",,,,3146,26.7833333333333,112.566666666667,,AS
226,HuiLi,Luchang,,CINA,26,41,,102,15,,,,,,China,Sichuan,"Reduced facies Cu","Gray-green shale, sandstone",,"Mid Proterozoic",1500,,,,,3157,26.6833333333333,102.25,,AS
227,YinMin,"Dongchuan (Tungchuan) District",MienShan,CINA,26,19,20,102,20,,40,1,,,China,Yunnan,"Reduced facies Cu","Stromatolitic dolomite, argillic-arenaceous dolomite","Purple shale, purple sedimentary breccia","Mid Proterozoic",1500,Dolomite,,"Quartz veins in dolomite have high salinity fluid inclusions. Zoning is reversed; chalcopyrite and pyrite next to purple shale, bornite then chalcocite higher up","Kun Yang Grp. LaoXue Fm.",3157,26.3222222222222,102.333333333333,0.4,AS
228,LaoXue,"Dongchuan (Tungchuan) District",,CINA,26,17,30,102,20,,50,1,,,China,Yunnan,"Reduced facies Cu","Stromatolitic dolomite, argillic-arenaceous dolomite","Purple shale, purple sedimentary breccia","Mid Proterozoic",1500,Dolomite,,"Quartz-siderite veins in dolomite have high salinity fluid inclusions. Zoning  reversed; chalcopyrite and pyrite next to purple shale, bornite then chalcocite higher up.","Kun Yang Grp. LaoXue Fm.",3157,26.2916666666667,102.333333333333,0.5,AS
229,LaoBeiChung,"Dongchuan (Tungchuan) District","LaoPude, TseKeShu",CINA,26,15,,102,20,,,,,,China,Yunnan,"Reduced facies Cu","Stromatolitic dolomite, argillic-arenaceous dolomite","Purple shale, purple sedimentary breccia","Mid Proterozoic",1500,Dolomite,,"Quartz veins in dolomite have high salinity fluid inclusions. Zoning is reversed; chalcopyrite and pyrite next to purple shale, bornite then chalcocite higher up","Kun Yang Grp. LaoXue Fm.",3157,26.25,102.333333333333,,AS
230,TianZhong,Dianzhong,,CINA,26,16,,104,1,,,,,,China,Yunnan,"Redbed Cu","Violet-gray mudstone, siltstone, sandstone, conglomerate",Sandstone,"U. Cretaceous",70,"Halite-bearing mudstone",,,,3161,26.2666666666667,104.016666666667,,AS
231,TangDan,"Dongchuan (Tungchuan) District",MaZhuDong,CINA,26,15,,102,40,,100,1,,,China,Yunnan,"Reduced facies Cu","Stromatolitic dolomite, argillic-arenaceous dolomite","Purple shale, purple sedimentary breccia","Mid Proterozoic",1500,Dolomite,,"Quartz veins in dolomite have high salinity fluid inclusions. Zoning is reversed; chalcopyrite and pyrite next to purple shale, bornite then chalcocite higher up","Kun Yang Grp. LaoXue Fm.",3157,26.25,102.666666666667,1,AS
232,TongGuTang,"CheJiang Area",,CINA,26,15,,112,10,,,,,,China,Hunan,"Redbed Cu",Sandstone,,"L. Paleocene",64,,,,,3146,26.25,112.166666666667,,AS
233,JiuQuiWan,"JiuQuWan JinQuWan",,CINA,26,15,,113,5,,,,,,China,Hunan,"Redbed Cu","Purple and gray sandstone|",sandstone,Cretaceous,75,Sandstone,,,,3146,26.25,113.083333333333,,AS
234,TuanShan,,,CINA,26,0,,103,7,,,,,,China,Yunnan,"Redbed Cu","Sandstone, black shale",,"U. Cretaceous",70,,,,,3157,26,103.116666666667,,AS
235,Dacun,,,CINA,25,45,,103,0,,,,,,China,Yunnan,"Redbed Cu",Sandstone,,"U. Cretaceous",70,,,,,3157,25.75,103,,AS
236,Niutoushan,KuQa,,CINA,25,45,,111,30,,,,,,China,Xinjiang,"Redbed Cu",Sandstone,,"L. Tertiary",60,,,,,3146,25.75,111.5,,AS
237,LiuZu,,,CINA,25,25,,103,15,,,,,,China,Yunnan,"Redbed Cu","Gray sandstone, purple sandstone, mudstone",,"U. Cretaceous",70,,,,,3157,25.4166666666667,103.25,,AS
238,KuangTung,,,CINA,25,4,,102,41,,,,,,China,Yunnan,"Redbed Cu",Shale,,Cretaceous,100,,,,,3157,25.0666666666667,102.683333333333,,AS
239,TongChangQing,,,CINA,24,20,,103,33,,,,,,China,Yunnan,"Redbed Cu","Sandstone, phyllite",,"U. Cretaceous",70,,,,,3125,24.3333333333333,103.55,,AS
240,ShiZhiShan,"Yimen District",,CINA,24,11,,102,10,,15,0.92,,,China,Yunnan,"Reduced facies Cu",Dolomite,"Purple micaceous dolomite","Mid Proterozoic",1500,"Black shale",,,"Kun Yang Grp.",,24.1833333333333,102.166666666667,0.138,AS
241,FengShan,"Yimen District",,CINA,24,9,,102,10,,29,1.2,,,China,Yunnan,"Reduced facies Cu",Dolomite,"Purple micaceous dolomite","Mid Proterozoic",1500,"Black shale",,,"Kun Yang Grp.",5201,24.15,102.166666666667,0.348,AS
242,ShiShan,"Yimen District",,CINA,24,7,,102,10,,52,1.09,,,China,Yunnan,"Reduced facies Cu",Dolomite,"Purple micaceous dolomite","Mid Proterozoic",1500,"Black shale",,,"Kun Yang Grp.",3107,24.1166666666667,102.166666666667,0.5668,AS
243,Dahu,,,CINA,24,0,,114,0,,,,,,China,Guangdong,"Redbed Cu",Sandstone,,"U. Cretaceous",65,,,,,3146,24,114,,AS
244,HaoJiaHe,,,CINA,23,45,,103,35,,,,,,China,Yunnan,"Redbed Cu","Purple sandstone",,"U. Cretaceous",70,,,,,3125,23.75,103.583333333333,,AS
245,GeYiZha,,,CINA,23,35,,104,5,,,,,,China,Yunnan,"Redbed Cu",Sandstone,,"U. Cretaceous",70,,,,,3125,23.5833333333333,104.083333333333,,AS
246,LaoQingShan,,,CINA,23,30,,103,55,,,,,,China,Yunnan,"Redbed Cu","Bluish gray sandstone, dolomite",,"U. Cretaceous",70,,,,,3146,23.5,103.916666666667,,AS
247,Netanar,,,INDA,18,52,,82,3,,,,,,India,"Madya Pradesh",Uncl.,Shale,,"U. Proterozoic",700,,,,,8003,18.8666666666667,82.05,,AS
248,Nan,,,THLD,18,45,,100,50,,,,,,Thailand,,"Redbed Cu","Sandstone, shale",,Jurassic,150,,,,"Khorat Grp..",,18.75,100.833333333333,,AS
249,Lampang,,,THLD,18,34,,99,55,,,,,,Thailand,,"Redbed Cu",Sandstone,,Triassic,220,,,,"Lampang Grp..",,18.5666666666667,99.9166666666667,,AS
250,"Nam Phat",,"Fak Tha",THLD,18,0,,100,48,,,,,,Thailand,,Uncl.,Sandstone,,Jurassic,150,,,,"Khorat Grp., Sao Khua Fm.",,18,100.8,,AS
251,"Phu Wiang","Pratu Teema",,THLD,16,40,,102,15,,,,,,Thailand,,"Redbed Cu","Arkose, siltstone, mudstone",,"U. Jurassic",150,,,"Contains U. Cu, V, Mn, Pb","Khorat Grp., Sao Khua Fm.",,16.6666666666667,102.25,,AS
252,"Houei Phai",,,LAOS,14,28,,105,41,,,,,,Laos,,Uncl.,"Green sandstone, shale",,Jurassic,160,,,,,,14.4666666666667,105.683333333333,,AS
253,"Nong Khoum Thong",,,LAOS,14,20,,105,38,,,,,,Laos,,Uncl.,"Green and red sandstone, andesite",,Jurassic,160,,,,,,14.3333333333333,105.633333333333,,AS
254,Bagacay,,,PLPN,11,50,,125,15,,2.9,3.5,,,Philippines,"Samar I.","Redbed Cu","Sandstone, carbonaceous shale, coal","Andesite, diorite",Pliocene,7,Limestone,,"Pliocene beds underlain by pyritic rocks containing massive sulfide occurrences",,,11.8333333333333,125.25,0.1015,AS
255,"Wave Hill",,,AUNT,-17,-20,,131,2,,,,,,Australia,"Northern Territory",Uncl.,"Chert, conglomerate",,"U. Proterozoic",630,,,,"Watite Grp.",,-17.3333333333333,131.033333333333,,AU
256,"Owen Springs","Waterhouse Range",,AUNT,-24,-3,,133,16,,,,,,Australia,"Northern Territory","Redbed Cu",Siltstone,,Cambrian,550,,,,IllaraFm.,,-24.05,133.266666666667,,AU
257,Boorloo,,,AUSA,-29,-40,,137,55,,,,,,Australia,"South Ausralia","Redbed Cu","Conglomerate, sandstone, siltstone",,"U. Proterozoic",630,,,,"Umberatana Grp.",,-29.6666666666667,137.916666666667,,AU
258,"Warra Warra",,,AUSA,-29,-53,,137,49,,,,,,Australia,"South Ausralia",Uncl.,"Shale, sandstone, dolomitic siltstone",,U.Proterozoic,630,,,,"Burra Grp.",,-29.8833333333333,137.816666666667,,AU
259,Yudnamutana,,,AUSA,-30,0,,139,20,,,,,,Australia,"South Australia",Uncl.,"amphibolite, meta dolomite",,"U. Proterozoic",630,,,,,,-30,139.333333333333,,AU
260,"Mount Coffin",,,AUSA,-30,-36,,138,30,,,,,,Australia,"South Ausralia","Redbed Cu","Siltstone, breccia, dolomite",,U.Proterozoic,630,,,,"Umberatama Grp.",,-30.6,138.5,,AU
261,Blinman,,,AUSA,-31,-6,,138,45,,4,1,,,Australia,"South Australia","Reduced facies Cu","Dolomite and shale",,"U. Proterozoic",630,,,"In large breccia dome 6 by 12 km. Appears to be  a salt diapir. Ore is strata bound in a suspended raft of dolomite 15 by 200 m","U. Callanna Grp.",,-31.1,138.75,0.04,AU
262,"Mount Gunson",,,AUSA,-31,-27,,137,15,,5.5,2.1,,7.7,Australia,"South Australia","Reduced facies Cu","Mudstone, sandstone, breccia","Red sandstone","U. Proterozoic",630,,,"Anomalous Pb, Zn, Co, As, Ni, Th. In Umberatana group between Sturtian and Marinoan tillites","Tapley Hill Fm., Whyalla Ss.",3957,-31.45,137.25,0.1155,AU
263,Yadlamalka,,,AUSA,-31,-45,,137,18,,,,,,Australia,"South Australia","Reduced facies Cu",Arkose,,"U. Proterozoic",630,,,,,,-31.75,137.3,,AU
264,"Cattle Grid",,MG14,AUSA,-31,-26,-20,137,8,,7.5,1.7,,8.3,Australia,"South Australia","Reduced facies Cu",sandstone,,,,sandstone,,"2.5 km west of Mount Gunson. M14 (1.5 Mt) is hosted by black shale of Tapley Hill Fm.|","Pandura Fm,. Whyalla Ss.",,-31.4388888888889,137.133333333333,0.1275,AU
265,Dutchmans,,,AUSA,-31,-45,,137,45,,,,,,Australia,"South Australia","Redbed Cu",Sandstone,Dolomite,"U. Proterozoic",630,,,,,,-31.75,137.75,,AU
266,"Myall Creek",,,AUSA,-32,-15,,137,36,,,,,,Australia,"South Ausralia","Redbed Cu","Carbonaceous dolomite",,"U. Proterozoic",630,,,,"Taply Hill Fm.",,-32.25,137.6,,AU
267,"Red Hill",,,AUSA,-32,-20,,138,45,,,,,,Australia,"South Ausralia",Uncl.,"Siltstone, shale",,U.Proterozoic,630,,,,,,-32.3333333333333,138.75,,AU
268,Kanyaka,,,AUSA,-32,-25,,138,18,,,,,,Australia,"South Ausralia",Uncl.,"Siltstone, shale",,U.Proterozoic,630,,,,,,-32.4166666666667,138.3,,AU
269,"Prince Alfred",,,AUSA,-32,-25,,138,34,,,,,,Australia,"South Ausralia",Uncl.,"Siltstone, shale",,U.Proterozoic,630,,,,,,-32.4166666666667,138.566666666667,,AU
270,Burra,"Burra Burra",,AUSA,-33,-40,,138,50,,3.55,3,,,Australia,"South Australia","Reduced facies Cu","Limestone, marble breccia, dolomite|","Sandstone, red beds","U. Proterozoic",630,"Shale, tillite",,"Bornite in marble breccia. Chalcopyrite is stratabound in limestone. High-grade secondary ore in sinkholes.","Skillogalee Dolomite",,-33.6666666666667,138.833333333333,0.1065,AU
271,"Copper Claim",,,AUSA,-34,0,,138,15,,,,,,Australia,"South Australia",Uncl.,"Carbonaceous dolomite, siltstone, arkose, chert",,"U. Proterozoic",630,"siltstone, tuffaceous siltstone",,,"U. Callanna Grp.",,-34,138.25,,AU
272,Kapunda,,,AUSA,-34,-27,,138,41,,,,,,Australia,"South Australia","Reduced facies Cu","Carbonaceous, dolomitic siltstone",,"Upper Proterozoic",650,"siltstone, tillite",,,"Tapley Hill fm",,-34.45,138.683333333333,,AU
273,Kanmantoo,,,AUSA,-35,-6,,139,0,,12,1,,,Australia,"South Ausralia",Uncl.,"Garnet andalusite schist, quartz-feldspar schist, quartz-mica schist",,Cambrian,530,,,"Metamorphosed in Cambrian-Ordovician orogeny","Brukunga Fm.",,-35.1,139,0.12,AU
274,Gippsland,,,AUVT,-37,-45,,147,30,,,,,,Australia,Victoria,"Redbed Cu",,,Devonian-Carboniferous,345,,,,,,-37.75,147.5,,AU
275,Repparfjord,,,NRWY,70,26,,24,13,,3.06,0.663,,70,Norway,,"Redbed Cu","Sandstone, conglomerate",,"U. Proterozoic",1000,,,,,,70.4333333333333,24.2166666666667,0.0202878,EU
276,Aitik,,,SWDN,67,7,,21,0,,1066,0.4,,0.3,Sweden,,Uncl.,"Biotite schist, amphibolite",,Proterozoic,1500,,,"Contains 0.3 g/mt Au. Aitik may be a Fe oxide Cu-Au deposit.",,,67.1166666666667,21,4.264,EU
277,"Stora Strand",,,SWDN,58,59,,12,30,,,,,,Sweden,,Uncl.,"Mica-chlorite schist, amphibolite",,Proterozoic,1200,,,"Contains 1 % Cu.","Dalsland Grp.",,58.9833333333333,12.5,,EU
278,"Burray Island",,,UKSC,58,51,,-2,-56,,,,,,Scotland,"Orkney Islands",Uncl.,"Sandstone, algal dolomite",,"U. Devonian",370,,,"Contains Cu-Pb","Old Red Ss.",,58.85,-2.93333333333333,,EU
279,Visingso,,,SWDN,58,23,,14,30,,,,,,Sweden,,"Redbed Cu",Sandstone,,"L. Cambrian",550,,,,,,58.3833333333333,14.5,,EU
280,"Firth of Forth",,,UKSC,56,3,48,-3,-13,-30,,,,,Scotland,,"Redbed Cu","Algal limestone",,"L. Carboniferous",340,,,,"Oil Shale Grp., Birdiehouse Lms.",,56.0633333333333,-3.225,,EU
281,Drumshantie,Gourock,,UKSC,55,56,,-4,-47,,,,,,Scotland,,"Redbed Cu",Sandstone,,"L. Carboniferous",340,,,"Contains plant remains","Clyde Ss.",,55.9333333333333,-4.78333333333333,,EU
282,Larkfield,Gourock,,UKSC,55,53,,-4,-42,,,,,,Scotland,,"Redbed Cu",Sandstone,,"L. Carboniferous",340,,,,"Clyde Ss.",,55.8833333333333,-4.7,,EU
283,"Well 41/25A-1",,,UKEN,54,15,,5,30,,,,,,England,"North Sea","Reduced facies Cu",Mudstone,,Permian,260,,,"Sample 51 from 5654 feet contains 750 ppm Cu, 340 Pb, 116 Zn, 1,650 V, 230 Co","Marl Slate (Kupferschiefer)",,54.25,5.5,,EU
284,Helgoland,,,GRMY,54,9,,7,52,,,,,,Germany,,"Redbed Cu","Red sandstone",,"L. Triassic",220,,,,"Middle Bunter",,54.15,7.86666666666667,,EU
285,"Well 48/12-2",,,UKEN,53,31,,1,17,,,,,,England,"North Sea","Reduced facies Cu",Mudstone,,Permian,260,,,"One foot thick bed contains 7000 ppm Cu, base of Kupferschiefer","Marl Slate (Kupferschiefer)",,53.5166666666667,1.28333333333333,,EU
286,"Well 49/20-1",,,UKEN,53,24,,2,54,,,,,,England,"North Sea","Reduced facies Cu",Mudstone,,Permian,260,,,"Three inch thick bed contains 3000 ppm Cu,  1500 ppm V, 7908 feet deep","Marl Slate (Kupferschiefer)",,53.4,2.9,,EU
287,"Alderly Edge",,,UKEN,53,18,,-2,-15,,0.15,2.1,,,England,Cheshire,"Reduced facies Cu",,,Triassic,220,,,,"Helsby Ss.",,53.3,-2.25,0.00315,EU
288,"Mottram -St.Andews",,,UKEN,53,18,,-2,-13,,,,,,England,Cheshire,"Redbed Cu","Gray sandstone",,Triassic,220,,,,"Keuper Fm.",,53.3,-2.21666666666667,,EU
289,Ballyvergin,,,UKIR,52,53,,-8,-55,,0.136,1,,17.1,Ireland,,Uncl.,"Limestone, shale",,"L. Carboniferous",340,,,,,,52.8833333333333,-8.91666666666667,0.00136,EU
290,Eardiston,,,UKEN,52,50,,-2,-59,,,,,,England,Cheshire,"Reduced facies Cu","White sandstone",,Triassic,220,,,,"Keuper Fm.",,52.8333333333333,-2.98333333333333,,EU
291,Grinshill,,,UKEN,52,45,,-2,-40,,,,,,England,Cheshire,"Reduced facies Cu","Gray sandstone",,Triassic,220,,,,"Keuper Fm.",,52.75,-2.66666666666667,,EU
292,"Shore Hill",,,UKEN,52,45,,-2,-1,,,,,,England,,Uncl.,"Gray sandstone",,Triassic,220,,,,"Bunter Cgl.",,52.75,-2.01666666666667,,EU
293,Ballymacarbry,,,UKIR,52,16,,-7,-12,,,,,,Ireland,,"Redbed Cu",Sandstone,,Devonian,380,,,,"Old Red Ss., Toe Head Fm.",,52.2666666666667,-7.2,,EU
294,Mallow,,,UKIR,52,7,,-8,-39,,3.6,0.7,,27.4,Ireland,,Uncl.,"Limestone, shale",,"L. Carboniferous",340,,,,,,52.1166666666667,-8.65,0.0252,EU
295,Hahausen,,,GRMY,51,59,,10,12,30,,,,,Germany,,"Reduced facies Cu",shale,"Conglomerate, sandstone",Permian,260,,,,Zechstein,4038,51.9833333333333,10.2083333333333,,EU
296,"Wild Goat",,,UKIR,51,53,,-9,-57,,,,,,Ireland,,"Redbed Cu",Sandstone,Mudstone,"U. Devonian",370,,,,"West Cork Ss.",,51.8833333333333,-9.95,,EU
297,Osterode,,,GRMY,51,44,0,10,16,0,,,,,Germany,,"Reduced facies Cu","Calcareous clay",,Permian,260,,,,Zechstein,4038,51.7333333333333,10.2666666666667,,EU
298,"Southwest Cork",,,UKIR,51,40,,-8,-52,,,,,,Ireland,,"Redbed Cu",Sandstone,,"U. Devonian",370,,,"Grade < 0.2% Cu","West Cork Ss.",,51.6666666666667,-8.86666666666667,,EU
299,Zary,,,PLND,51,38,30,15,5,30,,,,,Poland,,"Redbed Cu","Sandstone, coal, shale",,L.Permian,270,,,"Fore-Sudetin Monocline",Rotliegendes,,51.6416666666667,15.0916666666667,,EU
300,Mansfeld,,Sangerhausen,GRMY,51,36,,11,28,,75,2.9,,150,Germany,,"Reduced facies Cu",,,Permian,260,,,"Thuringian Basin",Zechstein,4046,51.6,11.4666666666667,2.175,EU
301,Spremberg,,,GRMY,51,35,,14,22,,,,,,Germany,,"Reduced facies Cu","Bituminous clay, marl",,Permian,260,,,"Contains Cu, Zn, Pb",Zechstein,4038,51.5833333333333,14.3666666666667,,EU
302,Sierozovice,,,PLND,51,33,,15,54,,,,,,Poland,,"Reduced facies Cu","Limestone. sandstone",,Permian,260,,,,Zechstein,4033,51.55,15.9,,EU
303,Polkovice,,,PLND,51,29,30,16,2,30,,,,,Poland,,"Reduced facies Cu","Limestone. sandstone",,Permian,260,,,,Zechstein,4033,51.4916666666667,16.0416666666667,,EU
304,Sangerhausen,,,GRMY,51,29,24,11,16,48,,,,,Germany,,"Reduced facies Cu",,,Permian,260,,,"Contains Cu, Pb, Zn, Ag",Zechstein,4038,51.49,11.28,,EU
305,Marsberg,,,GRMY,51,28,0,8,53,15,4,1.5,,,Germany,,Uncl.,"Marl, bituninous limestone",,"U. Permian",260,,,"Fault-controlled chalcopyrite, pyrite, marcasite, tettrahedrite mineraization. Age of fault breccia is pre Zechstien",Zechstein,4038,51.4666666666667,8.8875,0.06,EU
306,Leitmar,,,GRMY,51,24,0,8,51,0,,,,,Germany,,"Reduced facies Cu",Clay,,Permian,260,,,"30 cm. seam of copper clay",Zechstein,4038,51.4,8.85,,EU
307,Udersleben,,Heldrungen,GRMY,51,24,0,10,15,24,,,,,Germany,,"Reduced facies Cu",,,Permian,260,,,,Zechstein,4038,51.4,10.2566666666667,,EU
308,Lubin,,Rudna,PLND,51,24,,16,8,,2600,2,,30,Poland,,"Reduced facies Cu","Shale, siltstone, sandstone",Sandstone,Permian,260,Limestone,,"major ore zone is in white sandstone",Zechstein,4033,51.4,16.1333333333333,52,EU
309,Malomice,,,PLND,51,23,,16,11,,,,,,Poland,,"Reduced facies Cu","Limestone. sandstone",,Permian,260,,,"Fore-Sudetin Monocline",Zechstein,4033,51.3833333333333,16.1833333333333,,EU
310,Witzenhausen,,,GRMY,51,20,0,9,52,0,,,,,Germany,,"Reduced facies Cu","Calcareous clay",,Permian,260,,,,Zechstein,4038,51.3333333333333,9.86666666666667,,EU
311,Lubichow,,,PLND,51,16,30,15,34,,,,,,Poland,,"Reduced facies Cu","Bituminous marly shale, limestone",,Permian,260,,,"North Sudetic Syncline",Zechstein,,51.275,15.5666666666667,,EU
312,Konrad,,,PLND,51,15,,13,43,,182.5,0.7,,,Poland,,"Reduced facies Cu","Shale, siltstone",Sandstone,Permian,260,Limestone,,,Zechstein,4033,51.25,13.7166666666667,1.2775,EU
313,Korbach,,,GRMY,51,13,,8,47,,,,,,Germany,,"Reduced facies Cu","Marl, limestone",,Permian,260,,,"12-15 layers. Up to 4% Cu",Zechstein,4038,51.2166666666667,8.78333333333333,,EU
314,Lena,,,PLND,51,6,30,15,49,,,,,,Poland,,"Reduced facies Cu","Marl, limestone",,Permian,260,,,"Fore-Sudetin Monocline",Zechstein,4033,51.1083333333333,15.8166666666667,,EU
315,"Nowy Kosciol",,,PLND,51,6,,15,54,,,,,,Poland,,"Reduced facies Cu","Limestone. sandstone",,Permian,260,,,"Fore-Sudetin Monocline",Zechstein,4033,51.1,15.9,,EU
316,Geismar,,,GRMY,51,5,0,8,52,0,,,,,Germany,,"Reduced facies Cu","Calcareous clay",,Permian,260,,,"1-2 m thick, 1.0 % Cu, 11 g/mt Ag",Zechstein,4038,51.0833333333333,8.86666666666667,,EU
317,Richelsdorf,,,GRMY,50,59,,9,54,,42,0.99,,25,Germany,,"Reduced facies Cu","Sandstone and slate","Gray sandstone",Permian,260,Slate,,"Cobalt minerals recovered.",Zechstein,4039,50.9833333333333,9.9,0.4158,EU
318,Schweina,,,GRMY,50,49,48,10,18,0,,,,,Germany,,"Reduced facies Cu",,,Permian,260,,,"Contains Cu, Ag            50.83/10.3",Zechstein,4038,50.83,10.3,,EU
319,Ilmenau,,,GRMY,50,42,0,10,53,24,,,,,Germany,,"Reduced facies Cu","Bituminous clay, marl",,Permian,260,,,"Contains Cu, Ag",Zechstein,4038,50.7,10.89,,EU
320,Kostalov,,,CZEC,50,37,,15,40,,,,,,"Czech Republic",Bohemia,"Redbed Cu",Siltstone,,Permian,280,Conglomerate,,"Contains V",,,50.6166666666667,15.6666666666667,,EU
321,Okrzeszyn,,,PLND,50,33,15,16,30,,,,,,Poland,,"Redbed Cu","Sandstone, coal, shale",,L.Permian,270,,,,Rotliegendes,,50.5541666666667,16.5,,EU
322,"Horni Vernerovice",Wernersdorf,,CZEC,50,34,,16,10,,,,,,"Czech Republic",Bohemia,"Redbed Cu",Claystone,,Permian,260,,,,,,50.5666666666667,16.1666666666667,,EU
323,Dolembreux,,,BLGM,50,32,,5,37,,,,,,Belgium,,Uncl.,Limestone,,"M. Devonian",385,,,"Contains Cu, Pb, Zn, Ba, F","Groeden Ss.",,50.5333333333333,5.61666666666667,,EU
324,Exmouth,,,UKEN,50,31,,-3,-30,,,,,,England,,Uncl.,Sandstone,,"U. Permian",260,,,"Contains U","New Red Ss.",,50.5166666666667,-3.5,,EU
325,"Horni Kalna",Wernersdorf,,CZEC,50,28,,15,32,,,,,,"Czech Republic",Bohemia,"Redbed Cu","Clay, siltstone",,Permian,260,,,"Contains U and V",,,50.4666666666667,15.5333333333333,,EU
326,Rouveroy,,,BLGM,50,22,,4,4,,,,,,Belgium,,Uncl.,"Shale, sandstone, conglomerate",,"L. Devonian",390,,,,"Bournot Fm.",,50.3666666666667,4.06666666666667,,EU
327,Huttengesass,,,GRMY,50,15,0,9,10,0,,,,,Germany,,"Reduced facies Cu","Calcareous clay",,Permian,260,,,,Zechstein,4038,50.25,9.16666666666667,,EU
328,Bieber,,,GRMY,50,10,0,9,20,0,,,,,Germany,,"Reduced facies Cu","Calcareous clay",,Permian,260,,,"2 m thick, 0.4 % Cu, 0.9 Pb, 40 g/mt Ag",Zechstein,4038,50.1666666666667,9.33333333333333,,EU
329,"Artemovsk Basin",,,UKRA,48,36,,38,2,,,,,,Ukraine,,Uncl.,"Sandy clay",,,,Limestone,,"Contains Cu grading upward to Pb Zn",,,48.6,38.0333333333333,,EU
330,Sankovce,,,SLOV,48,34,,20,18,,,,,,"Slovak Republic",,Uncl.,"Marl, schist, sandstone, gypsum, anhydrite",Evaporite,Permian-Triassic,225,,,,,,48.5666666666667,20.3,,EU
331,Dnestr,,,UKRA,48,30,,27,0,,,,,,Ukraine,,"Redbed Cu","Sandstone, carbonaceous shale",,"L. Devonian",390,,,,,,48.5,27,,EU
332,"Bakhmut Basinn",,,UKRA,48,30,,36,0,,,,,,Ukraine,,"Redbed Cu","Sandstone, siltstone, conglomerate",,"L. Permian",280,,,,"Kartamysh Fm.",,48.5,36,,EU
333,Donbass,,,UKRA,48,22,,38,7,,,,,,Ukraine,,"Redbed Cu","Sandstone, mudstone, silty carbonate",,"L. Permian",280,,,,"Kartamysh Fm.",,48.3666666666667,38.1166666666667,,EU
334,Darno-Hegy,,,HUNG,48,20,,21,30,,,,,,Hungary,,Uncl.,Shale,,"L. Mesozoic",200,,,,,,48.3333333333333,21.5,,EU
335,"Kal Mius","Torets Basin",,UKRA,47,30,,37,30,,,,,,Ukraine,,"Redbed Cu","Argillite, siltstone, sandstone",,"L. Permian",280,,,,"Kartamysh Fm.",,47.5,37.5,,EU
336,Murtschenalp,,,SWIS,47,4,,9,15,,,,,,Switzerland,,"Redbed Cu","Breccia, sandstone, siltstone",,Permian,260,,,,,,47.0666666666667,9.25,,EU
337,"South Tyrol",,,ITLY,46,23,,11,26,,,,,,Italy,,"Redbed Cu",Sandstone,,"M. Permian",260,,,,"Groeden Ss.",,46.3833333333333,11.4333333333333,,EU
338,Leysin,,,SWIS,46,21,,7,1,,,,,,Switzerland,,Uncl.,Marl,,Paleocene,60,,,,,,46.35,7.01666666666667,,EU
339,Ubine,,,FRNC,46,18,15,6,44,0,,,,,France,,"Redbed Cu",Marl,,Paleocene,60,,,,.,,46.3041666666667,6.73333333333333,,EU
340,"Le Biot",,,FRNC,46,15,0,6,39,0,,,,,France,,Uncl.,"Marl, limestone, calcareous sandstone",,Paleocene,60,,,,.,,46.25,6.65,,EU
341,Jambaz,,,FRNC,46,12,30,6,31,0,,,,,France,,Uncl.,"Marl, limestone, calcareous sandstone",,Paleocene,60,,,,.,,46.2083333333333,6.51666666666667,,EU
342,"La Riolle",,,FRNC,46,5,6,6,32,30,,,,,France,,Uncl.,Marl,,Paleocene,60,,,,.,,46.085,6.54166666666667,,EU
343,Skofje,,,SLVN,45,5,,14,15,,,,,,Slovenia,,"Redbed Cu","Gray sandstone, siltstone, shale",,Permian,260,,,"Panonian Basin","Val Gardena Seq.",,45.0833333333333,14.25,,EU
344,"Pont des Roberts",,,FRNC,44,4,0,6,51,30,,,,,France,,"Redbed Cu",Conglomerate,Permian,"L. Triassic",225,,,,.,,44.0666666666667,6.85833333333333,,EU
345,Bancairon,,,FRNC,44,3,15,6,51,36,,,,,France,,"Redbed Cu",Conglomerate,,"L. Triassic",225,,,"Overlies Permian beds",.,,44.0541666666667,6.86,,EU
346,Giordannet,,"Hubac de Jourdan Est",FRNC,44,2,0,6,51,30,,,,,France,,"Redbed Cu",,,Permian,260,,,,"Leouve Fm.",,44.0333333333333,6.85833333333333,,EU
347,Liouc,,,FRNC,44,1,45,6,50,0,,,,,France,,"Redbed Cu","Conglomerate, sandstone",,"L. Triassic",225,,,"Overlies Permian beds",.,,44.0291666666667,6.83333333333333,,EU
348,Cerisier,,,FRNC,43,59,12,6,53,30,,,,,France,,"Redbed Cu",Conglomerate,,"L. Triassic",225,,,"Overlies Permian beds",.,,43.9866666666667,6.89166666666667,,EU
349,Lodeve,,,FRNC,43,44,0,3,19,0,,,,,France,,Uncl.,"Conglomerate, sandstone",,Triassic,220,,,,.,,43.7333333333333,3.31666666666667,,EU
350,"Suva Planina Mountain",,,YUGO,43,10,,22,15,,,,,,Yugoslavia,Serbia,"Redbed Cu","Arkose, siltstone",Redbeds,Permian,260,,,,,,43.1666666666667,22.25,,EU
351,"Cap Garonne",,,FRNC,43,4,0,6,19,0,,,,,France,,"Redbed Cu","Conglomerate, sandstone",,"L. Triassic",225,,,"Overlies Permian beds",.,,43.0666666666667,6.31666666666667,,EU
352,Zaragoza,,,SPAN,41,35,,0,-55,,,,,,Spain,,Uncl.,Sandstone,,Oligocene,30,,,,"Sos y Biel Fm.",,41.5833333333333,-0.916666666666667,,EU
353,"Menorca Island",,,SPAN,39,59,,4,5,,,,,,Spain,,Uncl.,Marl,,"L Triassic",220,,,,,,39.9833333333333,4.08333333333333,,EU
354,Santomera,,,SPAN,38,3,,-1,-3,,,,,,Spain,,"Reduced facies Cu",Limestone,,Triassic,260,,,,,,38.05,-1.05,,EU
355,Granada,,,SPAN,37,33,,-1,-22,,,,,,Spain,,"Redbed Cu","Marl, sandstone",,Triassic,260,,,,,,37.55,-1.36666666666667,,EU
356,Nasar,,,IRAN,35,35,14,59,50,8,,,,,Iran,,Uncl.,"Tuffaceous sandstone",,Eocene,40,,,,,,35.5872222222222,59.8355555555556,,ME
357,Nuqeib,,,ISRL,32,45,,35,40,,,,,,Israel,,"Redbed Cu",Conglomerate,"Calcareous sandstone",Neogene,12,"Calcareous sandstone",,,"Herod Fm.",,32.75,35.6666666666667,,ME
358,Khanega,,,IRAN,31,0,2,51,20,6,,,,,Iran,,Uncl.,"Limestone and dolomite",,"Upper Cambrian",520,,,,,,31.0005555555556,51.335,,ME
359,Fenan,,,JRDN,30,36,,35,25,,65,1.2,,,Jordan,,Uncl.,"Clay, siltstone",Arkose,"L. Cambrian",560,,,,,,30.6,35.4166666666667,0.78,ME
360,"Abu Kashabia",,,JRDN,30,25,,35,15,,,,,,Jordan,,Uncl.,Arkose,,"L.r Cambrian",560,"Clay, siltstone",,,,,30.4166666666667,35.25,,ME
361,"Chehel Kureh",,,IRAN,30,11,,59,59,55,,,,,Iran,,Uncl.,Sandstone,,Tertiary,30,,,,,,30.1833333333333,59.9986111111111,,ME
362,"Har Timna",,"Har Mikhrot",ISRL,29,47,,34,58,30,,,,,Israel,,Uncl.,"Sandstone and shale, phosphorite, Mn-rich shale",,"L. Cambrian",560,Dolomite,,"Mobilzation of Cu in dolomite and redeposition in sandstone beds probably occurred in Miocene.","Timna Fm.",,29.7833333333333,34.975,,ME
363,Timna,,,ISRL,29,46,,34,57,,18.1,1.6,,,Israel,,Uncl.,"Sandstone and shale, phosphorite, Mn-rich shale",,"L. Cambrian",560,Dolomite,,"Mobilzation of Cu in dolomite and redeposition in sandstone beds probably occurred in Miocene. U-rich Mn nodules occur in phosphorite.","Timna Fm.",,29.7666666666667,34.95,0.2896,ME
364,"Hare Hakhlil",,,ISRL,29,44,,34,58,,,,,,Israel,,"Redbed Cu","White kaolinitic sandstone",,"Lower Cretaceous",124,Dolomite,,"Mobilzation of Cu in dolomite and redeposition in sandstone beds probably occurred in Miocene.","Amir Fm.",,29.7333333333333,34.9666666666667,,ME
365,"Kuhne Mes",,,IRAN,29,15,,53,45,,,,,,Iran,,"Redbed Cu","Sandstone, grit, conglomerate","Argillaceous dolomite",Paleocene-Eocene,55,"Dolomite, gypsum",,"Aincient mine","Sachun Fm.",,29.25,53.75,,ME
366,"Jabal Murryyi",,,SAAR,20,6,51,41,33,56,0.35,1.69,,22.7,"Saudi Arabia",,"Redbed Cu","Feldspathic sandstone","Quartz sericite schist","U. Proterozoic",800,"Quartz sericite schist",,,"Ablah Gr",2101,20.1141666666667,41.5655555555556,0.005915,ME
367,"Umm ar Rummf","Um ar Rumf",,SAAR,19,9,32,41,22,48,,,,,"Saudi Arabia",,Uncl.,"Feldspathic, chloritic, ankeritic quartzite",,"U. Proterozoic",800,,,"3 holes drilled in 1978-79.  Intercepts:  4.2 m of 0.375% Cu and 20 g/t Ag; 6.25 m of 0.366% Cu and 11 g/t Ag.  640 m outcropped strike length","Ablah Gr",2101,19.1588888888889,41.38,,ME
368,"Wadi Yiba",,,SAAR,19,9,22,41,48,57,,,,,"Saudi Arabia",,"Redbed Cu","Albite-chlorite hornfels","Hematitic quartz-sericite-chlorite-ankerite schists","U. Proterozoic",800,"Hematitic quartz-sericite-chlorite-ankerite schists",,"1.2 km at thickness averaging 1.1 m;  tested with 9 holes in 1968;  best intercept was in dolomitic marble:  true thickness 3.0 m @ 6.8% Cu and 31 g/t Ag","Ablah Gr",2101,19.1561111111111,41.8158333333333,,ME
369,"Al Mehdadah",,,SAAR,19,7,36,41,48,36,0.45,1.1,,7,"Saudi Arabia",,Uncl.,"quartz-sericite-biotite-garnet schist","Hematitic quartz-sericite-chlorite-ankerite schists","U. Proterozoic",800,"Hematitic quartz-sericite-chlorite-ankerite schists",,"6 diamond drillholes demonstrated 0.45 Mt at 1.1% Cu, 7 g/t Ag, and 0.6 g/t Au to a vertical depth of 100 m.  Rock in excess of 1% Cu has strike length of 250 m","Ablah Gr",,19.1266666666667,41.81,0.00495,ME
370,"Al Munayzir","Sharbon,  Sarbon",,SAAR,18,56,50,41,55,3,,,,,"Saudi Arabia",,"Redbed Cu","Feldspathic quartzite, cross-bedded","Quartz-sericite-chlorite schist","U. Proterozoic",800,,,"15 m strike length.  3 m true thickness at 0.33% Cu, 8 g/t Ag.","Ablah Gr",,18.9472222222222,41.9175,,ME
371,"Jabal Sa'aban","Sharbon,  Sarbon",,SAAR,18,52,41,41,56,37,,,,,"Saudi Arabia",,Uncl.,"Quartz-biotite-garnet schist","Quartzite, biotite schist, amphibolitic schist","U. Proterozoic",800,,,"2 holes drilled.  Best intercept was 2.54 m at 0.91% Cu and 6.05 g/t Ag underlain by 4.0 m at 2.52% Zn","Ablah Gr",2101,18.8780555555556,41.9436111111111,,ME
372,"Wadi Baqarah","RR Horizon, Wadi Hali",,SAAR,18,46,52,41,57,28,,,,,"Saudi Arabia",,"Redbed Cu","Metasandstone, crossbedded",,"U. Proterozoic",800,,,,"Ablah Gr",2101,18.7811111111111,41.9577777777778,,ME
373,"South Wadi Baqarah","GT Horizon, Wadi Hali",,SAAR,18,44,22,41,58,16,,,,,"Saudi Arabia",,Uncl.,"Dolomitic marble",,"U. Proterozoic",800,,,"Maximum thickness of bed about 1.2 m.  Grade:  typically 0.25% Cu.  highest 1 m sample:  1.4% Cu","Ablah Gr",2101,18.7394444444444,41.9711111111111,,ME
374,"Wadi Raysh",,,SAAR,18,41,,42,,,,,,,"Saudi Arabia",,Uncl.,"Calcareous green chlorite-sericite schist , dolomitic marble.",,"U. Proterozoic",800,,,"best-mineralized layer only 10 cm thick and locally up to 8.4% Cu.","Ablah Gr",2101,18.6833333333333,42,,ME
375,"Wadi Shinika","Jabal Sawdah",,SAAR,18,27,32,42,1,7,,,,,"Saudi Arabia",,Uncl.,"Dolomitic marble",,"U. Proterozoic",800,,,"Bottom 10 cm of bed:  6.5% Cu.  Bed is typically 40 cm thick.  Grade over 41 cm true thickness:  1.8% Cu, 10 g/t Ag.","Ablah Gr",2101,18.4588888888889,42.0186111111111,,ME
376,Ladderbjerg,,,GRLD,73,29,45,-22,-1,-45,2.5,0.15,,,Greenland,,"Redbed Cu",,,Permian,260,,,,"Huledal Fm.",5201,73.4958333333333,-22.0291666666667,0.00375,NA
377,"Brodeur Peninsula",,,CNWT,73,47,60,-86,0,0,,,,,Canada,"Northwest Territories",Uncl.,"Breccias (microcrystalline dolomite and limest)",,"Middle Silurian (Niagaran)",420,,"Localy traces of malachite occur, bituminous matter invariably present","Breccias formed by solution of originally interlaminated evaporites","Cape Crauford Formation, Member a, assemblAge 3",,73.8,-86,,NA
378,"Rubjerg Knude",,,GRLD,72,37,2,-23,-40,-50,5,0.3,,,Greenland,,"Redbed Cu","Conglomerate, sandstone",,"U. Permian",260,,,"Contains Cu, Ag, Pb, Zn","Huledal Fm.",5201,72.6172222222222,-23.6805555555556,0.015,NA
379,"Kent Peninsula-1",,,CNNT,68,12,0,-108,-10,-59,,,,,Canada,"Northwest Territories",Uncl.,"Black mudstone, shale",,"Proterozoic (Helikian)",1000,,,"Formation mainly made up of doloarenite, dolosiltite, stromatolitic dolomite","Parry Bay Fm.",,68.2,-108.183055555556,,NA
380,"Escape Rapids (esc 37, 38)",,,CNNT,67,35,5,-115,-32,-59,,,,,Canada,"Northwest Territories","Redbed Cu","Grey glauconitic sandstone and black shale",,"Proterozoic (hadrynian)",800,,,"Rae Group overlies Coppermine River Group","Rae Group, Coppermine River Group",,67.5847222222222,-115.549722222222,,NA
381,"Bud 942-947",,,CNNT,67,32,5,-115,-53,-44,,,,,Canada,"Northwest Territories","Redbed Cu","Sandst, qtzite, siltst, pebble conglom, mudstone",,"Middle Proterozoic",1000,,,,"Rae Group",,67.5347222222222,-115.895555555556,,NA
382,"Dumas Lake",,,CNNT,66,29,56,-116,-12,0,,,,,Canada,"Northwest Territories","Redbed Cu","Qtz wacke, maroon mudst, lithic wacke, conglom",,"Lower Proterozoic",1900,,"Hosted by 2 discrete sedimentary horizons in s and n limbs of anticline","Host rocks represent lacustrine and fluvial red bed sequence. Cu-Ag-Pb-U","Dumas Group",,66.4988888888889,-116.2,,NA
383,"Cc Lake",,,CNNT,65,24,34,-118,-52,-35,,,,,Canada,"Northwest Territories",Uncl.,Sandstone,,"Paleozoic (Cambrian?)",540,,"Mineralization occurs in saline River fm",,"Saline River Fm.",,65.4094444444444,-118.876388888889,,NA
384,"Tawu Anticline",,,CNNT,65,19,0,-131,-41,-59,,,,,Canada,"Northwest Territories","Redbed Cu",Sandstone,,Proterozoic,1000,,"Minerals are malachite and azurite",,"Tsezotene Formation",,65.3166666666667,-131.699722222222,,NA
385,"Hottah Lake (fns)",,,CNNT,64,52,30,-118,-34,-59,,,,,Canada,"Northwest Territories","Reduced facies Cu","Bituminous dolomite",,"Paleozoic (Ordovician?)",450,,"Numerous low-grade occurrences",,,,64.875,-118.583055555556,,NA
386,"Gillespie Lake",,,CNYT,64,46,60,-133,-55,-51,,,,,Canada,"Yukon Territory",Uncl.,Dolosiltstone,,"Middle Proterozoic",1000,,"Numerous minor showings in gillespie Lake area","Cu-Zn-Pb as coating on fracture surfaces intersecting laminated stromatolite","Gillespie Lake Group",,64.7833333333333,-133.930833333333,,NA
387,Frank,,,CNNT,63,52,33,-128,-5,-47,,,,,Canada,"Northwest Territories","Reduced facies Cu",Dolostone,,"Upper Proterozoic",1200,,,,"Coppercap Fm., Mackenzie Mtns Supergroup",,63.8758333333333,-128.096388888889,,NA
388,"June Creek","Keele River",,CNNT,63,49,18,-127,-58,-20,0.25,3.4,,,Canada,"Northwest Territories","Reduced facies Cu","Algal dolostone","Evaporite, stromatolitic dolomite, redbeds, mafic volcanics","U. Proterozoic",750,"Cherty limestone",,,"Coppercap Fm.",5246,63.8216666666667,-127.972222222222,0.0085,NA
389,Nite,,,CNNT,63,49,0,-128,-11,-59,,,,,Canada,"Northwest Territories","Reduced facies Cu",Limestone,,"Upper Proterozoic",1000,,"7 zones over a 2000 ft stratigraphic interval",Cu-Ag,"Coppercap Fm., Mackenzie Mtns Supergroup",,63.8166666666667,-128.199722222222,,NA
390,"Hutch East",,,CNNT,63,49,0,-127,-43,0,,,,,Canada,"Northwest Territories","Reduced facies Cu","Cryptalgal laminites",,"Upper Proterozoic",1200,,,,"Coppercap Fm., Mackenzie Mtns Supergroup",,63.8166666666667,-127.716666666667,,NA
391,"Fa gp-3, strat section bb 76-1",,"Fa gp-2, strat section bb 76-1",CNNT,63,47,16,-127,-28,0,,,,,Canada,"Northwest Territories","Reduced facies Cu","Siltstone, limestone",,"Upper Proterozoic",1200,,,,"Rapitan Fm. and little Dal Fm.",,63.7877777777778,-127.466666666667,,NA
392,"Scholtes-2, 3, 4",,,CNNT,63,46,30,-127,-25,-59,,,,,Canada,"Northwest Territories","Reduced facies Cu",Dolostone,,"Upper Proterozoic",1200,,"Scholtes-2 is 0.7 mile ne and scholtes-4 is 1.15 miles se of scholtes-3",,"Coppercap Fm., Mackenzie Mtns Supergroup",,63.775,-127.433055555556,,NA
393,Jay,"Keele River",,CNNT,63,46,20,-127,-49,-47,1.2,2.7,,,Canada,"Northwest Territories","Reduced facies Cu","Algal dolostone","Evaporite, stromatolitic dolomite, redbeds, mafic volcanics","U. Proterozoic",750,"Cherty limestone",,,"Coppercap Fm. Mackenzie Mtns Supergroup",5246,63.7722222222222,-127.829722222222,0.0324,NA
394,Lisa,"Keele River",,CNNT,63,43,20,-127,-18,-11,,,,,Canada,"Northwest Territories","Reduced facies Cu","Cryptalgal laminites",,"Upper Proterozoic",1200,,"Cu sulphides occur as diAgenetic replacements of anhydrite nodules",,"Coppercap Fm., Mackenzie Mtns Supergroup",,63.7222222222222,-127.303055555556,,NA
395,"Lucky Joe",,,CNYT,63,34,60,-139,-30,0,,,,,Canada,"Yukon Territory",Uncl.,"Quartz-muscovite and biotite schists",,"Lower Cambrian to middle Devonian",480,,,"Cu-Mo occurrences in very deformed and tectonically complex area.","Nasina facies, Yukon cataclastic complex",,63.5833333333333,-139.5,,NA
396,Hayhook,,,CNNT,63,28,10,-127,-4,-6,,,,,Canada,"Northwest Territories","Reduced facies Cu","Cryptalgal laminites",,"Upper Proterozoic",1000,,"This location represents only one part of the Cu Belt in hayhook area",,"Redstone River Fm., Mackenzie Mtns Supergroup",,63.4694444444444,-127.068333333333,,NA
397,"Cap Mountain",,,CNNT,63,25,20,-123,-13,-29,,,,,Canada,"Northwest Territories",Uncl.,"Ss, dolomitic siltstone, hematitic mudstones",,"Upper Proterozoic (Helikian?)",1400,,"Traces of Cu mineralization occur throughtout 3500-foot thick strata","Malachite-from 1200ft below map unit 1 to 650 ft above base map unit 3",,,63.4222222222222,-123.224722222222,,NA
398,"18 miles nw of Dal Lake",,,CNNT,63,15,50,-127,-2,-49,,,,,Canada,"Northwest Territories","Reduced facies Cu","Siltstone, slate, conglomerate, limestone, dlmt",,"Upper Proterozoic",1000,,"This location is the ctr of a mineralized zone trending ne for 5 miles",,"Rapitan Fm., little Dal Fm.",,63.2638888888889,-127.046944444444,,NA
399,"Ut Group-1",,,CNNT,63,14,58,-127,-1,-34,,,,,Canada,"Northwest Territories","Reduced facies Cu","Siltstone, slate, conglomerate, limestone, dlmt",,"Upper Proterozoic",1200,,,,"Rapitan Fm., little Dal Fm.",,63.2494444444444,-127.026111111111,,NA
400,"Sh Group-5",,,CNNT,63,7,15,-126,-52,0,,,,,Canada,"Northwest Territories","Reduced facies Cu","Siltstone, slate, conglomerate, limestone, dlmt",,"Upper Proterozoic",1200,,,Cu-Ag,"Rapian Fm., little Dal Fm.",,63.1208333333333,-126.866666666667,,NA
401,"Sh Group-3",,"Jasper Valley, Sh Group-4",CNNT,63,6,0,-126,-53,-29,,,,,Canada,"Northwest Territories","Reduced facies Cu","Siltstone, slate, conglomerate, limestone, dolom",,"Upper Proterozoic",1200,,,,"Rapitan Fm., little Dal Fm.",,63.1,-126.891388888889,,NA
402,"Reg (central Redstone)",,,CNNT,63,2,60,-126,-46,0,,,,,Canada,"Northwest Territories",Uncl.,"Siltstone, mudstone, conglomerate",,"Upper Proterozoic",1000,,"Elsewhere on claim Group secondary Cu in dolomite talus",,"Rapitan Fm.",,63.05,-126.766666666667,,NA
403,"Extension (kvale)",,,CNNT,62,53,30,-126,-36,-19,,,,,Canada,"Northwest Territories","Reduced facies Cu",Siltstone,,"Upper Proterozoic",1000,,"3 Cu-mineralized beds traced about 1 mile along strike",Cu-Ag,"Redstone River Fm., Mackenzie Mtns Supergroup",,62.8916666666667,-126.605277777778,,NA
404,"Coates Lake",Redstone,,CNNT,62,41,39,-126,-37,-12,37,3.9,,11.3,Canada,"Northwest Territories","Reduced facies Cu","Algal laminated dolomite, fine sandstone, siltstone","Evaporite, stromatolitic dolomite, redbeds, mafic volcanics","U. Proterozoic",750,"Cherty limestone",,"Sabkha, mud flat, and restricted basin facies","Coppercap FM.",5246,62.6941666666667,-126.62,1.443,NA
405,"Thundercloud Creek",,,CNNT,62,40,5,-126,-37,-59,,,,,Canada,"Northwest Territories","Reduced facies Cu","Pink slaty siltstone, minor shale, gypsum",,"Upper Proterozoic",1000,,,,"Redstone River Fm.",,62.6680555555556,-126.633055555556,,NA
406,Y-12,,,CNNT,62,34,10,-98,-48,-22,,,,,Canada,"Northwest Territories",Uncl.,Quartzite,,"Proterozoic (Aphebian)",2000,,,,"Kazan Fm.",,62.5694444444444,-98.8061111111111,,NA
407,"Thundercloud Range",,,CNNT,62,30,47,-126,-12,-43,,,,,Canada,"Northwest Territories",Uncl.,"Mudstone, siltstone, conglom, ss, dolomite, limest",,"Upper Proterozoic",1000,,,"Cu likely associated with Rapitan Group, Whittaker Fm., Ordovician-Silurian Age","Rapitan Group, Whittaker Formation",,62.5130555555556,-126.211944444444,,NA
408,"Stark Lake-Wilson Lake",,,CNNT,62,28,0,-110,-9,-29,,,,,Canada,"Northwest Territories",Uncl.,"Light grey dolomite",,"Lower Proterozoic (Aphebian)",2000,,"Approx 12 zones, zones up to 100 ft long and 10 ft wide","Along a strike length of 1200 ft","Stark Fm., Great Slave Group",,62.4666666666667,-110.158055555556,,NA
409,"Flat River",,,CNYT,61,16,0,-127,-4,-59,,,,,Canada,"Yukon Territory",Uncl.,"Phyllite, slate, quartzite, siltstone, argillite",,Cambrian,540,,,,"Phyllite unit",,61.2666666666667,-127.083055555556,,NA
410,"Ennadai Lake","Nueltin project",,CNNT,60,36,50,-101,-12,0,,,,,Canada,"Northwest Territories",Uncl.,Greywacke,,"Lower Proterozoic (Aphebian)",2000,,,"Greywacke derived from quartz-mica schist","Hurwitz Group",,60.6138888888889,-101.2,,NA
411,"Poorfish Lake(Nueltin project)","Nueltin projec",,CNNT,60,11,8,-100,-31,-24,,,,,Canada,"Northwest Territories","Redbed Cu","Argillite, phyllite, greywacke, minor dolomite",,"Lower Proterozoic (Aphebian)",2000,,"Two zones 10-15 ft wide and 82 and 78 ft long","Lithologies given form the oldest unit of the Hurwitz Group. Contains Au, Ag.","Hurwitz Group",,60.1855555555556,-100.523333333333,,NA
412,Ramah,"Blow-Me-Down Mountain",,CNNF,58,44,20,-63,-6,-51,,,,,Canada,Newfoundland,Uncl.,"Slate, quartzite, mica schist, arkose, conglomerate, dlmt",,"Proterozoic (NeoHelikian)",1000,,,,"Ramah Group",,58.7388888888889,-63.1141666666667,,NA
413,Callison,,,CNBC,58,20,21,-124,-32,-31,,,,,Canada,"British Columbia",Uncl.,"Feldspathic quartzites",,Proterozoic,1000,,"Dissem Chalcopyrite occurs in 30-ft bed of well-sorted white qtzite","Occurrence within 5000-ft of feldspathic quartzite and argillaceous dolomites","Tuchodi Fm.",,58.3391666666667,-124.541944444444,,NA
414,"Nekweaga Bay",,,CNSA,57,46,60,-103,-43,-59,,,,,Canada,Saskatchewan,Uncl.,"Grey meta-quartzite",,"Lower Proterozoic (Aphebian)",2000,,"Grades 1% Cu over 8 ft width",,,,57.7833333333333,-103.733055555556,,NA
415,"Johnson Lake area",,,CNSA,57,27,30,-104,-10,-9,,,,,Canada,Saskatchewan,Uncl.,Quartzite,,"Lower Proterozoic (Aphebian)",2000,,"Galena mineralization for 17000(?) Ft along contact","Galena (minor Cu) along metasediment-granitic contact for 17000(?) ft. Pb-Zn-Cu-Ag",,,57.4583333333333,-104.169166666667,,NA
416,"Rafuse Lake",,"Wollaston Lake Fold Belt",CNSA,56,54,30,-104,-56,-35,,,,,Canada,Saskatchewan,"Redbed Cu",Meta-conglomerate,,"Lower Proterozoic (Aphebian)",2000,,"In place chalcocite-native Cu, in boulders galena, cc, malachite, azurite","Cu-Pb mineralization quite likely stratiform","Daly Lake Group",,56.9083333333333,-104.943055555556,,NA
417,"Juno Lake",,,CNSA,56,52,38,-104,-54,-57,,,,,Canada,Saskatchewan,"Redbed Cu",Meta-arkose,,"Lower Proterozoic (Aphebian)",2000,,"Mineralization quite likely stratiform if not essentially stratabound",,"Daly Lake Group",,56.8772222222222,-104.915833333333,,NA
418,"Janice Lake",,"Kaz Lake",CNSA,56,52,30,-104,-58,-24,,,,,Canada,Saskatchewan,"Redbed Cu","Meta-conglomerate (ss pebbles in arkose matri",,"Lower Proterozoic (Aphebian)",2000,,,,"Daly Lake Group",,56.875,-104.973333333333,,NA
419,"Swampy Bay River",,,CNQU,56,39,20,-68,-34,-59,,,,,Canada,Quebec,Uncl.,Dolomite,,"Lower Proterozoic",1900,,,,"Dunphy Formation",,56.6555555555556,-68.5830555555555,,NA
420,"Richmond Gulf-1",,,CNQU,56,26,30,-76,-25,-59,,,,,Canada,Quebec,"Reduced facies Cu","Carbonate, quartz arenite, arkose, shale",,"Lower Proterozoic (Upper Aphebian)",1900,,,"Carbonate with intercalated 4 metere thick pyritic breccia zone","Nastapoka Group",,56.4416666666667,-76.4330555555556,,NA
421,"Richmond Gulf-3",,,CNQU,56,24,20,-76,-27,-49,,,,,Canada,Quebec,"Reduced facies Cu","Dolomite, quartz arenite, arkose, shale",,"Lower Proterozoic (Upper Aphebian)",1900,,,"Carbonate with intercalated 4 meter thick pyritic breccia zone. Cu-Co","Nastapoka Group",,56.4055555555556,-76.4636111111111,,NA
422,"Romanet River","Canada Tungsten",,CNQU,56,23,36,-67,-53,-39,,,,,Canada,Quebec,Uncl.,Dolomite,,"Lower Proterozoic",1900,,,,"Dunphy Formation",,56.3933333333333,-67.8941666666667,,NA
423,"La Loche",,,CNSA,56,22,0,-109,-15,0,,,,,Canada,"Saskatche- wan",Uncl.,"Grey fine to v coarse quartzose sandstone",,Cambrian,540,,"Basal ss present in 9 of 12 boreholes drilled btwn la ronge and la loche","Host rock possibly as young as lower Devonian, maximum sandstone thickness 56.4 m. Cu-Pb-Zn","Basal sandstone Formation, Elk Point Group",,56.3666666666667,-109.25,,NA
424,"Copper cove","Richmond Gulf",,CNQU,56,21,0,-76,-26,-55,,,,,Canada,Quebec,"Redbed Cu",Arkose,,"Lower Proterozoic (Upper Aphebian)",1900,,"Mineralized zone 150 m long by 6 m wide outcrops along cliff-face","Zone lies with pyritic zone 25m beneath unconformity with Nastapoka Group","Qingaalik Formation, RichmondGulfGroup",,56.35,-76.4486111111111,,NA
425,"Richmond Gulf-2",,,CNQU,56,20,45,-76,-25,-39,,,,,Canada,Quebec,"Redbed Cu","Grey pyritic sandstone, chloritic arkose",,"Lower Proterozoic (Upper Aphebian)",1900,,"OcCurs 100 m beneath unconformity with nastapoka Group",,"Qingaalik Formation, RichmondGulfGroup",,56.3458333333333,-76.4275,,NA
426,"Richmond Gulf-4",,,CNQU,56,19,0,-76,-25,0,,,,,Canada,Quebec,"Redbed Cu",Sandstone,,"Lower Proterozoic (Upper Aphebian)",1900,,"Malachite stains fractures in bleached zone of qingaaluk Formation",,"Qingaalik Formation, RichmondGulfGroup",,56.3166666666667,-76.4166666666667,,NA
427,"Romanet Lake",,,CNQU,56,16,56,-67,-49,-54,,,,,Canada,Quebec,Uncl.,Dolomite,,"Lower Proterozoic",1900,,"4 occurrences west of romanet Lake (2 occ-1 km w of bellefleur Lake)",,"Dunphy Formation",,56.2822222222222,-67.8316666666667,,NA
428,Tosi,,,CNSA,56,13,60,-105,-43,0,,,,,Canada,Saskatchewan,Uncl.,"Graphitic quartzite",,"Lower Proterozoic (Aphebian)",2000,,,"Chalcopyrite-chalcocite mineralization",,,56.2333333333333,-105.716666666667,,NA
429,"Bacon Lake",,,CNQU,56,16,16,-67,-47,-44,,,,,Canada,Quebec,Uncl.,Dolomite,,"Lower Proterozoic",1900,,,,"Dunphy Formation",,56.2711111111111,-67.7955555555556,,NA
430,"Dunphy Lake",,,CNQU,56,3,30,-67,-43,0,,,,,Canada,Quebec,Uncl.,Dolomite,,"Lower Proterozoic",1900,,,,"Dunphy Formation",,56.0583333333333,-67.7166666666667,,NA
431,"Northstar Main",,,CNBC,56,2,60,-126,-16,0,,,,,Canada,"British Columbia","Reduced facies Cu",Siltstone,,Triassic,220,,"Several types of Cu mineralization occur on this property",,"Hazelton Group",,56.05,-126.266666666667,,NA
432,"Elizabeth Lake",,,CNSA,55,19,52,-105,-22,0,,,,,Canada,Saskatchewan,Uncl.,"Metased gneiss band, mainly biotite gneiss",,"Lower Proterozoic (Aphebian)",2000,,"Deposit type questionable","Numerous low-grade zones and 3 small medium-grade zones. Cu-Zn-Au-Pb",,,55.3311111111111,-105.366666666667,,NA
433,"Ellis Pond mineral occ no 26",,,CNNF,54,18,50,-61,-57,-58,,,,,Canada,Newfoundland,"Reduced facies Cu","Green-grey shale interlensed with quartzite",,"Middle Proterozoic (NeoHelikian)",1000,,"This property is one of 250 showings in the area",Cu-Ag-Ba,"Adeline Island Fm., Seal Lake Group",,54.3138888888889,-61.9661111111111,,NA
434,"Spriggs Lake",,,CNNF,54,29,35,-61,-40,-59,,,,,Canada,"Newfound- land","Reduced facies Cu",Quartzite,,"Proterozoic (NeoHelikian)",1100,,,Cu-U,"Seal Lake Group",,54.4930555555556,-61.6830555555556,,NA
435,"Duck Lake south",,,CNNF,54,18,25,-61,-47,-41,,,,,Canada,Newfound-|land,"Reduced facies Cu","Grey shale",,"Proterozoic (NeoHelikian)",1100,,"Also a few similar small showings btwn duck Lake and brian prospect",,"Adeline Island Fm., Seal Lake Group",,54.3069444444444,-61.7947222222222,,NA
436,"Brandy Lake prospect",,,CNNF,54,18,11,-61,-36,-1,,,,,Canada,"Newfound- land","Reduced facies Cu",Shlae,,"Proterozoic (NeoHelikian)",1100,,,,"Adeline Island Fm., Seal Lake Group",,54.3030555555556,-61.6002777777778,,NA
437,"Gull Lake",,"Brian prospect",CNNF,54,18,40,-61,-53,-34,,,,,Canada,"Newfound- land","Reduced facies Cu","Shale, slate",,"Proterozoic (NeoHelikian)",1100,,"3 occurrences",Cu-Ag,"Adeline Island Fm., Seal Lake Group",,54.3111111111111,-61.8927777777778,,NA
438,"Duck Lake east showing",,,CNNF,54,18,15,-61,-45,-29,,,,,Canada,"Newfound- land","Reduced facies Cu","Grey shale, quartzite",,"Proterozoic (NeoHelikian)",1100,,,Cu-Ag,"Adeline Island Fm., Seal Lake Group",,54.3041666666667,-61.7580555555556,,NA
439,"Seal Lake-19",,,CNNF,54,18,10,-61,-41,-27,,,,,Canada,Newfound-|land,"Reduced facies Cu","Grey shale",,"Proterozoic (NeoHelikian)",1100,,,,"Adeline Island Fm., Seal Lake Group",,54.3027777777778,-61.6908333333333,,NA
440,"Adeline Lake-3",,,CNNF,54,17,60,-62,-1,-49,,,,,Canada,Newfoundland,"Reduced facies Cu","Grey shale, slate",,"Proterozoic (NeoHelikian)",1000,,"2 occurrences",,"Adeline Island Fm., Seal Lake Group",,54.3,-62.0302777777778,,NA
441,"Adeline Island prospect",,,CNNF,54,17,53,-62,-3,-29,,,,,Canada,Newfoundland,"Reduced facies Cu","Grey shale, quartzite",,"Proterozoic (NeoHelikian)",1000,,"Widespread but erratic mineralization along the same horizon",Cu-Ag-Zn,"Adeline Island Fm., Seal Lake Group",,54.2980555555556,-62.0580555555556,,NA
442,"Seal Lake-18",,"Seal Lake-20",CNNF,54,17,45,-61,-40,-49,,,,,Canada,"Newfound- land","Reduced facies Cu","Grey shale",,"Proterozoic (NeoHelikian)",1100,,,,"Adeline Island Fm., Seal Lake Group",,54.2958333333333,-61.6802777777778,,NA
443,"Adeline Lake east-showing no 7",,,CNNF,54,16,50,-61,-59,-41,,,,,Canada,"Newfound- land","Reduced facies Cu",Argillite,,"Proterozoic (NeoHelikian)",1100,,,,"Whiskey Lake Formation, Seal Lake Group",,54.2805555555556,-61.9947222222222,,NA
444,"No Mans Lake-2",,,CNNF,54,16,1,-61,-46,-34,,,,,Canada,"Newfound- land","Reduced facies Cu","Quartzite, argillite",,"Proterozoic (NeoHelikian)",1100,,"Scattered mineralization in zone 300 ft long and 3 to 8 ft wide","Scattered mineralization in zone 300 ft long and 3 to 8 ft wide","Whiskey Lake Fm., Seal Lake Group",,54.2669444444444,-61.7761111111111,,NA
445,"Whiskey Lake south showing",,,CNNF,54,15,30,-61,-34,-17,,,,,Canada,"Newfound- land","Reduced facies Cu","Green-grey quartzite",,"Proterozoic (NeoHelikian)",1100,,,,"Whiskey Lake Fm., Seal Lake Group",,54.2583333333333,-61.5713888888889,,NA
446,Ml,,,CNBC,52,35,29,-121,-46,-39,,,,,Canada,"British Columbia",Uncl.,"Limestone, maroon to grey sandstone",,"Lower Jurassic",180,,"Syenite dykes Cut all sedimentary rock types in the area",,,,52.5913888888889,-121.7775,,NA
447,"Panther Creek",,,CNAL,51,28,0,-115,-52,0,,,,,Canada,Alberta,Uncl.,"Dolomite-mottled limestone",,Cambrian,550,,,,"Eldon Formation",,51.4666666666667,-115.866666666667,,NA
448,"North Kootenay Pass area-6",,,CNAL,49,26,47,-114,-34,-22,,,,,Canada,Alberta,Uncl.,Quartzite,,"Middle Proterozoic (Helikian)",1400,,"Cu occurs adjacent to fault zones and contact of diorite instrusions",Pb-Zn-Cu,"Upper Grinnell Fm., Purcell (Belt) Supergroup",,49.4463888888889,-114.572777777778,,NA
449,"North Kootenay Pass area-4",,,CNAL,49,26,14,-114,-34,-6,,,,,Canada,Alberta,Uncl.,Quartzite,,"Middle Proterozoic (Helikian)",1400,,"Cu occurs adjacent to fault zones and contacts of diorite intrusions",Pb-Zn-Cu,"Upper Grinnell Fm., Purcell (Belt) Supergroup",,49.4372222222222,-114.568333333333,,NA
450,"North Kootenay Pass area-3",,,CNAL,49,25,19,-114,-34,-30,,,,,Canada,Alberta,Uncl.,Quartzites,,"Middle Proterozoic (Helikian)",1400,,"Cu occurs adjacent to fault zones and contacts of diorite intrusions",Pb-Zn-Cu,"Upper Grinnell Fm., Purcell (Belt) Supergroup",,49.4219444444444,-114.575,,NA
451,"North Kootenay Pass area-2",,,CNAL,49,24,21,-114,-33,-52,,,,,Canada,Alberta,Uncl.,Quartzites,,"Middle Proterozoic (Helikian)",1400,,"Cu occurs adjacent to fault zones and contacts of diorite intrusions",Pb-Zn-Cu,"Upper Grinnell Fm., Purcell (Belt) Supergroup",,49.4058333333333,-114.564444444444,,NA
452,"North Kootenay Pass area-1",,,CNAL,49,23,46,-114,-33,-49,,,,,Canada,Alberta,Uncl.,Quartzites,,"Middle Proterozoic (Helikian)",1400,,"Cu occurs adjacent to fault zones and contacts of diorite intrusions",Pb-Zn-Cu,"Upper Grinnell Fm., Purcell (Belt) Supergroup",,49.3961111111111,-114.563611111111,,NA
453,"North Kootenay Pass",,,CNBC,49,23,11,-114,-34,-32,,,,,Canada,"British Columbia","Reduced facies Cu",Argillite,,"Middle Proterozoic (Helikian)",1400,,,,"Gateway Fm., Purcell (Belt) Supergroup",,49.3863888888889,-114.575555555556,,NA
454,"Table Mountain",,,CNAL,49,22,0,-114,-15,0,,,,,Canada,Alberta,"Reduced facies Cu","Silty dolomite",,"Middle Proterozoic",1400,,,Pb-Cu-Zn,"Siyeh Fm., Purcell (Belt) Supergroup",,49.3666666666667,-114.25,,NA
455,"Barnaby Ridge",,,CNAL,49,19,57,-114,-21,-57,,,,,Canada,Alberta,"Reduced facies Cu",Arenite,,"Middle Proterozoic",1400,,,,"Siyeh Fm., Purcell (Belt) Supergroup",,49.3325,-114.365833333333,,NA
456,"Whistler Mountain-1",,,CNAL,49,19,57,-114,-18,-16,,,,,Canada,Alberta,"Redbed Cu","Quartz arenite within red siltstone",,"Middle Proterozoic",1400,,"Sulphides occur intergrown with silica cement","More than 25 mineralized quartz arenite units","Grinnell Fm., Purcell (Belt) Supergroup",,49.3325,-114.304444444444,,NA
457,"Whistler Mountain-2",,,CNAL,49,19,47,-114,-18,-31,,,,,Canada,Alberta,"Redbed Cu","Argillite, sandstone, siltstone, quartzite",,"Middle Proterozoic",1400,,,Cu-Ag,"Grinnell Formation, Purcell (Belt) Supergroup",,49.3297222222222,-114.308611111111,,NA
458,"Whistler Mountain-3",,,CNAL,49,19,43,-114,-18,-9,,,,,Canada,Alberta,"Redbed Cu","Argillite, sandstone, siltstone, quartzite",,"Middle Proterozoic",1400,,,Cu-Ag,"Grinnell Formation, Purcell (Belt) Supergroup",,49.3286111111111,-114.3025,,NA
459,"Grizzly Creek",,,CNAL,49,18,29,-114,-20,-35,,,,,Canada,Alberta,"Redbed Cu",Quartzite,,"Middle Proterozoic",1400,,"Sulphides occur intergrown with silica cement","Sulphides occur intergrown with silica cement","Grinnell Fm., Purcell (Belt) Supergroup",,49.3080555555556,-114.343055555556,,NA
460,"Drywood Creek",,,CNAL,49,17,47,-114,-2,-15,,,,,Canada,Alberta,"Redbed Cu",Sandstone,,"Middle Proterozoic",1400,,,,"Grinnell Fm., Purcell (Belt) Supergroup",,49.2963888888889,-114.0375,,NA
461,"Middle Kootenay Pass",,,CNAL,49,15,0,-114,-22,-29,,,,,Canada,Alberta,"Redbed Cu","Quartz arenite, sandstone",,"Middle Proterozoic",1400,,"Sulphides occur intergrown with silica cement","Sulphides occur intergrown with silica cement","Grinnell Fm., Purcell (Belt) Supergroup",,49.25,-114.374722222222,,NA
462,"West Castle River-2",,,CNAL,49,16,26,-114,-20,-16,,,,,Canada,Alberta,"Reduced facies Cu","Limest, dolomite, argillite, stromatolitic lmsn",,"Middle Proterozoic",1400,,,Cu-Ag,"Siyeh Formation, Purcell (Belt) Supergroup",,49.2738888888889,-114.337777777778,,NA
463,"Spionkop Creek 1","Spionkop Ridge",,CNAL,49,13,36,-114,0,-15,,,,,Canada,Alberta,"Redbed Cu","White and green quartzite, green argillite",Diabase,"Middle Proterozoic",1000,,"Cu occurs also in underlying diabase intrusion","Cu occurs also in underlying diabase intrusion. Cu-Ag","Grinnell Fm., Purcell (Belt) Supergroup",,49.2266666666667,-114.004166666667,,NA
464,"Spionkop Creek 2",,,CNAL,49,13,40,-114,-1,0,,,,,Canada,Alberta,"Redbed Cu","Argillite, sandstone",,"Middle Proterozoic",1000,,,,"Grinnel Fm., Purcell (Belt) Supergroup",,49.2277777777778,-114.016666666667,,NA
465,"Bovin Lake",,,CNAL,49,13,15,-114,-8,-13,,,,,Canada,Alberta,"Reduced facies Cu",Argillite,,"Middle Proterozoic",1000,,,,"Gateway Fm., Purcell (Belt) Supergroup",,49.2208333333333,-114.136944444444,,NA
466,"Loaf Mountain",,,CNAL,49,12,57,-114,-7,-29,,,,,Canada,Alberta,"Reduced facies Cu",Argillite,,"Middle Proterozoic",1000,,,,"Gateway Fm., Purcell (Belt) Supergroup",,49.2158333333333,-114.124722222222,,NA
467,"Blind Canyon-2",,,CNAL,49,12,54,-114,0,-15,,,,,Canada,Alberta,"Redbed Cu","Argillite, sandstone",,"Middle Proterozoic",1000,,,,"Grinnell Fm., Purcell (Belt) Supergroup",,49.215,-114.004166666667,,NA
468,"West Castle River-1",,,CNAL,49,12,31,-114,-21,0,,,,,Canada,Alberta,"Reduced facies Cu","Sandstone, dolomite, argillite, siltstone",,"Middle Proterozoic",1000,,,Cu-Ag,"Sheppard Formation, Purcell (Belt) Supergroup",,49.2086111111111,-114.35,,NA
469,"Yarrow Creek",,,CNAL,49,12,4,-113,-58,-56,,,,,Canada,Alberta,"Redbed Cu",Quartzite,,"Middle Proterozoic",1400,,,Cu-Ag,"Appekunny Fm., Purcell (Belt) Supergroup",,49.2011111111111,-113.982222222222,,NA
470,"Yarrow Creek-main zone",,,CNAL,49,11,43,-113,-59,-53,,,,,Canada,Alberta,"Redbed Cu","Quartzite, sandstone",Diabase,"Middle Proterozoic",1400,,"Cu also occurs in underlying diabase intrusions",Cu-Ag,"Grinnell Fm., Purcell (Belt) Supergroup",,49.1952777777778,-113.998055555556,,NA
471,"Castle River, Loaf Mountain-2",,,CNAL,49,11,8,-114,-5,-48,,,,,Canada,Alberta,"Reduced facies Cu","Argillite, siltstone, dolomite, dolomitic sandstone",,"Middle Proterozoic",1000,,,Cu-Ag,"Gateway-Boosville Formations, Missoula Group",,49.1855555555556,-114.096666666667,,NA
472,"Castle River, Loaf Mountain-3",,,CNAL,49,11,33,-114,-6,-10,,,,,Canada,Alberta,"Reduced facies Cu","Argillite, siltstone, dolomite, dolomitic sandstone",,"Middle Proterozoic",1000,,,Cu-Ag,"Gateway-Boosville Formations, Missoula Group",,49.1925,-114.102777777778,,NA
473,"Castle River, Loaf Mountain-1",,,CNAL,49,10,49,-114,-6,-41,,,,,Canada,Alberta,"Reduced facies Cu","Argillite, siltstone, dolomite, dolomitic sandstone",,"Middle Proterozoic",1000,,,Cu-Ag,"Gateway-Boosville Formations, Missoula Group",,49.1802777777778,-114.111388888889,,NA
474,"Commerce Creek",,,CNBC,49,10,11,-114,-23,-16,,,,,Canada,"British Columbia","Redbed Cu",Arenite,,"Middle Proterozoic",1500,,"Several zones and showings, reserves for a dolomite bed",Cu-Ag-Au,"Grinnell Fm., Purcell (Belt) Supergroup",,49.1697222222222,-114.387777777778,,NA
475,"Sage Creek 1","Commerce Peak",,CNBC,49,9,10,-114,-20,-44,,,,,Canada,"British Columbia","Reduced facies Cu","Gray argillite, siltst, sandstone, dolomite, arenites",,"Middle Proterozoic",1500,,"Arenite up to 10 ft thick carry 0.27 to 1.57% Cu and 0.3 to 5 ppm Ag","Arenite up to 10 ft thick carry 0.27 to 1.57% Cu and 0.3 to 5 ppm Ag","Roosville Formation, Purcell (Belt) Supergroup",,49.1527777777778,-114.345555555556,,NA
476,"Sage Creek 2",,,CNBC,49,8,60,-114,-17,-9,,,,,Canada,"British Columbia","Reduced facies Cu","Gray argillite, siltst, sandstone, dolomite, arenite",,"Middle Proterozoic",1500,,"Arenite up to 10 ft thick carry 0.27 to 1.57% Cu and 0.3 to 5 ppm Ag","Arenite up to 10 ft thick carry 0.27 to 1.57% Cu and 0.3 to 5 ppm Ag","Roosville Formation, Purcell (Belt) Supergroup",,49.15,-114.285833333333,,NA
477,"Disraeli Lake",Commerce,,CNON,49,8,55,-88,-59,-29,,,,,Canada,Ontario,"Reduced facies Cu","Dolomite, limestone",,"Middle Proterozoic",2000,,"Mineralization of limited extent occurs 1.1 km w of north end of Lake","Age of host rock is not necessarily Age of mineralization in this case. Cu-Pb","Sibley Group",,49.1486111111111,-88.9913888888889,,NA
478,"Sage Creek 4","Langemarck Mtn-2",,CNBC,49,8,15,-114,-20,-4,,,,,Canada,"British Columbia","Reduced facies Cu","Limestone, dolomite, argillite, arenites",,"Middle Proterozoic",1500,,,,"Siyeh Formation, Purcell (Belt) Supergroup",,49.1375,-114.334444444444,,NA
479,"Sage Creek 3","Langemarck Mtn-1",,CNBC,49,7,60,-114,-22,-39,,,,,Canada,"British Columbia","Redbed Cu","Argillite, sandstone, siltstone, qtzite, arenites",,"Middle Proterozoic",1500,,"1-2 ft thick beds of lower grinell carry 2.5 to 5.0% Cu","1-2 ft thick beds of lower grinell carry 2.5 to 5.0% Cu","Grinnell Formation, Purcell (Belt) Supergroup",,49.1333333333333,-114.3775,,NA
480,"Blakiston Creek",,,CNAL,49,7,57,-114,0,-56,,,,,Canada,Alberta,"Redbed Cu","Argillite, sandstone",,"Middle Proterozoic",1000,,,Cu-Ag,"Grinnell Fm., Purcell (Belt) Supergroup",,49.1325,-114.015555555556,,NA
481,"Mount Lineham",,,CNAL,49,4,51,-114,0,-27,,,,,Canada,Alberta,"Redbed Cu","Argillites, sandstones",,"Middle Proterozoic",1000,,"Near thrust fault",Cu-Ag,"Grinnell Fm., Purcell (Belt) Supergroup",,49.0808333333333,-114.0075,,NA
482,"Cameron Brook",,,CNAL,49,3,54,-114,0,-53,,,,,Canada,Alberta,"Redbed Cu","Argillite, sandstone",,"Middle Proterozoic",1000,,,Cu-Ag,"Grinnell Fm., Purcell (Belt) Supergroup",,49.065,-114.014722222222,,NA
483,"Akamina, Flathead Valley",,,CNBC,49,2,24,-114,-16,-5,,,,,Canada,"British Columbia","Redbed Cu","Quartzite (sandstone)",,Helikian,1400,,"Also as clots associated with shale frAgments and as fracture fillings",Cu-Ag,"Purcell series, Grinnell Fm.",,49.04,-114.268055555556,,NA
484,"Kishinena Creek",,,CNBC,49,1,60,-114,-16,-19,,,,,Canada,"British Columbia",Uncl.,"Argillite, sandstone, siltstone, arenite",,"Middle Proterozoic",1500,,"Numerous showings with grades around 0.3% Cu and 14 ppm Ag","Considerable Cu-Ag enrichment with grades around 0.3% Cu and 14 ppm Ag, adjacent to normal faults","Middle-upper Grinnell Fm., Purcell Supergroup",,49.0333333333333,-114.271944444444,,NA
485,"Wall Lake 1",,,CNBC,49,0,50,-114,-5,-44,,,,,Canada,"British Columbia","Reduced facies Cu","Quartzitic and dolomitic sandstone, dolomite",,"Middle Proterozoic",1500,,"Several occurrences of very low grade (about 0.07% Cu)","Cu contained mainly in unmetamorphosed arenites of the lower Sheppard","Sheppard Formation, Purcell (Belt) Supergroup",,49.0138888888889,-114.095555555556,,NA
486,"Wall Lake 2","Akamina Creek",,CNBC,49,1,30,-114,-4,0,,,,,Canada,"British Columbia","Reduced facies Cu","Calcareous siltstone, argillite, dolomite",,"Middle Proterozoic",1500,,"Several occurrences in 5-7 ft thick siltst beds grade 0.32 to 0.54% Cu","Several occurrences in 5-7 ft thick siltst beds grade 0.32 to 0.54% Cu","Middle Gateway Fm., Purcell (Belt) Supergroup",,49.025,-114.066666666667,,NA
487,"Starvation Creek-1",,,CNBC,49,0,36,-114,-13,-19,,,,,Canada,"British Columbia","Redbed Cu","Arenite, argillite, sandstone, siltstone, qtzite",,"Middle Proterozoic",1500,,"White arenite 4 to 7 ft thick, grab samples up to 0.41% Cu","Cu-Ag. White arenite 4 to 7 ft thick, grab samples up to 0.41% Cu","Upper grinnell Fm., Purcell (Belt) Supergroup",,49.01,-114.221944444444,,NA
488,"Starvation Creek-2",,,CNBC,49,0,30,-114,-10,0,,,,,Canada,"British Columbia",Uncl.,"Limestone, dolomite, argillite, sandy limestone",,"Middle Proterozoic",1500,,"Two occurrences carry low Cu values (averAge 0.01 to 0.08% Cu)","Two occurrences carry low Cu values (average 0.01 to 0.08% Cu)","Middle-upper Styeh Fm., Purcell (Belt) Supergroup",,49.0083333333333,-114.166666666667,,NA
489,Boswarlos,"Port au Port Penin",,CNNF,48,34,7,-58,-48,-50,,,,,Canada,Newfoundland,"Reduced facies Cu","Fossiliferous buff limestone, gypsum, sandstone",,Mississippian,340,,"Mineralization occurs along outcrop 0.3km long near shore of costa Bay",Pb-Zn-Cu-Sr-Ba,"Codroy Group (equivalent to Windsor Group)",,48.5686111111111,-58.8138888888889,,NA
490,"Fischells Brook",,,CNNF,48,18,14,-58,-32,-59,,,,,Canada,Newfound|land,"Redbed Cu","Green-grey and red sandstone, pebbly ss, siltst",,Carboniferous,320,,"Dissem mineralization occurs over 45 cm interval at 575 m depth in ddh",,"Barachois Group",,48.3038888888889,-58.5497222222222,,NA
491,"Jeffreys Village",,,CNNF,48,14,32,-58,-49,-23,,,,,Canada,Newfound|land,"Redbed Cu","Red siltstone, red and grey sandstone",,Mississippian,340,,"Very minor occurrence, near coast between mckays and barachois Brooks",,"Jeffreys Village Member, Codroy Group",,48.2422222222222,-58.8230555555556,,NA
492,JF,,,USMT,48,11,55,-115,-53,-42,13.6,0.4,,44.6,"United States",Montana,"Revett Cu",,,"M. Proterozoic",1500,,,,"Revett Fm.",5027,48.1986111111111,-115.895,0.0544,NA
493,"Rock Creek",,"Rock Lake, Montanore, Copper Gulch, Horizon Basin, Rock Peak",USMT,48,4,46,-115,-40,-36,299,0.81,,71,"United States",Montana,"Revett Cu",Quartzite,"Siltstone, argillite (Burke Fm.)","M. Proterozoic",1500,"Siltite, silty quartzite, quartzite upper members, Revett Fm.",,Cu-Ag-Pb,"Revett Fm.",5027,48.0794444444444,-115.676666666667,2.4219,NA
494,"Bald Mountain",,,CNNF,48,1,30,-58,-51,-21,,,,,Canada,Newfound-|land,"Reduced facies Cu",Limestone,,Mississippian,340,,,,"Codroy Road Formation, Codroy Group",,48.025,-58.8558333333333,,NA
495,"Grand Codroy River -S branch",,,CNNF,47,54,22,-59,-4,-23,,,,,Canada,"Newfound- land","Redbed Cu","Micaceous sandstone",,Mississippian,340,,"U grades 30-34 ppm, Cu 775 ppm","Sandstone of Robinsons River Formation, fine plant material common. U-Cu","Mollichignick Member, Codroy Group",,47.9061111111111,-59.0730555555556,,NA
496,"Grand Codroy River-highway one",,,CNNF,47,52,8,-59,-6,-55,,,,,Canada,Newfound-|land,"Redbed Cu","Mudstone, siltstone, arkosic pebbly grit, ss",,Mississippian,340,,"U grades 23-323 ppm, Cu 3000 ppm","Host rocks belong to Robinson River Formation. Cu-U. U grades 23-323 ppm, Cu 3000 ppm","Overfall Brook Member, Codroy Group",,47.8688888888889,-59.1152777777778,,NA
497,"Vermillion River",,,USMT,47,51,4,-115,-22,-11,13.6,0.5,,30.8,"United States",Montana,"Revett Cu",Quartzite,,"M. Proterozoic",1500,,,,"Revett Fm.",5027,47.8511111111111,-115.369722222222,0.068,NA
498,"Grand Codroy River-on railway",,,CNNF,47,50,50,-59,-11,-4,,,,,Canada,"Newfound land","Redbed Cu","Grey sandstone with abundant grey mudclasts",,Mississippian,340,,"Grades-u 7.4 ppm, Cu 1650 ppm","Associated with mudclasts and plant fossils above scour at base of sandstone. Cu-U","Mollichignick Member, Codroy Group",,47.8472222222222,-59.1844444444444,,NA
499,Searston,,,CNNS,47,49,25,-59,-19,-47,,,,,Canada,"Nova Scotia","Redbed Cu","Green-grey and red sandstone",,Carboniferous,320,,"Two occurrences on coast-one 0.5 km north of the other",,"Searston Formation, barachois Group",,47.8236111111111,-59.3297222222222,,NA
500,"Daisy Creek",,,USMT,47,49,0,-115,-19,-59,,,,,"United States",Montana,"Redbed Cu","Grey to white feldspathic quartzites",,"Middle Proterozoic (Helikian)",1400,,"Mineralization occurs adjacent to overbank-facies siltite beds.","Cu-Pb-Ag. Mineralization occurs adjacent to overbank-facies siltite beds.","Bonner Formation, Belt Supergroup",,47.8166666666667,-115.333055555556,,NA
501,Niagara,,,USID,47,40,59,-115,-51,-38,15,0.47,,16,"United States",Idaho,"Revett Cu",Quartzite,,"M. Proterozoic",1500,,,,"Revett Fm.",5027,47.6830555555556,-115.860555555556,0.0705,NA
502,"Nepisiguit River copper",,,CNNB,47,34,15,-65,-37,-14,,,,,Canada,"New Brunswick","Redbed Cu",Sandstone,,Carboniferous,320,,"20 to 30 tons ore removed in 1859",,,,47.5708333333333,-65.6205555555556,,NA
503,"Missoula National",,,USID,47,30,16,-115,-44,-37,4.5,0.5,,34,"United States",Idaho,"Revett Cu",Quartzite,,"M. Proterozoic",1500,,,,"Revett Fm.",5027,47.5044444444444,-115.743611111111,0.0225,NA
504,"Mission Mountains",,,USMT,47,30,0,-114,-4,-59,,,,,"United States",Montana,"Redbed Cu","Siltite and quartzite",,"Middle Proterozoic (Helikian)",1400,,"Widespread irregular distribution of minor amounts of Cu, non-economic","Original Cu minerals Occurrence as heavy mineral grains, interstitial fLakes","Shepard Fm. of Belt Supergroup",,47.5,-114.083055555556,,NA
505,Snowstorm,,,USID,47,28,57,-115,-43,-29,0.75,3.33,,169,"United States",Idaho,"Revett Cu",Quartzite,,"M. Proterozoic",1500,,,"Produced 3283 oz. Au","Revett Fm.",5027,47.4825,-115.724722222222,0.024975,NA
506,"Scapegoat Wilderness","Red Ridge",,USMT,47,14,,-112,-46,0,,,,,"United States",Montana,Uncl.,"Argillite, siltite, quartzite",,"Middle Proterozoic (Helikian)",1400,,"Weak Cu mineralization widespread in wilderness area mainly in 3 fm","Along fractures, bedding planes and in intergranular voids of porous rocks. Contains U, Ag.","Spokane, empire, Snowslip Formations",,47.2333333333333,-112.766666666667,,NA
507,Dingwall,,,CNNS,46,55,48,-60,-29,-53,,,,,Canada,"Nova Scotia",Uncl.,Argillite,,"Lower Carboniferous",340,,,,,,46.93,-60.4980555555556,,NA
508,"Canyon Creek, Rogers Pass",,,USMT,46,55,0,-112,-4,-59,,,,,"United States",Montana,"Redbed Cu","White feldspathic qzite, green argl and siltite",,Proterozoic,2000,,"Mineralized beds reduced (with c-organic residue) in 30 m-thick zone","Maroon rocks enclose potentially economic Cu-Ag-bearing sandstone intervals","Middle spokane Formation, Belt Supergroup",,46.9166666666667,-112.083055555556,,NA
509,"Wolf Creek",,,USMT,46,52,0,-112,-7,0,,,,,"United States",Montana,Uncl.,"Limestone, green and red siltstone, sandstone",,"Middle Proterozoic",1400,,"4 mineralized beds within 23 metre-thick section of spokane Formation","Cu grade up to 1% and Ag up to 29 ppm. Occurrence in the oolitic limestone","Spokane Fm., Ravalli Group, Belt Supergroup",,46.8666666666667,-112.116666666667,,NA
510,"White Pine",,,USMI,46,46,,-89,-34,,688,1.2,,40,"United States",Michigan,"Reduced facies Cu",Shale,Conglomerate,"M. Proterozoic",1100,Sandstone,,,"Nonesuch Shale",5051,46.7666666666667,-89.5666666666667,8.256,NA
511,"Presque Isle",,,USMI,46,41,,-89,-59,,90.7,1.3,,5,"United States",Michigan,"Reduced facies Cu","Siltstone, sandstone",,"M. Proterozoic",1500,,,,"Nonesuch Shale",5051,46.6833333333333,-89.9833333333333,1.1791,NA
512,"Cobre Lake",,,CNON,46,37,45,-82,48,0,,,,,Canada,Ontario,"Redbed Cu",Sandstone,Redbeds,"L. Proterozoic",2400,Argillite,,"Contact Occurrences at transition from fluvial to tidal marine conditions","Cobalt Grp.:Lorrain, Gordon Lake Fms.",,46.6291666666667,-81.2,,NA
513,"Flack Lake area",,,CNON,46,36,0,-82,-46,0,,,,,Canada,Ontario,"Reduced facies Cu","Sandstone, siltstone, qaurtz arenite",,"Lower Proterozoic (Lower Aphebian)",1900,,"Sparse sabkha-related Cu lies at boundary btwn lorrain and gordon lk fms","Sparse sabkha-related Cu lies at boundary between Lorrain and Gordon Lake Fms.","Gordon Lake Formation, cobalt Group",,46.6,-82.7666666666667,,NA
514,"Stag Lake",,,CNON,46,35,10,-82,-36,-15,,,,,Canada,Ontario,"Redbed Cu","Quartzite, argillite",Redbeds,"L. Proterozoic",2400,Argillite,,"Lies 300m below Nipissing diabase sill. Gordon Lake Fm contains tillite. Low grade disseminated Cu occurs over strike length of 3.2 km. Cu also in argillite unit of overlying Gordon Lake Fm.","Cobalt Grp.:Lorrain, Gordon Lake Fms.",,46.5861111111111,-82.6041666666667,,NA
515,"Kona Dolomite",,,USMI,46,32,,-87,-27,,907,0.3,,,"United States",Michigan,"Reduced facies Cu","Dolomitic quartzite",Argillite,"L. Proterozoic",2000,Argillite,,"Mineralized zone10 m thick at base of stromatoliic Kona Dolomite. Grade controlled by permeability and abundance of early pyrite","Wewe Fm.",,46.5333333333333,-87.45,2.721,NA
516,Desbarats,,,CNON,46,21,33,-83,-58,0,,,,,Canada,Ontario,"Redbed Cu","Pink and purple quartzites",,"Proterozoic (Huronian)",2400,,"Several showings, possibility of widespread low grade mineralization","Mineralized quartzite is hematitic, feldspathic, slightly radioactive","Lower Lorrain Fm., Cobalt Group",,46.3591666666667,-83.9666666666667,,NA
517,Watersmeet,,,USMI,46,21,0,-89,-19,0,,,,,"United States",Michigan,Uncl.,"Vitreous white orthoquartzite",,"Lower Proterozoic",2000,,"Two quartzite beds 0.25-0.5 metre thick-mineralized mostly with chalco","Masive quartzite beds have sharp contact with the tremolitic marble","Chocolay Group, Marquette range Supergroup",,46.35,-89.3166666666667,,NA
518,"Highway showing",,,CNNS,46,14,16,-60,-16,0,,,,,Canada,"Nova Scotia","Reduced facies Cu",Sandstone,,"Upper Carboniferous",300,,"Showing on west side of trans-canada highway at junction of hwy 125",,"Morien Group",,46.2377777777778,-60.2666666666667,,NA
519,"Mcleod Point",,,CNNS,46,14,7,-60,-36,-40,,,,,Canada,"Nova Scotia","Reduced facies Cu",Conglomerate,,"Lower Carboniferous",330,,,,"Windsor Group",,46.2352777777778,-60.6111111111111,,NA
520,"Gillis Dale",,,CNNS,46,13,43,-61,-8,-53,,,,,Canada,"Nova Scotia","Reduced facies Cu",Limestone,,"Lower Carboniferous",330,,,,"Windsor Group",,46.2286111111111,-61.1480555555556,,NA
521,"Squire Point",,,CNNS,46,13,4,-60,-35,-22,,,,,Canada,"Nova Scotia","Reduced facies Cu","Limestone, conglomerate",,"Lower Carboniferous",330,,,Cu-Pb-Zn,"Windsor Group",,46.2177777777778,-60.5894444444444,,NA
522,"Point Edward",,,CNNS,46,10,2,-60,-16,-19,,,,,Canada,"Nova Scotia","Reduced facies Cu",Limestone,,"Lower Carboniferous",330,,,Pb-Cu,"Windsor Group",,46.1672222222222,-60.2719444444444,,NA
523,Kirkwood,,,CNNS,46,10,0,-61,-8,-59,,,,,Canada,"Nova Scotia",Uncl.,"Arkose sandstone",,"Lower Carboniferous",340,,,Cu-Pb-Zn,,,46.1666666666667,-61.1497222222222,,NA
524,Frenchvale,"Leitches Creek",,CNNS,46,10,0,-60,-17,-59,,,,,Canada,"Nova Scotia","Reduced facies Cu",Limestone,,"Lower Carboniferous",330,,,,"Windsor Group",,46.1666666666667,-60.2997222222222,,NA
525,Mabou,,,CNNS,46,9,53,-61,-26,-10,,,,,Canada,"Nova Scotia",Uncl.,"Sandstone, conglomerate",,"Lower Carboniferous",340,,,Cu-U-Ag,,,46.1647222222222,-61.4361111111111,,NA
526,"Yankee Line Road",,,CNNS,46,7,59,-60,-55,0,,,,,Canada,"Nova Scotia","Reduced facies Cu","Conglomerate, limestone",,"Lower Carboniferous",340,,"Grey conglomerate heavily stained by malachite, galena dissem in lmsn",Pb-Cu,"Horton Group, Windsor Group",,46.1330555555556,-60.9166666666667,,NA
527,"Gallas Point",,,CNPE,46,7,57,-62,-57,-56,,,,,Canada,"Prince Edward Island","Redbed Cu",Sandstone,,,,,,U-Cu-Ba,,,46.1325,-62.9655555555556,,NA
528,"Finlay Beach",,,CNNS,46,7,53,-61,-27,-37,,,,,Canada,"Nova Scotia","Reduced facies Cu",Conglomerate,,"Lower Carboniferous",330,,"Only trace of Cu found",,"Windsor Group",,46.1313888888889,-61.4602777777778,,NA
529,"Musgrave showing",,,CNNS,46,7,48,-60,-20,-29,,,,,Canada,"Nova Scotia","Reduced facies Cu","Limestone, conglomerate",,"Lower Carboniferous",340,,,,"Windsor Group",,46.13,-60.3413888888889,,NA
530,"Mackay showing",,,CNNS,46,7,12,-60,-21,-23,,,,,Canada,"Nova Scotia","Reduced facies Cu",Limestone,,"Lower Carboniferous",340,,,,"Windsor Group",,46.12,-60.3563888888889,,NA
531,"Macmullin Brook",,,CNNS,46,6,14,-60,-23,-4,,,,,Canada,"Nova Scotia","Reduced facies Cu","Limestone, congloemrate",,"Lower Carboniferous",340,,,,"Windsor Group",,46.1038888888889,-60.3844444444444,,NA
532,Washabuck-1,"Crow Point",,CNNS,46,4,30,-60,-46,0,,,,,Canada,"Nova Scotia","Reduced facies Cu",Conglomerate,,"Lower Carboniferous",340,,,Cu-Au-Ag-Pb,"Horton Group",,46.075,-60.7666666666667,,NA
533,Washabuck-2,,,CNNS,46,3,15,-60,-48,-7,,,,,Canada,"Nova Scotia","Reduced facies Cu","Limestone, conglomerate",,"Lower Carboniferous",330,,,Cu-Pb-Zn,"Windsor Group, Horton Group",,46.0541666666667,-60.8019444444444,,NA
534,"Macbeth Brook",,,CNNS,46,4,20,-60,-19,-37,,,,,Canada,"Nova Scotia","Reduced facies Cu",Limestone,,"Lower Carboniferous",340,,"Several occurrence within distance of 0.33 km along macbeth Brook",,"Windsor Group",,46.0722222222222,-60.3269444444445,,NA
535,"Coxheath-contact zone",,,CNNS,46,4,17,-60,-23,-9,,,,,Canada,"Nova Scotia","Reduced facies Cu","Grey conglomerate",,"Lower Carboniferous",340,,"Cu occurs in several outcrops of conglomerate along 7.5 miles strike","Conglomerate has calcareous matrix","Windsor Group, Grantmire Fm.-Horton Group",,46.0713888888889,-60.3858333333333,,NA
536,"Moredolphton Warehouse and Landing",,,CNON,46,3,56,-81,-47,-7,,,,,Canada,Ontario,Uncl.,"Quartz sandstone",,"Paleozoic (Cambrian)",540,,,,,,46.0655555555556,-81.7852777777778,,NA
537,"Carr Brook",,,CNNS,46,3,24,-60,-21,-7,,,,,Canada,"Nova Scotia","Reduced facies Cu",Limestone,,"Lower Carboniferous",340,,,,"Windsor Group",,46.0566666666667,-60.3519444444444,,NA
538,"Steele Crossing",,,CNNS,46,2,30,-60,-28,0,,,,,Canada,"Nova Scotia","Reduced facies Cu",Limestone,,Carboniferous,320,,,Pb-Zn-Cu-Ag,,,46.0416666666667,-60.4666666666667,,NA
539,"Campbell's Brook",,"Delhanty Brook",CNNS,46,2,12,-61,-28,-5,,,,,Canada,"Nova Scotia","Reduced facies Cu","Shale, sandstone",,"Lower Carboniferous",340,,,,"Windsor Group",,46.0366666666667,-61.4680555555556,,NA
540,"Bois Dale",,,CNNS,46,1,36,-60,-26,-41,,,,,Canada,"Nova Scotia","Reduced facies Cu",Limestone,,Carboniferous,320,,,Pb-Ag-Zn-Cu,,,46.0266666666667,-60.4447222222222,,NA
541,"Lewis Lake",,,CNON,46,0,52,-81,-48,-1,,,,,Canada,Ontario,Uncl.,Dolomite,,Ordovician(?),470,,"Located on highway 68, 0.8 km east of lewis Lake","Limited sulphides confined to small, sandy, dolomite-filled depreSandstoneions",,,46.0144444444444,-81.8002777777778,,NA
542,"East Bay",,,CNNS,46,0,3,-60,-25,-37,,,,,Canada,"Nova Scotia","Reduced facies Cu","Limestone, conglomerate",,"Lower Carboniferous",330,,,Cu-Zn,"Windsor Group",,46.0008333333333,-60.4269444444444,,NA
543,"Catalone Lake",,,CNNS,45,59,25,-59,-59,-29,,,,,Canada,"Nova Scotia","Reduced facies Cu",Limestone,,"Lower Carboniferous",330,,,,"Windsor Group",,45.9902777777778,-59.9913888888889,,NA
544,"Southwest Mabou River",,,CNNS,45,59,24,-61,-24,-53,,,,,Canada,"Nova Scotia","Redbed Cu","Sandy limestone",,Carboniferous,330,,,,,,45.99,-61.4147222222222,,NA
545,"Glen Morrison (gm-1)",,,CNNS,45,58,60,-60,-19,0,,,,,Canada,"Nova Scotia","Reduced facies Cu","Limestone, conglomerate",,"Lower Carboniferous",330,,,,"Windsor Group",,45.9833333333333,-60.3166666666667,,NA
546,"Christmas Island-1",,,CNNS,45,58,31,-60,-44,-21,,,,,Canada,"Nova Scotia","Reduced facies Cu","Limestone, conglomerate",,"Lower Carboniferous",330,,,Cu-Pb-Zn,"Windsor Group",,45.9752777777778,-60.7391666666667,,NA
547,Iona,,,CNNS,45,57,45,-60,-48,-35,,,,,Canada,"Nova Scotia","Reduced facies Cu",Limestone,,"Lower Carboniferous",340,,,Pb-Zn-Cu,"Windsor Group",,45.9625,-60.8097222222222,,NA
548,Whycocomagh,,,CNNS,45,57,43,-61,-6,-4,,,,,Canada,"Nova Scotia","Reduced facies Cu","Limestone, conglomerate",,"Lower Carboniferous",330,,"Windsor-Horton contact",,"Windsor Group",,45.9619444444444,-61.1011111111111,,NA
549,"Christmas Island-2",,,CNNS,45,57,43,-60,-46,-44,,,,,Canada,"Nova Scotia","Reduced facies Cu","Limestone, conglomerate",,"Lower Carboniferous",330,,,Cu-Pb-Zn,"Windsor Group",,45.9619444444444,-60.7788888888889,,NA
550,Dorchester,"Colonial Copper",,CNNS,45,55,43,-64,-28,-35,2.3,2,,,Canada,"New Brunswick","Redbed Cu","Sandstone, conglomerate",,"U. Carboniferous",300,,,"Pb-Zn in overlying beds, native copper in underlying beds","Hopewell Grp.",5221,45.9286111111111,-64.4763888888889,0.046,NA
551,"Little Judique",,,CNNS,45,55,29,-61,-26,-14,,,,,Canada,"Nova Scotia","Redbed Cu","Sandstone, shale",,Carboniferous,320,,,Pb-Cu,"Canso Group",,45.9247222222222,-61.4372222222222,,NA
552,"Salmon River",,,CNNS,45,54,45,-60,-18,-29,,,,,Canada,"Nova Scotia","Reduced facies Cu",Limestone,,"Lower Carboniferous",340,,,Cu-Zn,"Windsor Group",,45.9125,-60.3080555555556,,NA
553,"Ballantynes Cove",,,CNNS,45,50,46,-61,-55,-5,,,,,Canada,"Nova Scotia",Uncl.,Conglomerate,,Devonian,380,,,,"Mcaras Brook Formation",,45.8461111111111,-61.9180555555556,,NA
554,"South Pugwash, no 3",,,CNNS,45,49,41,-63,-38,-6,,,,,Canada,"Nova Scotia","Redbed Cu",Sandstone,,"Upper Carboniferous",290,,"Radioactivity associated with plant remains",Cu-U,"Pictou Group",,45.8280555555556,-63.635,,NA
555,"Hopewell Cape","The Rocks",,CNNB,45,49,30,-64,-34,-54,,,,,Canada,"New Brunswick","Reduced facies Cu","Stromatolitic and oolitic limestone, sandstone",,Carboniferous,320,,"Minor chalcopyrite and sphalerite (?), Also red bed Cu in area",Cu-Zn,"Demoiselle Creek beds, Windsor Group",,45.825,-64.5816666666667,,NA
556,"South Pugwash-1",,,CNNS,45,49,21,-63,-39,-40,,,,,Canada,"Nova Scotia","Redbed Cu",Sandstone,,"Upper Carboniferous",290,,"3 areas, radioactivity assoc with plant remains, uneconomic, loc is avg",Cu-U,"Pictou Group",,45.8225,-63.6611111111111,,NA
557,"South Pugwash-2",,,CNNS,45,49,10,-63,-41,-11,,,,,Canada,"Nova Scotia","Redbed Cu",Sandstone,,"Upper Carboniferous",290,,"Radioactivity associated with plant remains",Cu-U,"Pictou Group",,45.8194444444444,-63.6863888888889,,NA
558,Rockley,,,CNNS,45,49,6,-63,-45,-14,,,,,Canada,"Nova Scotia","Redbed Cu","Sandstone, siltstone, mudstone",,"Upper Carboniferous",290,,,,"Pictou Group",,45.8183333333333,-63.7538888888889,,NA
559,"Garbarus Lake",,,CNNS,45,49,0,-60,-13,0,,,,,Canada,"Nova Scotia","Reduced facies Cu",Limestone,,"Lower Carboniferous",330,,,Cu-Zn,"Windsor Group",,45.8166666666667,-60.2166666666667,,NA
560,"Treen Point",,,CNNS,45,48,34,-63,-17,-46,,,,,Canada,"Nova Scotia","Redbed Cu","Greyish sandstone",,"Upper Carboniferous",290,,"Cu mineralization associated with pyrite replacement",,"Boss Point Fm., RiverDale Group",,45.8094444444444,-63.2961111111111,,NA
561,Johnstown,,,CNNS,45,48,18,-60,-43,-17,,,,,Canada,"Nova Scotia","Reduced facies Cu",Limestone,,"Lower Carboniferous",340,,,,"Windsor Group",,45.805,-60.7213888888889,,NA
562,"Malagash Point",,,CNNS,45,48,14,-63,-14,-23,,,,,Canada,"Nova Scotia","Redbed Cu","Greenish-grey coarse sandstone",,"Upper Carboniferous",290,,,,"Pictou Group",,45.8038888888889,-63.2397222222222,,NA
563,"Malagash (north shore)",,,CNNS,45,47,56,-63,-20,-55,,,,,Canada,"Nova Scotia","Redbed Cu","Sandstone, arkose, greywacke, quartzite",,"Upper Carboniferous",290,,,,RiverDale,,45.7988888888889,-63.3486111111111,,NA
564,"Mcintyre Lake",,,CNNS,45,47,24,-60,-15,-23,,,,,Canada,"Nova Scotia","Reduced facies Cu",Conglomerate,,Carboniferous,290,,,Cu-Pb-Zn-Fe,,,45.79,-60.2563888888889,,NA
565,Lakevale,,,CNNS,45,47,12,-61,-54,-37,,,,,Canada,"Nova Scotia","Reduced facies Cu",Limestone,,"Lower Carboniferous",330,,,,"Windsor Group",,45.7866666666667,-61.9102777777778,,NA
566,"Kerrs Mills",,,CNNS,45,46,22,-63,-34,-14,,,,,Canada,"Nova Scotia","Redbed Cu",Sandstone,,"Upper Carboniferous",290,,"Nmi description should read southeast",,"Pictou Group",,45.7727777777778,-63.5705555555556,,NA
567,"Malagash centre",,,CNNS,45,46,10,-63,-19,-24,,,,,Canada,"Nova Scotia","Redbed Cu","Grey sandstone",,"Upper Carboniferous",290,,"Mined for Cu prior to 1890 but no production figures given",,"Pictou Group",,45.7694444444444,-63.3233333333333,,NA
568,Goshen,,,CNNB,45,46,0,-65,-10,0,,,,,Canada,"New Brunswick","Redbed Cu",Conglomerate,,Carboniferous,320,,"Map refs also nb plates 64-2, 33-3a, 40-28",Cu-Ag,"Moncton Group",,45.7666666666667,-65.1666666666667,,NA
569,"Canfield Dome",,"Chisholm Brook",CNNS,45,46,,-63,-40,,0.3,1.2,,,Canada,"Nova Scotia","Redbed Cu",,,"U. Carboniferous",300,,,,"Pictou Grp.",,45.7666666666667,-63.6666666666667,0.0036,NA
570,Waterside,,,CNNS,45,45,10,-62,-46,-59,,,,,Canada,"Nova Scotia","Redbed Cu","Sandstone, conglomerate",,"Upper Carboniferous",290,,,,"Pictou Group",,45.7527777777778,-62.7830555555556,,NA
571,"King mine",,,CNNS,45,45,2,-63,-10,-12,,,,,Canada,"Nova Scotia","Redbed Cu","Grey slaty sandstone",,"Upper Carboniferous",290,,"In 1899 shaft sunk to 40 feet with 30-ft drift",Cu-U-Ag,"Pictou Group",,45.7505555555556,-63.17,,NA
572,"Caribou River",,,CNNS,45,45,2,-62,-48,-15,,,,,Canada,"Nova Scotia","Redbed Cu",Sandstone,,"Upper Carboniferous",290,,"Explored by several pits - one said to be 90 feet deep",,"Pictou Group",,45.7505555555556,-62.8041666666667,,NA
573,"Riverside mine",,,CNNS,45,44,59,-63,-50,-43,,,,,Canada,"Nova Scotia","Redbed Cu",Conglomerate,,"Upper Carboniferous",290,,,Cu-Ag,"Pictou Group",,45.7497222222222,-63.8452777777778,,NA
574,"Grant Brook",,,CNNS,45,44,26,-63,-34,-23,,,,,Canada,"Nova Scotia","Redbed Cu","Sandstone, arkose, greywacke, quartzite",,"Upper Carboniferous",290,,"Two occurrences 1.75 km apart along west to east flowing Grant Brook","Two occurrences 1.75 km apart along west to east flowing Grant Brook","Boss Point Formation, RiversDale Group",,45.7405555555556,-63.5730555555556,,NA
575,"Big Marsh",,,CNNS,45,44,22,-62,0,-20,,,,,Canada,"Nova Scotia","Reduced facies Cu","Limestone, conglomerate",,"Lower Carboniferous",330,,"Associated with Windsor-Horton contact",,"Windsor Group",,45.7394444444444,-62.0055555555556,,NA
576,"Blockhouse Point",,,CNNS,45,44,18,-63,-20,-20,,,,,Canada,"Nova Scotia","Redbed Cu","Grey sandstone",,"Upper Carboniferous",290,,,Cu-U,"Pictou Group",,45.7383333333333,-63.3388888888889,,NA
577,Nappan,,,CNNS,45,43,60,-64,-15,0,,,,,Canada,"Nova Scotia","Redbed Cu","Grey sandstone",,"Upper Carboniferous",330,,"Unknown amt of ore shipped (1897)","Sandstone contains considerable carbonized plant remains. Contains Pb-Au-Ag","Cumberland Group",,45.7333333333333,-64.25,,NA
578,"Knoydart Point and Brook",,,CNNS,45,43,19,-62,-14,-9,,,,,Canada,"Nova Scotia","Redbed Cu","Shale limy sandstone",,"Upper Mississippian",340,,"5 occurrences","Mineralization concentrated in bed 1 foot thick. Cu-Pb-Zn-As-Ag","Ardness Formation, Canso Group",,45.7219444444444,-62.2358333333333,,NA
579,"French River mouth",,,CNNS,45,43,9,-63,-18,-6,,,,,Canada,"Nova Scotia","Redbed Cu","Sandstone, shale",,"Upper Carboniferous",290,,"Two occurrences one on each bank, poss part of same bed, loc is averAge",,"Pictou Group",,45.7191666666667,-63.3016666666667,,NA
580,"Fleming Brook mine",,,CNNS,45,43,7,-63,-33,-40,,,,,Canada,"Nova Scotia","Redbed Cu","Blue-grey shale, silty shale",,"Upper Carboniferous",290,,"Unknown amount of ore removed , unknown when it was worked",,"Pictou Group",,45.7186111111111,-63.5611111111111,,NA
581,"Soldier Cove north",,,CNNS,45,43,0,-60,-44,-48,,,,,Canada,"Nova Scotia","Reduced facies Cu",Limestone,,"Lower Carboniferous",330,,,Cu-Fl,"Windsor Group",,45.7166666666667,-60.7466666666667,,NA
582,Tatamagouche,,"Woodlock Brook prospect",CNNS,45,41,47,-63,-16,-50,,,,,Canada,"Nova Scotia","Redbed Cu",Shale,,"Upper Carboniferous",290,,,Cu-U,"Pictou Group",,45.6963888888889,-63.2805555555556,,NA
583,"River john (east branch)",,,CNNS,45,41,44,-63,-2,-50,,,,,Canada,"Nova Scotia","Redbed Cu","Grey sandstone",,"Upper Carboniferous",290,,,,"Pictou Group",,45.6955555555556,-63.0472222222222,,NA
584,"Biz Brook",,,CNNS,45,41,43,-63,-10,-9,,,,,Canada,"Nova Scotia","Redbed Cu",Siltstone,,"Upper Carboniferous",290,,,U-Cu,"Pictou Group",,45.6952777777778,-63.1691666666667,,NA
585,"Bear Cove",,,CNNS,45,41,40,-60,-21,-21,,,,,Canada,"Nova Scotia","Reduced facies Cu","Limestone, sandstone",,Carboniferous,300,,,,"Windsor Group",,45.6944444444444,-60.3558333333333,,NA
586,"Scotch Hill",,,CNNS,45,41,35,-62,-49,-44,,,,,Canada,"Nova Scotia","Redbed Cu",Sandstone,,"Upper Carboniferous",290,,,,"Riverdale Group",,45.6930555555556,-62.8288888888889,,NA
587,"Midway Copper Belt-occ 7",,,CNNB,45,41,31,-64,-44,-30,,,,,Canada,"New Brunswick","Redbed Cu","Sandstone, conglomerate",,Carboniferous,320,,,"Cu occurrences along regressive transition from marine to continental rocks","Maringouin, Sherpody Formations-Hopewell Group",,45.6919444444444,-64.7416666666667,,NA
588,"Feeley mine",,Wentworth,CNNS,45,41,24,-63,-33,-8,,,,,Canada,"Nova Scotia","Redbed Cu","Grey sandstone, grey-green siltstone",,"Upper Carboniferous",290,,"Limited mineralization outlined by tunnels and drifts",Cu-U,"Pictou Group",,45.69,-63.5522222222222,,NA
589,"Cape Jack",,,CNNS,45,41,20,-61,-33,-43,,,,,Canada,"Nova Scotia","Reduced facies Cu","Limestone, sandstone, siltstone",,"Lower Carboniferous",340,,"Windsor-Horton contact",Pb-Zn-Cu,"Windsor Group",,45.6888888888889,-61.5619444444444,,NA
590,"Matheson prospect",,,CNNS,45,41,15,-63,-14,-19,,,,,Canada,"Nova Scotia","Redbed Cu","Conglomerate, shale",,"Upper Carboniferous",290,,"Very minor mineralization",,"Pictou Group",,45.6875,-63.2386111111111,,NA
591,"New Horton mine",,,CNNB,45,41,12,-64,-42,-41,,,,,Canada,"New Brunswick","Redbed Cu","Sandstone, conglomerate",,Carboniferous,320,,"50 tons ore shipped pre 1898#map refs also nb pl 51-3, 30-3, 30-8, 51-1","Cu-Ag-Au-Sn occurrences along regressive transition from marine to continental rocks","Maringouin, Sherpody Formations-hopeful Group",,45.6866666666667,-64.7113888888889,,NA
592,"Mine hole Brook",,,CNNS,45,40,47,-63,-14,-50,,,,,Canada,"Nova Scotia","Redbed Cu",Sandstone,,"Upper Carboniferous",290,,"Two areas mines, diggings now filled in and overgrown",,"Pictou Group",,45.6797222222222,-63.2472222222222,,NA
593,"Black River-1",,,CNNS,45,41,25,-61,-7,-45,,,,,Canada,"Nova Scotia","Reduced facies Cu",Limestone,,"Lower Carboniferous",340,,,Pb-Cu-Zn,"Windsor Group",,45.6902777777778,-61.1291666666667,,NA
594,"Black River-2",,,CNNS,45,40,38,-63,-12,-36,,,,,Canada,"Nova Scotia","Redbed Cu",Sandstone,,"Upper Carboniferous",290,,"240 tons of ore avg 3.35% Cu was shipped 1907-1908","Cu-U. 240 tons of ore avg 3.35% Cu was shipped 1907-1908","Pictou Group",,45.6772222222222,-63.21,,NA
595,Balfron,,,CNNS,45,40,25,-63,-13,-29,,,,,Canada,"Nova Scotia","Redbed Cu",Siltstone,,"Upper Carboniferous",290,,,,"Pictou Group",,45.6736111111111,-63.2247222222222,,NA
596,"Midway Copper Belt-shaft no 1",,,CNNB,45,40,21,-64,-47,-7,,,,,Canada,"New Brunswick","Redbed Cu","Sandstone, conglomerate",,Carboniferous,320,,"Ddh no 3 drilled to intersect beds exposed in shaft no 1","Cu occurrences along regressive transition from marine to continental rocks","Maringouin, Sherpody Formations-Hopewell Group",,45.6725,-64.7852777777778,,NA
597,"Midway Copper Belt-pit 3",,,CNNB,45,40,12,-64,-47,-23,,,,,Canada,"New Brunswick","Redbed Cu","Sandstone, conglomerate",,Carboniferous,320,,"Ddh no 1 drilled to intersect beds exposed in pit 3","Cu-Ag-Au occurrences along regressive transition from marine to continental rocks","Maringouin, Sherpody Formations-Hopewell Group",,45.67,-64.7897222222222,,NA
598,"Cape Blue",,,CNNS,45,40,8,-61,-35,-31,,,,,Canada,"Nova Scotia","Reduced facies Cu",Limestone,,"Lower Carboniferous",330,,"Malachite staining in Horton siltstone",Cu-Pb,"Windsor Group",,45.6688888888889,-61.5919444444444,,NA
599,Oliver,,,CNNS,45,40,6,-63,-19,-19,,,,,Canada,"Nova Scotia","Redbed Cu","Grey sandstone, conglomerate",,"Upper Carboniferous",290,,"In 1877 18.5 tons ore shipped, several prospects","In 1877 18.5 tons ore shipped, several prospects","Pictou Group",,45.6683333333333,-63.3219444444444,,NA
600,"Palmer mine",,,CNNS,45,40,2,-63,-36,-18,,,,,Canada,"Nova Scotia","Redbed Cu","Grey shales",,"Upper Carboniferous",290,,,,"Pictou Group",,45.6672222222222,-63.605,,NA
601,"Oliver-no 1",,,CNNS,45,39,44,-63,-19,-33,,,,,Canada,"Nova Scotia","Redbed Cu","Sandstone, conglomerate",,"Upper Carboniferous",290,,"Also replacing plant remains in underlying conglomerate",,"Pictou Group",,45.6622222222222,-63.3258333333333,,NA
602,"Yellow Brook",,,CNNS,45,39,39,-63,-11,-16,,,,,Canada,"Nova Scotia","Redbed Cu","Sandstone, arkose, greywacke, quartzite",,"Upper Carboniferous",290,,,,"Pictou Group",,45.6608333333333,-63.1877777777778,,NA
603,"Midway Copper Belt-pit 2",,,CNNB,45,39,24,-64,-48,-6,,,,,Canada,"New Brunswick","Redbed Cu","Sandstone, conglomerate",,Carboniferous,320,,,"Cu-Ag occurrences along regressive transition from marine to continental rocks","Maringouin, Sherpody Formations-Hopewell Group",,45.6566666666667,-64.8016666666667,,NA
604,"Scotsburn Brook",,,CNNS,45,39,22,-62,-52,-43,,,,,Canada,"Nova Scotia","Redbed Cu",Sandstone,,"Upper Carboniferous",290,,,,"River Dale Group",,45.6561111111111,-62.8786111111111,,NA
605,"Balmoral Brook",,,CNNS,45,39,8,-63,-13,-13,,,,,Canada,"Nova Scotia","Redbed Cu",Sandstone,,"Upper Carboniferous",290,,,,"Pictou Group",,45.6522222222222,-63.2202777777778,,NA
606,"Midway Copper Belt-pit 1",,,CNNB,45,39,5,-64,-48,-35,,,,,Canada,"New Brunswick","Redbed Cu","Sandstone, conglomerate",,Carboniferous,320,,,"Cu occurrences along regressive transition from marine to continental rocks","Maringouin, Sherpody Formations-Hopewell Group",,45.6513888888889,-64.8097222222222,,NA
607,"Little Ridge-pit 13",,,CNNB,45,38,50,-64,-44,-14,,,,,Canada,"New Brunswick","Redbed Cu","Sandstone, conglomerate",,Carboniferous,320,,,"Cu occurrences along regressive transition from marine to continental rocks","Maringouin, Sherpody Formations-Hopewell grp",,45.6472222222222,-64.7372222222222,,NA
608,"Lower North Grant",,,CNNS,45,38,49,-61,-59,-25,,,,,Canada,"Nova Scotia","Reduced facies Cu",Limestone,,"Lower Carboniferous",330,,,,"Windsor Group",,45.6469444444444,-61.9902777777778,,NA
609,"Oliver south",,"Central New Annan",CNNS,45,38,44,-63,-18,-48,,,,,Canada,"Nova Scotia","Redbed Cu","Grey sandstone, conglomerate, shale",,"Upper Carboniferous",290,,,,"Pictou Group",,45.6455555555556,-63.3133333333333,,NA
610,"Plainfield Brook",,,CNNS,45,38,3,-62,-57,-26,,,,,Canada,"Nova Scotia","Redbed Cu","Sandstone, arkose, greywacke, quartzite",,Devonian,370,,,,"Falls Formation",,45.6341666666667,-62.9572222222222,,NA
611,"Willies Brook",,,CNNS,45,38,2,-62,-3,0,,,,,Canada,"Nova Scotia","Redbed Cu",Conglomerate,,Devonian-Carboniferous,330,,,,,,45.6338888888889,-62.05,,NA
612,"Rights River-main showing",,,CNNS,45,37,60,-62,-1,-12,,,,,Canada,"Nova Scotia","Reduced facies Cu","Dark grey limestone, green conglomerate",,"Lower Carboniferous",330,,"Cu erratically dissem along bedding laminate andin small carbonate veins",,"Windsor Group",,45.6333333333333,-62.02,,NA
613,Durham,,,CNNS,45,37,56,-62,-47,-44,,,,,Canada,"Nova Scotia","Redbed Cu","Greenish grey conglom, red sandstone",,"Upper Carboniferous",290,,"Mined prior to 1882-no production figures given",,"Possibly Boss Point Fm., RiverDale Group",,45.6322222222222,-62.7955555555556,,NA
614,"East Wallace River",,,CNNS,45,37,55,-63,-31,-20,,,,,Canada,"Nova Scotia","Redbed Cu","Grey sandstone",,"Upper Carboniferous",290,,,,"Boss Point Fm.",,45.6319444444444,-63.5222222222222,,NA
615,"Rights River-railway showing",,,CNNS,45,37,46,-62,-2,0,,,,,Canada,"Nova Scotia","Reduced facies Cu","Conglomerate, limestone",,"Lower Carboniferous",330,,"Cu erratically dissem along bedding laminae and in small carbonate veins",,"Windsor Group",,45.6294444444444,-62.0333333333333,,NA
616,"Keaton Point",,,CNNS,45,37,35,-61,-23,-21,,,,,Canada,"Nova Scotia","Reduced facies Cu",Limestone,,"Lower Carboniferous",330,,,,"Windsor Group",,45.6263888888889,-61.3891666666667,,NA
617,"Brierly Brook-2",,,CNNS,45,36,44,-62,-3,-45,,,,,Canada,"Nova Scotia","Reduced facies Cu","Argillaceous limestone, grey-red boulder congl",,"Lower Carboniferous",330,,,,"Windsor Group",,45.6122222222222,-62.0625,,NA
618,Monastery,,,CNNS,45,35,50,-61,-38,-44,,,,,Canada,"Nova Scotia","Reduced facies Cu","Sandstone, limestone",,"Lower Carboniferous",340,,,Pb-Cu,"Windsor Group",,45.5972222222222,-61.6455555555556,,NA
619,Telford,,,CNNS,45,34,52,-62,-29,-21,,,,,Canada,"Nova Scotia","Redbed Cu","Greywacke, sandstone",,Carboniferous,320,,"2 occurrences 0.5 miles apart, 2nd occurrence in sandstone",Pb-Zn-Cu-Fe,"Canso Group",,45.5811111111111,-62.4891666666667,,NA
620,"James River station",,,CNNS,45,34,40,-62,-7,-14,,,,,Canada,"Nova Scotia",Uncl.,"Argillaceous limestone",,Mississippian,340,,,Cu-Zn-Pb,"Windsor Group",,45.5777777777778,-62.1205555555556,,NA
621,"Pomquet River",,,CNNS,45,34,14,-61,-49,-55,,,,,Canada,"Nova Scotia","Reduced facies Cu","Mottled pale to dark brown oolitic limestone",,Carboniferous,320,,,,"Windsor Group",,45.5705555555556,-61.8319444444444,,NA
622,"Steep Creek",,,CNNS,45,33,58,-61,-21,-16,,,,,Canada,"Nova Scotia","Reduced facies Cu",Limestone,,"Lower Carboniferous",330,,,,"Windsor Group",,45.5661111111111,-61.3544444444444,,NA
623,"Glen Road",,,CNNS,45,33,4,-62,-1,-39,,,,,Canada,"Nova Scotia",Uncl.,"Green conglomerate, breccia, anhydrite, gypsum",,"Lower Carboniferous",320,,,Cu-Zn-Pb-Ag,"MaCumber Formation, Windsor Group",,45.5511111111111,-62.0275,,NA
624,"Meadow Green","Kennco hole 6",,CNNS,45,33,4,-61,-48,-49,,,,,Canada,"Nova Scotia","Reduced facies Cu",Limestone,,"Lower Carboniferous",330,,,,"Windsor Group",,45.5511111111111,-61.8136111111111,,NA
625,Limerock,,,CNNS,45,32,60,-62,-51,0,,,,,Canada,"Nova Scotia","Reduced facies Cu","Dark grey fenestral and black fossiliferous ls",,Carboniferous,320,,,Cu-Pb,"Windsor Group",,45.55,-62.85,,NA
626,"Union Centre",,,CNNS,45,32,54,-62,-45,-17,,,,,Canada,"Nova Scotia","Redbed Cu","Sandstone, arkose, greywacke, quartzite",,Mississippian,340,,,,"Cumberland Group",,45.5483333333333,-62.7547222222222,,NA
627,"St Joseph",,,CNNS,45,32,31,-62,-5,-50,,,,,Canada,"Nova Scotia","Reduced facies Cu",Limestone,,"Lower Carboniferous",340,,,,"Windsor Group",,45.5419444444444,-62.0972222222222,,NA
628,"Mclellan Brook","Stewart Brook",,CNNS,45,32,18,-62,-35,-49,,,,,Canada,"Nova Scotia","Reduced facies Cu","Dark grey oolitic and stromatolitic limestone",,Carboniferous,320,,,,"Windsor Group",,45.5383333333333,-62.5969444444444,,NA
629,"Pitchers Farm-1",,,CNNS,45,32,14,-61,-59,-5,,,,,Canada,"Nova Scotia",Uncl.,"Sandstone, shale",,Carboniferous,290,,,,"Canso Group",,45.5372222222222,-61.9847222222222,,NA
630,"Pitchers Farm-2",,,CNNS,45,32,4,-61,-57,-44,,,,,Canada,"Nova Scotia",Uncl.,"Shale, sandstone",,Carboniferous,330,,,,"Canso Group",,45.5344444444444,-61.9622222222222,,NA
631,Mcpherson,,,CNNS,45,31,42,-61,-54,-25,,,,,Canada,"Nova Scotia","Reduced facies Cu",Limestone,,"Lower Carboniferous",330,,,,"Windsor Group",,45.5283333333333,-61.9069444444444,,NA
632,"Mclellan Brook holes 1 2 and 3",,,CNNS,45,31,28,-62,-36,-50,,,,,Canada,"Nova Scotia","Reduced facies Cu","Oolitic limestone, stromatolitic limestone",,Carboniferous,320,,,,"Windsor Group",,45.5244444444444,-62.6138888888889,,NA
633,"Churchville Road",,,CNNS,45,30,34,-62,-38,-53,,,,,Canada,"Nova Scotia","Reduced facies Cu","Black and dark grey oolitic limestone",,Carboniferous,320,,,Zn-Cu,"Windsor Group",,45.5094444444444,-62.6480555555556,,NA
634,Ohio,,,CNNS,45,30,33,-62,-4,-38,,,,,Canada,"Nova Scotia","Reduced facies Cu","Limestone, conglomerate",,"Lower Carboniferous",340,,"Cu, Pb occur erratically dissem in conglomerate interlayered with lmsn","Limestone sequence may be marginal basin beds from higher in the Windsor Grp. Contains Pb","Windsor gorup",,45.5091666666667,-62.0772222222222,,NA
635,Eureka,"Ferrona Junction",,CNNS,45,30,11,-62,-40,-44,,,,,Canada,"Nova Scotia","Reduced facies Cu","Crystalline dolomite, dolomitic shale",,Carboniferous,320,,,Cu-Ag,"Windsor Group",,45.5030555555556,-62.6788888888889,,NA
636,Hopewell,,,CNNS,45,28,56,-62,-39,-54,,,,,Canada,"Nova Scotia","Redbed Cu","Sandstone, arkose, greywacke, quartzite",,Mississippian,340,,,,"Windsor Group",,45.4822222222222,-62.665,,NA
637,Springhill,,,CNNS,45,27,39,-62,-36,-38,,,,,Canada,"Nova Scotia","Reduced facies Cu",Limestone,,"Lower Carboniferous",330,,,,Windsor,,45.4608333333333,-62.6105555555556,,NA
638,"Guysborough area 2-03-f",,,CNNS,45,26,20,-61,-34,-4,,,,,Canada,"Nova Scotia",Uncl.,"Slate, quartzite",,Devonian-Carboniferous,345,,,,,,45.4388888888889,-61.5677777777778,,NA
639,"Lochaber Lake",,,CNNS,45,24,15,-62,-3,0,5,0.33,,,Canada,"Nova Scotia","Reduced facies Cu",Siltstone,,Devonian,380,,,"Contains Pb, Zn","Knoydart Fm.",5219,45.4041666666667,-62.05,0.0165,NA
640,"Elgin, Black Rock",,,CNNS,45,23,60,-62,-37,-59,,,,,Canada,"Nova Scotia","Reduced facies Cu","Argillacious limestone",,Mississippian,340,,,,"Windsor Group",,45.4,-62.6330555555556,,NA
641,"Guysborough area 2-03-abcd",,,CNNS,45,22,35,-61,-35,-19,,,,,Canada,"Nova Scotia",Uncl.,"Slate, quartzite",,Devonian-Carboniferous,345,,,,,,45.3763888888889,-61.5886111111111,,NA
642,"South March-3",,,CNON,45,22,28,-75,-58,-15,,,,,Canada,Ontario,Uncl.,"Sandstone, sandy dolomite",,"Palaeozoic (Ordovician)",470,,,,"March Fm.",,45.3744444444444,-75.9708333333333,,NA
643,"South March-1",,"South March-2",CNON,45,21,0,-75,-55,-59,,,,,Canada,Ontario,Uncl.,"Sandstone, sandy dolomite",,"Paleozoic (Ordovician)",470,,,,"March Fm.",,45.35,-75.9330555555556,,NA
644,"Brookfield copper showing",,,CNNS,45,16,32,-63,-13,-6,,,,,Canada,"Nova Scotia","Reduced facies Cu","Carbonaceous limestone",,"Lower Carboniferous (Mississippian)",340,,,,"Windsor Group",,45.2755555555556,-63.2183333333333,,NA
645,"Middle Stewiacke",,,CNNS,45,11,41,-63,-11,-52,,,,,Canada,"Nova Scotia","Redbed Cu","Sandstone, arkose, greywacke, quartzite",,"Carboniferous (Pennsylvanian)",290,,,Pb-Zn-Cu-Fl-Ba,"Scotch Village Formation",,45.1947222222222,-63.1977777777778,,NA
646,Pope-Shenon,,,USID,45,4,0,-113,-50,-59,,,,,"United States",Idaho,Uncl.,Quartzite,,"Middle Proterozoic (Helikian)",1400,,"In places min appears to be more diffuse, 2.5 - 6% Cu",,"Belt Supergroup, Nellie Group",,45.0666666666667,-113.849722222222,,NA
647,"Sloop Cove",,,CNNS,44,41,11,-66,-52,-23,,,,,Canada,"Nova Scotia","Reduced facies Cu","Grey green and red shales, gypsum, anhydrite",,Triassic,220,Basalt,"Thick basaltic flow containing minor native Cu overlies marine shale","Top 6m of shale unit has Cu grades up to 10% locally, avg 0.1% over large area","Annapolis Formation",,44.6863888888889,-66.8730555555556,,NA
648,"Hot Brook Canyon",,,USSD,43,25,60,-103,-30,0,,,,,"United States","South Dakota","Reduced facies Cu","Black sapropelic shale",,Pennsylvanian,300,,"Samples represent 0.5, 0.6, 1.25, 3.3 ft thickness range 70-1500ppm Cu","Cu, Mo, Zn","Minnelusa Fm.",,43.4333333333333,-103.5,,NA
649,"Watercress Canyon",,,USWY,43,0,0,-110,-45,0,,,,,"United States",Wyoming,Uncl.,Quartzite,,"Pennsylvanian (?)",300,,"Several occurrences",,"Weber (Wells) Fm.",,43,-110.75,,NA
650,Jasper,,,USWY,42,43,60,-105,-49,-59,,,,,"United States",Wyoming,Uncl.,Sandstone,,Cambrian,540,,"Copper ore reported shipped during world war 1, no record of amount","Deposit type questionable","Flathead Fm.",,42.7333333333333,-105.833055555556,,NA
651,Montpelier,,,USID,42,19,60,-111,-15,0,,,,,"United States",Idaho,Uncl.,Grit,,"Upper Triassic",220,,"OcCurs in overturned anticline limb, location approximate",,,,42.3333333333333,-111.25,,NA
652,"Newgate Prison",,,USPA,41,55,0,-72,-45,0,,,,,"United States",Connecticut,"Redbed Cu","Grey sandstone btwn greenish-grey mudstone",,Triassic,220,,"Ore has been mined from main orebody and 4 small adits north of newgate","Sulphide occurrence as diseminated specks and clusters of grains","New Haven Fm.",,41.9166666666667,-72.75,,NA
653,"New Albany area",,,USPA,41,34,60,-76,-27,-29,,,,,"United States",Pennsylvania,"Redbed Cu","Greenish-grey sandstone, siltstone, shale",,"Upper Devonian",370,,"Two prospects within 1 km of new albany, ss beds rich in plant remains","Occurrence in lower part of Catskill Fm. of interlayered red and grey beds. Contains U, Ag.","Catskill Fm.",,41.5833333333333,-76.4580555555556,,NA
654,Forkston,,,USPA,41,30,0,-76,-7,0,,,,,"United States",Pennsylvania,"Redbed Cu","Grey sandstone and shale",,"Upper Devonian",370,,"One occurrence-200 yards n of forkston, the 2nd-300 yards s of forkston","The grey sandstone and shale are intercalated with red strata","Catskill Fm.",,41.5,-76.1166666666667,,NA
655,"Elk Ridge",,,USUT,41,21,15,-111,-32,-29,,,,,"United States",Utah,"Redbed Cu",Sandstone,,"Upper Triassic",220,,,,"Shinarump Member of Chinle Formation",,41.3541666666667,-111.541388888889,,NA
656,"Beaver Lake area",,,USPA,41,17,30,-76,-35,-59,,,,,"United States",Pennsylvania,"Redbed Cu","Greenish-grey sandstone, siltstone, shale",,"Upper Devonian",370,,"Gray to green channel deposits are rich in carbonaceous material","Occurrence in lower part of Catskill fm of interlayered red and grey beds. Contains U, Ag.","Catskill Fm.",,41.2916666666667,-76.5997222222222,,NA
657,"Grassmere Park area",,,USPA,41,16,30,-76,-22,-59,,,,,"United States",Pennsylvania,"Redbed Cu","Greenish-grey sandstone, siltstone, shale",,"Upper Devonian",370,,,"Occurrence in lower part of catskill fm of interlayered red and grey beds. Contains U, Ag.","Catskill Fm.",,41.275,-76.3830555555555,,NA
658,Pahaquarry,,,USPA,41,1,60,-75,-1,-59,,,,,"United States",Pennsylvania,Uncl.,"Grey sandstone within red shale",,Silurian,420,,"Mineralized part of section is sandstone sequence 42 feet thick","Mineralized part of section is sandstone sequence 42 feet thick","High Fall Fm.",,41.0333333333333,-75.0330555555555,,NA
659,"Glen Ridge",,,USNJ,40,47,60,-74,-10,0,,,,,"United States","New Jersey","Redbed Cu","Grey sandstone",,Triassic,220,,"Worked in the 1700s, in 1880s-several hundred tons were mined","Worked in the 1700s, in 1880s-several hundred tons were mined",,,40.8,-74.1666666666667,,NA
660,Schuyler,,,USNJ,40,46,60,-74,-7,-59,,,,,"United States","New Jersey",Uncl.,Sandstone,,Triassic,220,,"Two ss beds-upper 12 ft thick, lower 10 ft separated by 1 ft red shale","Two ss beds-upper 12 ft thick, lower 10 ft separated by 1 ft red shale",,,40.7833333333333,-74.1330555555555,,NA
661,"East Orange",,,USNJ,40,45,0,-74,-12,0,,,,,"United States","New Jersey","Redbed Cu",Sandstone,,Triassic,220,,"Mined in the 1700s","Mined in the 1700s",Newark,,40.75,-74.2,,NA
662,Uinta,,,USUT,40,37,0,-111,-31,0,,,,,"United States",Utah,Uncl.,Limestone,,Cenozoic,30,,"Many minor occurrences, byproduct copper",Cu-U,"Uinta Fm.",,40.6166666666667,-111.516666666667,,NA
663,"Steamboat Ssprings",,,USCO,40,31,60,-106,-45,0,,,,,"United States",Colorado,Uncl.,,,Cretaceous,100,,,,"Dakota Fm.",,40.5333333333333,-106.75,,NA
664,"Spar Lake","Troy Mine",,USMT,40,13,49,-115,-54,-19,58,0.8,,58,"United States",Montana,"Revett Cu",Quartzite,,"M. Proterozoic",1500,,,,"Revett Fm.",5027,40.2302777777778,-115.905277777778,0.464,NA
665,"Lisbon Valley",,"Centennial, GTO, Sentinel, Blue Jay",USUT,39,9,,-109,-6,,34,0.53,,10,"United States",Utah,"Revett Cu","Arkosic sandstone",,Cretaceous,100,,,"Disseminated deposits adjacent to Lisbon fault; deposits|occur as veins in faults and disseminated bodies in sandstone adjacent to|the veins.  Disseminated bodies are stacked at more than one stratigraphic|level.","Dakota Sandstone",5021,39.15,-109.1,0.1802,NA
666,Chantilly,,,USVA,38,52,45,-77,-19,0,,,,,"United States",Virginia,"Redbed Cu","Grey sandstone in redbed sequence",,Triassic,220,,"Malachite, azurite occur on laminae and joints as thin coatings over 5 ft","Zone is 5 feet thick in trench and contains anomalous quantities Cu and Ag","Manassas Fm.",,38.8791666666667,-77.3166666666667,,NA
667,"Copper Globe",,,USUT,38,47,60,-110,-54,0,,,,,"United States",Utah,"Redbed Cu",Sandstone,,Jurassic,180,,"Deposit localized by faults",,"Navajo Fm.",,38.8,-110.9,,NA
668,"Lyons Fm.",,,USCO,38,45,0,-104,-45,0,,,,,"United States",Colorado,Uncl.,Sandstone,,Permian,260,,,,"Lyons Fm.",,38.75,-104.75,,NA
669,"Cotopaxi Cordova",,,USCO,38,30,0,-105,-30,0,,,,,"United States",Colorado,Uncl.,Undivided,,Pennsylvanian,300,,,,,,38.5,-105.5,,NA
670,Adak,,,USCO,38,25,50,-108,-49,-14,,,,,"United States",Colorado,"Redbed Cu","Interstratified units of sandstone and mudstone",,Jurassic,180,,"Deposit in braided alluvial fan in 2nd order basin over paradox salt",U-V-Cu,"Morrison Fm.",,38.4305555555556,-108.820555555556,,NA
671,"Copper King",,,USCO,38,23,33,-108,-25,-53,,,,,"United States",Colorado,Uncl.,,,Cretaceous,100,,,,"Burro Canyon Fm.",,38.3925,-108.431388888889,,NA
672,Cutler,,,USUT,38,21,40,-109,-43,-59,,,,,"United States",Utah,Uncl.,Sandstone,,Permian,260,,,Cu-U,"Cutler Fm.",,38.3611111111111,-109.733055555556,,NA
673,Cashin,,,USCO,38,17,60,-108,-57,0,10,0.62,,,"United States",Colorado,"Revett Cu",Sandstone,,Triassic,220,,"From 1897-1957 mine produced 1000 tons of Cu and 306000 ounces of Ag","From 1897-1957 mine produced 1000 tons of Cu and 306000 ounces of Ag","Dolores Fm.",,38.3,-108.95,0.062,NA
674,"Big Indian",,,USUT,38,13,60,-109,-13,0,0.15,1.5,,,"United States",Utah,"Revett Cu",Sandstone,,Cretaceous,100,,"2000 ft-3000ft fault between Cu deposit and adjacent uranium deposits","Along Lisbon fault","Dakota Fm.",,38.2333333333333,-109.216666666667,0.00225,NA
675,"Western Star",,,USUT,38,8,60,-109,-7,-59,,,,,"United States",Utah,Uncl.,Sandstone,,Pennsylvanian,330,,,,"Hermosa Fm.",,38.15,-109.133055555556,,NA
676,Cougar,,,USCO,38,0,0,-107,-52,-59,,,,,"United States",Colorado,"Redbed Cu",Sandstone,,Jurassic,180,,"Sharp interface btwn ore and barren, Cu with u along margins of roll","Cu-U. Sharp interface btwn ore and barren, Cu with U along margins of roll","Morrison Fm.",,38,-107.883055555556,,NA
677,"Happy jack",,,USUT,37,48,30,-110,-25,-59,,,,,"United States",Utah,"Redbed Cu","Conglom ss, coalified woody material, mudstone",,"Upper Triassic",220,,"Mine is on west flank of monument uplift","Shinarump unconformably overlies Moenkopi fm of upper-Middle Triasic. U-Cu","Shinarump Member of Chinle Fm.",,37.8083333333333,-110.433055555556,,NA
678,"Lamotte Sandstone",,,USMO,37,43,60,-91,-4,-59,,,,,"United States",Missouri,Uncl.,Sandstone,,"Upper Cambrian",520,,"Cu alone occurs below Pb-Zn-Cu deposits of the bonneterre Formation","Represents separate Cu phase mineralization of pre-Viburnum trend age","Lamotte Sandstone underlying Bonneterre Fm.",,37.7333333333333,-91.0830555555555,,NA
679,"Sedgwick County occurrences",,,USKS,37,40,0,-97,-40,0,,,,,"United States",Kansas,"Reduced facies Cu","Grey shale with thin limestone, dolomite units",,"Lower Permian",280,,"Chalcopyrite, bornite occur primarily as replacements of diAgenetic pyrite",,"Summer Group - Ninnescah Shale, Wellington Fm.",,37.6666666666667,-97.6666666666667,,NA
680,"Hideout no 1",,,USUT,37,39,15,-110,0,-29,,,,,"United States",Utah,"Redbed Cu",Sandstone,,Triassic,220,,"Deposit localized in permeable ss that fills channels Cut in shale","Ore min preserve cell struct, replace quartz and feldspar, fill fractures, impregnate dandstone","Shinarump Member of Chinle Formation",,37.6541666666667,-110.008055555556,,NA
681,"W N1",,,USUT,37,38,25,-110,-2,-54,,,,,"United States",Utah,"Redbed Cu",Sandstone,,"Upper Triassic",220,,"Operated intermittently since 1953","Lower part of Shinarunp rests with marked disconformity on Moenkopi Fm.","Shinarump Member of Chinle Fm.",,37.6402777777778,-110.048333333333,,NA
682,"Bear Creek",,,USCO,37,37,0,-108,-10,0,,,,,"United States",Colorado,Uncl.,,,"Upper Triassic",220,,"Along bear Creek several deposits occur at base of dolores Formation",,"Dolores Fm.",,37.6166666666667,-108.166666666667,,NA
683,Mcguire,,,USCO,37,30,0,-105,-1,0,,,,,"United States",Colorado,Uncl.,Undivided,,Permian,260,,,,,,37.5,-105.016666666667,,NA
684,Independence,,"Dunlap Ranch",USCO,37,28,0,-102,-13,-59,,,,,"United States",Colorado,"Redbed Cu","Light, crossbedded, porous arkosic sandstone",,"Lower Cretaceous",130,,"Production 1900-02 yielded 11419 lbs Cu, 1915-17 yielded 10092 lbs Cu","Cu occurrences in basal member offormation. Contains Cu, Ag, Au. Production 1900-02 yielded 11,419 lbs Cu, 1915-17 yielded 10,092 lbs Cu","Purgatoire Fm.",,37.4666666666667,-102.233055555556,,NA
685,"Dunlap Ranch",,,USCO,37,27,0,-102,-13,-59,,,,,"United States",Colorado,Uncl.,Sandstone,,Jurassic,180,,,,"Entrada Fm.",,37.45,-102.233055555556,,NA
686,Runnymede,,,USKS,37,19,60,-97,-55,-59,,,,,"United States",Kansas,"Reduced facies Cu","Argillaceous dolomite, shale, siltstone",,Permian,260,,"Associated with argillaceous dolomite beds and adjacent shale","Cu in upper argillaceous dolomite beds of Ninnescah Shale including Runnymede Sandstone Member","Ninnescah Shale Fm. of the Summer Group",,37.3333333333333,-97.9330555555556,,NA
687,"Sumner County occurrences",,,USKS,37,4,60,-97,-40,0,,,,,"United States",Kansas,"Reduced facies Cu","Grey shale with thin limestone, dolomite units",,"Lower Permian",280,,"Chalcocite occurs primarily as replacements of diAgenetic pyrite",,"Summer Group-Ninnescah Shale, Wellington Fm.",,37.0833333333333,-97.6666666666667,,NA
688,Wiggins,,,USNM,36,55,60,-103,-4,-59,,,,,"United States","New Mexico","Redbed Cu",Sandstone,,Jurassic,180,,,,"Entrada Fm.",,36.9333333333333,-103.083055555556,,NA
689,"Peacock Canyon",,,USNM,36,55,0,-103,-25,-59,,,,,"United States","New Mexico","Redbed Cu",Sandstone,,Triassic,260,,"Several claim Groups, Cu also occurs as disseminations in adjoining ss","Sandstone bleached from red to nearly white in areas of Cu mineralization. Contains Ag.","Dockum Group",,36.9166666666667,-103.433055555556,,NA
690,"Grant County",,,USOK,36,45,0,-97,-49,-59,,,,,"United States",Oklahoma,Uncl.,Shale,,"Lower Permian",280,,"Up to 4 Cu zones occur in 250-320 ft interval in upper most part of fm","Mineralized beds occurrence in shallow subsurface, upper shale member","Wellingtopn Fm.",,36.75,-97.8330555555555,,NA
691,"White Mesa district",,,USAZ,36,40,0,-111,-22,-59,,,,,"United States",Arizona,Uncl.,Sandstone,,Jurassic,180,,"Significant tonnAge of principally acid-soluble copper","Significant tonnAge of principally acid-soluble copper","Navajo Fm.",,36.6666666666667,-111.383055555556,,NA
692,"Lee Uto",,,USOK,36,23,60,-96,-58,-29,,,,,"United States",Oklahoma,Uncl.,Sandstone,,Permian,260,,,,"Chase Group",,36.4,-96.9747222222222,,NA
693,National,,,USAZ,36,19,60,-112,-45,0,,,,,"United States",Arizona,"Reduced facies Cu",Limestone,,Permian,260,,,,"Kaibab Fm.",,36.3333333333333,-112.75,,NA
694,"Pajarito azule",,,USNM,36,15,0,-106,-49,-59,,,,,"United States","New Mexico",Uncl.,"Arkosic limestone",,Pennsylvanian,245,,,,"Madera Fm.",,36.25,-106.833055555556,,NA
695,Ridenour,,,USAZ,36,10,0,-113,-10,0,,,,,"United States",Arizona,Uncl.,,,Permian-Pennsylvanian,290,,,Cu-U-V,"Supai Fm.",,36.1666666666667,-113.166666666667,,NA
696,"Coyote Creek",,,USNM,36,6,0,-105,-10,0,,,,,"United States","New Mexico","Redbed Cu","Arkoses, arkosic ss, red and greyish-green shales",,Permo-Pennsylvanian,245,,,,"Sangre de Cristo Fm.",,36.1,-105.166666666667,,NA
697,Nacimiento,,"San Miguel",USNM,36,0,30,-106,-53,,10,0.67,,2.4,"United States","New Mexico","Redbed Cu","Sandstone, conglomerate",,Triassic,220,,,"Abundant fossil wood.","Chinle Fm.",5023,36.0083333333333,-106.883333333333,0.067,NA
698,"Bronze Lake",,,USNM,35,58,60,-114,-10,0,,,,,"United States","New Mexico",Uncl.,Limestone,,Mississippian,340,,,Cu-Pb-V,"Redwall Fm.",,35.9833333333333,-114.166666666667,,NA
699,"Hunters Point",,,USAZ,35,45,0,-109,-15,0,,,,,"United States",Arizona,Uncl.,Sandstone,,Permian,260,,,,"Coconino Fm. (?)",,35.75,-109.25,,NA
700,"Hacks Canyon",,,USAZ,35,25,0,-113,-30,0,,,,,"United States",Arizona,Uncl.,Shale,,Permian,260,,,Cu-U,"Hermit Fm.",,35.4166666666667,-113.5,,NA
701,Mirabal,,,USNM,35,12,0,-108,-5,-59,,,,,"United States","New Mexico","Redbed Cu","Shale, conglomerate, sandstone",,Permian,260,,"Significant tonnAge of principally acid-soluble copper","Significant tonnAge of principally acid-soluble copper","Abo Fm.",,35.2,-108.099722222222,,NA
702,Byars,,,USOK,35,0,0,-97,-30,0,,,,,"United States",Oklahoma,Uncl.,"Red sandstone and shale (locally bleached white",,,,,"190 tons of copper ore shipped between 1913-1914, also worked 1897-98","190 tons of Cu-Agr ore shipped between 1913-1914, also worked 1897-98.",,,35,-97.5,,NA
703,"Rome Sandstone",,,USTN,35,0,0,-84,-30,0,,,,,"United States",Tennessee,"Redbed Cu","Quartzitic sandstone",,"Lower Cambrian",550,,"Chalcopyrite bornite and chalcocite(?) Are disseminated locally in ss","Samples contain > 1% Cu also anomalous Mo and detectable Ag","Rome Formation",,35,-84.5,,NA
704,"Sunlite and Moonlite",,,USAZ,34,58,60,-110,-43,0,,,,,"United States",Arizona,"Redbed Cu","Ss contain pebbles of ss, chert, quartzite, ls, siltst",,"Upper Triassic",220,,"Mines are in oljeto syncline","Coalified woody material is abundant in the ore. Cu-U","Shinarump Member of Chinle Fm.",,34.9833333333333,-110.716666666667,,NA
705,Pintada,,,USNM,34,55,60,-104,-52,0,,,,,"United States","New Mexico","Redbed Cu","Massive gypsiferous unit, middle and upper ss units",,Permian,260,,"Mineralization occurs in five separate beds each 5 to 9 feet thick","Mineralization occurs in five separate beds each 5 to 9 feet thick","Grayburg-queen Formation",,34.9333333333333,-104.866666666667,,NA
706,Mangum,,,USOK,34,53,,-99,-30,,7.2,1,,2.4,"United States",Oklahoma,"Reduced facies Cu",,,"L. Permian",270,,,,"El Reno Grp, Flowerpot Fm",5058,34.8833333333333,-99.5,0.072,NA
707,Stauber,,,USNM,34,51,0,-104,-50,-59,0.24,2.57,,5.5,"United States","New Mexico","Redbed Cu","3 sandstone units separated by clay or shale",,"Upper Triassic",220,,"From 1925 to 1957 mine produced 6600 tons of Cu and 42000 ounces of Ag","Ore-bearing sandstone up to 12 ft thick, extends 1500 ft in length, 320 ft wide. Production: 264,000 st of ore containing 6,6779 st Cu and 42,494 ounces Ag","Santa rosa Member of Chinle Fm.",,34.85,-104.849722222222,0.006168,NA
708,Paoli,,,USOK,34,46,60,-97,-16,-59,,,,,"United States",Oklahoma,"Redbed Cu",Sandstone,,Permian,260,,"Production from two side-hill Cuts reported as 'a few tons' in 1913",Cu-Ag,"Garber Fm. of the Wichita Group",,34.7833333333333,-97.2830555555555,,NA
709,Creta,,,USOK,34,39,,-99,-21,,5.4,1.9,,5.5,"United States",Oklahoma,"Reduced facies Cu",Shale,,"L. Permian",270,Gypsum,,,"El Reno Grp, Flowerpot Fm",5045,34.65,-99.35,0.1026,NA
710,"Scholle District",,,USNM,34,30,0,-106,-25,0,0.12,3.85,,23,"United States","New Mexico","Redbed Cu","Shale overlain by red shale capped by ss",,Permian,260,,"33 prospects, to 1957 500 tons of Cu produced","33 prospects, to 1957, produced 525 short tons of Cu","Abo Fm.",,34.5,-106.416666666667,0.00462,NA
711,Abiquiu,,,USNM,34,25,60,-106,-17,-59,,,,,"United States","New Mexico","Redbed Cu","Fairly fine-grained ss, grit, conglomerate",,Triassic,220,,"Two Groups-one 5 miles north of abiquiu, 2nd 7 miles north of abiquiu","Abo Redbeds underly the Poleo Sandstone, primary Cu mineral is chalcocite","Poleo sandstone",,34.4333333333333,-106.299722222222,,NA
712,Parker-Doyle,,,USNM,34,16,0,-106,-28,0,,,,,"United States","New Mexico","Redbed Cu","Light-coloured sandstone",,Permian,260,,"Principal copper mineral is malachite, no chalcocite was noted","Mineralized beds occurrence stratigraphically much higher than Scholle district.","Abo Fm.",,34.2666666666667,-106.466666666667,,NA
713,"Mogollon Rim",,,USAZ,34,15,0,-111,0,0,,,,,"United States",Arizona,Uncl.,"Micrite, qtz arenite, limestone pebble congl",,Permian-Pennsylvanian,290,,,,"Supai Formation",,34.25,-111,,NA
714,Broome,,,USNM,34,15,0,-106,-30,0,,,,,"United States","New Mexico","Redbed Cu",Sandstone,,Permian,260,,,,"Meseta Blanca Fm.",,34.25,-106.5,,NA
715,"Benson Farm",,,USOK,34,12,0,-98,-17,-59,,,,,"United States",Oklahoma,Uncl.,Sandstone,,Permian,260,,,,"Garber Fm.",,34.2,-98.2997222222222,,NA
716,Gibbs,,,USTX,34,10,0,-99,-31,0,,,,,"United States",Texas,"Redbed Cu","Dark red and grey sandstone, siltstone, mudstone",,Permian,260,,"In 1918 3 tons of hand-sorted ore containing 50% Cu was produced","Channel-scour type","San Angelo Fm. of Pease River Group",,34.1666666666667,-99.5166666666667,,NA
717,Mcclellan,,,USTX,34,4,60,-99,-49,-59,,,,,"United States",Texas,"Redbed Cu","Sandstone horizons in dolomite, mudstone, shale",,Permian,260,,"From 1877-1917, 1943-45, 1967-70 about 250 tons of ore was mined","An upper Cu zone occurrences 50 ft above lower zone in shale and gypsum beds","San Angelo Fm. of Pease River Group",,34.0833333333333,-99.8330555555555,,NA
718,Pyron,"Crowell (?)",,USTX,33,45,0,-99,-54,0,,,,,"United States",Texas,"Redbed Cu","Sandstone, siltstone, mudstone",,Permian,260,,"Prior to 1911 several car loads were shipped","Prior to 1911 several car loads were shipped","San Angelo Fm. of Pease River Group",,33.75,-99.9,,NA
719,Smelter,,,USTX,33,32,60,-99,-58,-59,,,,,"United States",Texas,"Redbed Cu","Sandstone, siltstone, mudstone",,Permian,260,,"From 1880-1945 1000 tons of crude ore was produced","From 1880-1945 1000 tons of crude ore was produced","San Angelo Fm. of Pease River Group",,33.55,-99.9830555555556,,NA
720,"Buzzard Peak",,,USTX,33,30,0,-100,-1,-59,,,,,"United States",Texas,"Reduced facies Cu","Dolomite, mudstone and shale",,Permian,260,,"From 1882-1945 2550 tons of crude ore was produced","Deposit near contact of San Angelo and Blaine Formations. From 1882-1945 2550 tons of crude ore was produced","San Angelo Fm., Blaine Fm. of Pease River Group",,33.5,-100.033055555556,,NA
721,"Alexander Ranch",,,USOK,33,30,0,-99,-45,0,,,,,"United States",Oklahoma,"Redbed Cu","Red-bed sequence of oxidized ss and mudstone",,Permian,260,,"In clastic fluvial, deltaic deposits associated with organic trash","In clastic fluvial, deltaic deposits associated with organic trash","San Angelo Fm. of the Pease River Group",,33.5,-99.75,,NA
722,Mcfaddin,,,USTX,33,28,60,-99,-57,0,,,,,"United States",Texas,"Redbed Cu","Sandstone, siltstone, mudstone",,Permian,260,,,,"San Angelo Fm. of Pease River Group",,33.4833333333333,-99.95,,NA
723,Brazos-Wichita,,,USOK,33,23,60,-100,-2,-59,,,,,"United States",Oklahoma,"Redbed Cu","Sandstone, siltstone, mudstone",,Permian,260,,"In 1917 40 tons of crude ore was produced","In 1917 40 tons of crude ore was produced","San Angelo Fm. of Pease River Group",,33.4,-100.049722222222,,NA
724,Hugh-Rogers,,,USTX,33,19,60,-100,-3,-29,,,,,"United States",Texas,"Redbed Cu","Sandstone, siltstone, mudstone",,Permian,260,,,,"San Angelo Fm. of Pease River Group",,33.3333333333333,-100.058055555556,,NA
725,Tularosa,,,USNM,33,13,0,-105,-49,-59,,,,,"United States","New Mexico","Redbed Cu",Gypsum,,Quaternary,1,,"Gypsum bed is pleistocene(?) Playa deposit about 5 ft thick","Deposit rests unconformably on Permian rocks. Deposit type questionable",,,33.2166666666667,-105.833055555556,,NA
726,"Wiley Ranch",,,USTX,33,4,60,-100,-10,0,,,,,"United States",Texas,"Reduced facies Cu","Dolomite, mudstone, shale just below gypsum bed",,Permian,260,,"Exhibits features common to channel and scour deposits","At least two separate copper-bearing horizons are known","Blaine Fm. of the Pease River Group",,33.0833333333333,-100.166666666667,,NA
727,"Copper Queen",,Farris,USTX,33,1,45,-100,-4,-59,,,,,"United States",Texas,"Redbed Cu","Sandstone, siltstone, mudstone",,Permian,260,,"Mine worked 1880-1892 and 1945, 175 tons of crude ore produced in 1890","Mine worked 1880-1892 and 1945, 175 tons of crude ore produced in 1890. Farris produced 65 tons of crude ore from 1965-1974.","San Angelo Fm. of Pease River Group",,33.0291666666667,-100.083055555556,,NA
728,Farris,,,USTX,33,1,45,-100,-4,-59,,,,,"United States",Texas,"Redbed Cu",Sandstone,,Permian,260,,"65 tons of crude ore produced from 1965-1974","65 tons of crude ore produced from 1965-1974","San Angelo Fm. of Pease River Group",,33.0291666666667,-100.083055555556,,NA
729,Courtney,,"Speckled Bird",USNM,32,57,30,-105,-46,-59,,,,,"United States","New Mexico","Redbed Cu","Arkosic gray shale, arkose",,Permian,260,,"In 1929 a few cars of ore containing about 3.3% copper were shipped","Chalcocite and its alteration and oxidation products are main ore minerals","Abo Fm.",,32.9583333333333,-105.783055555556,,NA
730,Warnock,,"Sacramento Mountains",USNM,32,55,0,-105,-47,-59,,,,,"United States","New Mexico","Redbed Cu","Cream-coloured arkoses of the middle unit",,Permian,260,,"Visible organic debris is rare and does not control mineralization","Visible organic debris is rare and does not control mineralization, 2 mines and over 20 showings, from 1908-1948 produced 80 tons Cu, 900t Pb","Abo Fm.",,32.9166666666667,-105.799722222222,,NA
731,"Lone Eagle",,,USNM,32,25,60,-104,-15,0,,,,,"United States","New Mexico",Uncl.,Sandstone,,Permian,260,,"Several small ore shipments made, some ore stockpiled, Cu as malachite","Sandstone generally flat lying but sharply folded, faulted where mineralized","Yeso Fm.",,32.4333333333333,-104.25,,NA
732,Boleo,,,MXCO,27,10,,-112,-30,,18.7,3.4,,9,Mexico,"Baja Norte","Reduced facies Cu","Clay-rich tuff,  gypsum","conglomerate,","L. Pliocene",3,,,,"Boleo Fm.",5333,27.1666666666667,-112.5,0.6358,NA
733,"Las Vigas",Vigas,,MXCO,29,21,48,-105,-4,-10,0.225,3.2,,9,Mexico,Chihuahua,"Redbed Cu","Sandstone, shale, limestone",,"L. Cretaceous",135,,,,"Las Vigas Fm.",,29.3633333333333,-105.069444444444,0.0072,NA
734,"Ugly River",,"Pencar River",JMCA,18,14,30,-76,-43,,,,,,Jamaica,,"Redbed Cu","Arkose, siltstone",,"L. Eocene",53,,,,"Wagwater Fm.",,18.2416666666667,-76.7166666666667,,NA
735,"Phillips Gully",,,JMCA,18,8,,-76,-38,,,,,,Jamaica,,"Redbed Cu","Sandstone, mudstone, tuff",,"L. Eocene",53,,,,"Wagwater Fm.",,18.1333333333333,-76.6333333333333,,NA
736,"Barbeque River",,,JMCA,18,6,,-76,-37,,,,,,Jamaica,,"Redbed Cu",Sandstone,,"L. Eocene",53,Lava,,,"Wagwater Fm.",,18.1,-76.6166666666667,,NA
737,"Serrania de Perija",,,CLBA,10,40,,-72,-50,,,,,,Colombia,Guajira,"Redbed Cu","Sandstone, conglomerate, basalt",,Jurassic,180,,,,"La Quinta Fm.",,10.6666666666667,-72.8333333333333,,SA
738,Seboruco,,,"VN ZL",8,0,,-72,0,,,,,,Venezuela,,"Redbed Cu","Sandstone, conglomerate, lignite",,Permian,260,,,,"Mitu Grp",,8,-72,,SA
739,"Fazenda Boa Vista",,,BRZL,-3,-11,,-40,-33,,,,,,Brazil,Ceará,Uncl.,"Meta sedimentary rocks",,Proterozoic,1000,,,,"Martinópole Grp.",,-3.18333333333333,-40.55,,SA
740,"Pedra Verde",,,BRZL,-3,-30,,-41,-7,,8.2,0.8,,,Brazil,Ceará,Uncl.,"Meta graywacke, phillite",,Proterozoic,1000,,,,"Martinópole ©rp.",,-3.5,-41.1166666666667,0.0656,SA
741,"Serra do Diamante",,,BRZL,-6,-55,,-38,-55,,22,0.8,,,Brazil,Ceará,Uncl.,"Phyllite, schist",,Proterozoic,1000,,,,"Cachoerinha Grp.",,-6.91666666666667,-38.9166666666667,0.176,SA
742,Araripe,,,BRZL,-7,-8,,-40,-10,,,,,,Brazil,,"Reduced facies Cu","Marine sedimentary rocks",,"L. Cretaceous",120,,,,,,-7.13333333333333,-40.1666666666667,,SA
743,"Sucunduri River",,,BRZL,-8,-45,,-59,0,,,,,,Brazil,,Uncl.,"Stromatolitic dolomite",,M.Proterozoic,1000,,,,,,-8.75,-59,,SA
744,Sacsallac,,,PERU,-9,-43,,-75,-50,,,,,,Peru,,"Redbed Cu",Sandstone,,Permian,260,,,,"Mitu Fm.",,-9.71666666666667,-75.8333333333333,,SA
745,"Negra Huanusha",,,PERU,-11,-18,,-75,-51,,,,,,Peru,,"Redbed Cu","Red arkose, mudstone",,Permian,260,,,"Mined grade: 3.2 % Cu, 2.9% Ag","Mitu Fm.",,-11.3,-75.85,,SA
746,"Doña Basilia",,,PERU,-12,-13,,-75,-42,-30,,,,,Peru,,"Redbed Cu",Sandstone,,L.Teriary,50,,,,"Caspalca Fm.",,-12.2166666666667,-75.7083333333333,,SA
747,Rosario,,,PERU,-12,-43,,-74,-20,,,,,,Peru,,"Redbed Cu",Sandstone,,Permian,260,,,,"Mitu Fm.",,-12.7166666666667,-74.3333333333333,,SA
748,"Maria Magdalena",,,PERU,-13,-20,,-72,0,,,,,,Peru,,"Redbed Cu",Sandstone,,Permian,260,,,,"Mitu Fm.",,-13.3333333333333,-72,,SA
749,Andarapa,,,PERU,-13,-30,-2,-73,-22,-30,,,,,Peru,,"Redbed Cu",Sandstone,,Permian,260,,,,"Mitu Grp",,-13.5005555555556,-73.375,,SA
750,Desaguadero,,,PERU,-14,-5,,-70,-36,,,,,,Peru,,"Redbed Cu",Sandstone,,Permian,260,,,,"Mitu Grp",,-14.0833333333333,-70.6,,SA
751,"San Silvestre",,"Ana María, Tatutin, La Incognita, María Elena",BLVA,-16,-36,-30,-68,-53,-15,,,,,Bolivia,,"Redbed Cu",Sandstone,,"L. Tertiary",45,,,,"Huayllamarca, Tiahuanacu Fms.",,-16.6083333333333,-68.8875,,SA
752,Chacoma,,"Las Mercedes",BLVA,-16,-48,-2,-68,-25,-13,,,,,Bolivia,,"Redbed Cu","Red sandstone",,"L. Tertiary",45,,,,"Tiahuanacu Fm.",,-16.8005555555556,-68.4202777777778,,SA
753,Corocoro,,"Porvenir, Llallagua, María Elena, Pisaqueri, Americas Unidas",BLVA,-17,-10,9,-68,-27,-4,7.8,7.1,,106,Bolivia,,"Redbed Cu","Red sandstone and mudstone",,Eocene,45,,,"Salt-gypsum diapirs. Ore contains 1.4 ppm U","Caquiaveri, Ballivian Fms",6065,-17.1641666666667,-68.4511111111111,0.5538,SA
754,Paracatu,,,BRZL,-17,-14,,-46,-52,,,,,,Brazil,,"Reduced facies Cu","Calareous siltstone",,"U. Proterozoic",1000,,,,"Bambui Grp, Vazante Fm..",,-17.2333333333333,-46.8666666666667,,SA
755,"Veta Verde",,,BLVA,-17,-21,-38,-68,-24,-5,,,,,Bolivia,,"Redbed Cu","Red sandstone",,"L. Tertiary",45,,,"Intruded by salt-gypsum diapir","Huayllamarca, Tiahuanacu Fms.",,-17.3605555555556,-68.4013888888889,,SA
756,Callapa,,"El Hogar, Noe Group, San Augustín, San Franciso, San Miguel",BLVA,-17,-24,0,-68,-21,-20,,,,,Bolivia,,"Redbed Cu","Red sandstone",,"L. Tertiary",45,,,,"Huayllamarca, Totora Fms.",,-17.4,-68.3555555555556,,SA
757,Chacarilla,,"El Congreso, Porfía, Eureka, Mizague, Esperanza, La Encontrada",BLVA,-17,-35,,-68,-12,,2.6,2.78,,15,Bolivia,,"Redbed Cu","sandstone, conglomerate",,"L. Tertiary",45,,,"Intruded by  salt-gypsum diapir","Huayllamarca Fm.",6065,-17.5833333333333,-68.2,0.07228,SA
758,Chuquichambi,,"Llanquera-San Miguel, Santa María",BLVA,-17,-59,-19,-67,-44,-21,,,,,Bolivia,,"Redbed Cu","Red sandstone",,"L. Tertiary",45,,,,"Huayllamarca, Totora Fms.",,-17.9886111111111,-67.7391666666667,,SA
759,Turco,,"Santa Clara, Azurita, Corona de España, Cuprita",BLVA,-18,-15,-55,-68,-3,-52,0.14,2.1,,,Bolivia,,"Redbed Cu","Arkose, tuffaceous sandstone, basalt",,"L. Tertiary",45,,,,"Huayllamarca, Totora Fms.",,-18.2652777777778,-68.0644444444444,0.00294,SA
760,Sevaruyo,,"Amistad, Concepciøn, Tambillo",BLVA,-19,-22,-24,-66,-55,-8,,,,,Bolivia,,"Redbed Cu","Arkose, tuffaceous sandstone, basalt",,"L. Tertiary",45,,,,"Huayllamarca, Totora Fms.",,-19.3733333333333,-66.9188888888889,,SA
761,Uyuni,,"Cobrizos, Iñez, Koholpani, Puntillas",BLVA,-20,-59,-37,-67,-12,-36,0.39,0.79,,,Bolivia,,"Redbed Cu","Sandstone, conglomerate",,"L. Tertiary",45,,,,"Quehua, San Vicente Fms.",,-20.9936111111111,-67.21,0.003081,SA
762,Esmeralda,,"San Pablito, Mesa Verde, Ucrania, Huancané, Ladislau Cabrera",BLVA,-21,-23,-30,-66,-34,-8,,,,,Bolivia,,"Redbed Cu","Sandstone, conglomerate",,"L. Tertiary",45,,,,"Quehua, Potoco Fms.",,-21.3916666666667,-66.5688888888889,,SA
763,Avaroa,,"Bolívar, Mantos Blancos, El Morro, Linares, Cerro Negro, Aguilar",BLVA,-21,-36,-27,-67,-2,-43,0.43,4.9,,,Bolivia,,"Redbed Cu","Sandstone, conglomerate",,Oligocene,35,Tuff,,"Contains high levels of arsenic","Quehua Fm.",,-21.6075,-67.0452777777778,0.02107,SA
764,"San Bartolo","Artola mine",,CILE,-22,-44,,-68,-14,,1.5,2,,,Chile,Antofagasta,"Redbed Cu","Arkose, red mudstone",,Oligocene-Miocene,24,,,"Oxide copper minerals at Artola mine, sulfides at Palicaye mine","Paciencia Grp, Artola Mbr",6006,-22.7333333333333,-68.2333333333333,0.03,SA
765,"Serranía de las Minas",,"Farellon, Cerro Colorado, 25 de Julio, Copacabana, Bartolo",BLVA,-21,-42,-57,-67,-27,-47,,,,,Bolivia,,"Redbed Cu","Sandstone, conglomerate",,"L. Tertiary",45,,,,"San Vicente, Potoco Fms.",,-21.7158333333333,-67.4630555555556,,SA
766,"Caleta Coloso",,,CILE,-23,-44,-58,-70,-30,0,0.185,3,,,Chile,,"Redbed Cu","Conglomerate, sandstone",,"U. Jurssic",160,,,,"Coloso Fm.",,-23.7494444444444,-70.5,0.00555,SA
767,"Martín Bronce",,,AGTN,-24,0,,-64,-25,,3.235,2.41,,,Argentina,Jujuy,"Redbed Cu","Sandstone , conglomerate",Conglomerate,U.Cretaceous,90,Sandstone,,,"Lecho Fm.",,-24,-64.4166666666667,0.0779635,SA
768,Juaramento,,,AGTN,-25,-13,,-65,-9,,59.2,0.83,,19.2,Argentina,Salta,"Reduced facies Cu","Sandstone , conglomerate",Conglomerate,U.Cretaceous,90,Sandstone,,,"Lecho Fm.",,-25.2166666666667,-65.15,0.49136,SA
769,Perau,,,BRZL,-25,-30,,-49,0,,,,,,Brazil,,Uncl.,"Calareous siltstone",,"U. Proterozoic",1000,,,,"Bambui Grp, Vazante Fm..",,-25.5,-49,,SA
770,Jardin,,,CILE,-27,-45,-30,-70,-11,-30,2,1.75,,140,Chile,,Uncl.,"Tuff, siltstone, carbonaceous shale, ignimbrite",,Paleocene,60,,,,"Hornitos Fm.",,-27.7583333333333,-70.1916666666667,0.035,SA
771,Salsinho,,"Bom Jardin",BRZL,-30,-30,,-53,-18,,,,,,Brazil,"Rio Grande do Sul",Uncl.,"sandstone, conglomerate",,"U. Proterozoic",700,,,"Partly stratiform, parly vein controled.","Maricá Grp.",,-30.5,-53.3,,SA
772,"Cerro dos Martíns",,"Cerro das Ovelhas",BRZL,-30,-43,,-53,-27,,1.5,0.89,,,Brazil,"Rio Grande do Sul",Uncl.,"sandstone, andesite",,"U. Proterozoic",700,,,"Includes Pb and Zn. Partly stratiform, parly vein controled.","Maricá Grp.",,-30.7166666666667,-53.45,0.01335,SA
773,"Camaquã District",,"São Luis, Uruguai, Cemitério",BRZL,-30,-55,,-53,-26,,31,1.06,,,Brazil,"Rio Grande do Sul",Uncl.,"Conglomerate, sandstone, siltstone",,"U. Proterozoic",700,,,"Contains Ag, grade not given. Also 0.3-0.5 g/t Au. Partly stratiform, parly vein controled.","Maricá Grp.",,-30.9166666666667,-53.4333333333333,0.3286,SA
774,"Casa de Pedra",,"Passo Catarina",BRZL,-30,-59,,-53,-34,,,,,,Brazil,"Rio Grande do Sul",Uncl.,"Sandstone, siltstone",,"U. Proterozoic",700,,,,"Maricá Grp.",,-30.9833333333333,-53.5666666666667,,SA
775,Rusa,,,CILE,-32,-21,,-71,-5,,,,,,Chile,,Uncl.,"Shaley limestone",,"L. Cretaceous",120,,,,,,-32.35,-71.0833333333333,,SA
776,"Veta Negra",,,CILE,-32,-29,,-71,-6,,,,,,Chile,,Uncl.,"Black shale",,"L. Cretaceous",120,,,,,,-32.4833333333333,-71.1,,SA
777,Carmen,,,CILE,-32,-30,,-71,0,,,,,,Chile,,Uncl.,"Laminated black limestone",,"L. Cretaceous",120,,,,,,-32.5,-71,,SA
778,"Cerro Negro",,,AGTN,-32,-34,,-70,-5,,,,,,Argentina,,Uncl.,"Breccia, clastic sediments",,"U. Cretaceous",80,,,,,,-32.5666666666667,-70.0833333333333,,SA
779,"Campesino Norte",,,AGTN,-38,-18,,-69,-3,,,,,,Argentina,Neuquén,"Redbed Cu",Sandstone,,U.Cretaceous,90,,,,"Huincul Fm.",,-38.3,-69.05,,SA
780,"San Romeleo",,,AGTN,-36,-35,,-69,-27,,0.257,1.29,,,Argentina,Mendoza,"Redbed Cu","Feldspathic sandstone, calcareous, gypsiferous, bituminous",,U.Cretaceous,90,,,,"Diamante Fm.",,-36.5833333333333,-69.45,0.0033153,SA
781,"Sausal Bonita",,"Puesto Lago",AGTN,-38,-38,,-69,-11,,,,,,Argentina,Neuquén,"Redbed Cu",Sandstone,,U.Cretaceous,90,,,,"Huincul Fm.",,-38.6333333333333,-69.1833333333333,,SA
782,"Cerro Mesa",,"La Olla, Santa Genoveva",AGTN,-38,-41,,-69,-36,,,,,,Argentina,Neuquén,"Redbed Cu",Sandstone,,U.Cretaceous,90,,,"Contain U minerals","Huincul Fm.",,-38.6833333333333,-69.6,,SA
783,"Barda González",,Tordillos,AGTN,-38,-53,,-68,-59,,35.5,0.368,,2.5,Argentina,Neuquén,"Redbed Cu",Sandstone,,U.Cretaceous,90,,,,"Portezuelo Fm.",,-38.8833333333333,-68.9833333333333,0.13064,SA
784,"Cerro Granito","El Porvenir","Barda Negra",AGTN,-39,-13,,-69,-49,,2,0.5,,,Argentina,Neuquén,"Redbed Cu",Sandstone,,U.Cretaceous,90,,,,"Huincul Fm.",,-39.2166666666667,-69.8166666666667,0.01,SA
785,Kennecott,,"Bonanza, Jumbo, Mother Lode, Erie",USAK,61,32,,-142,-52,,4,13,,,"United States",Alaska,Unclassified,"Stromatolitic limestone, dolomite, microbial mats.","Basalt, Nikolai Greenstone",Triassic,,"Limestone, shale, chert",,"Ore in massive veins following solution cavities and breccias","Chitistone Limestone",,61.5333333333333,-142.866666666667,0.52,NA
