gid,dep_name,country,state,latitude,longitude,commodity,dep_type,type_detail,model_code,model_name,metallic,citation,
103,"Qaidam Qarhan",China,,37.5,95,Boron-lithium-potassium,Sedimentary,,,,,"Wen Lu, 1998",0101000020E61000000000000000C057400000000000C04240,0101000020110F00000CF502F4BE2B6441FB2A28D959335141,
780,"Silver Peak (Clayton Valley)","United States",Nevada,37.75,-117.633,"lithium, potash",Sedimentary,"Playa brine - lithium and potash",35b.13,"Lithium-rich Playa brines",,"Garrett (1996)",0101000020E61000008D976E1283685DC00000000000E04240,0101000020110F0000C0B122B5F7F968C18AA36249AA555141,
781,"Searles Lake","United States",California,35.777,-118.4,"lithium, potash, sodium carbonate, boron",Sedimentary,"Lacustrine evaporite deposit",35b.13,"Li-rich playa brine",,"British Sulphur Corporation (1985); Russell (1988); Roskill Information Services (1989)",0101000020E61000009A99999999995DC0FA7E6ABC74E34140,0101000020110F0000AEB1B776A82369C145D00B09E7495041,
904,"Salar de Uyuni",Bolivia,,-20.1666,-67.5,"Lithium, boron",Sedimentary,,,,,"TroÃ«ng and RieraKilibarda, 2000",0101000020E61000000000000000E050C07B832F4CA62A34C0,0101000020110F0000DC183A68F4A95CC1047A3DBB147E41C1,
911,Aracuai,Brazil,,-16.717,-41.933,Lithium,Igneous,,,,,"Schobbenhaus and others,1984",0101000020E61000008195438B6CF744C0643BDF4F8DB730C0,0101000020110F0000AE9A460D8ECE51C1589B88E4A2CE3CC1,
978,"Big Whopper",Canada,,50.2667,-94.5,"Lithium, tantalum, rubidium",Igneous,,,,,"Pedersen and others, 2001",0101000020E61000000000000000A057C0EEEBC03923224940,0101000020110F000000AB287C911064C15DAF8D156CC45841,
1083,"Tanco (Bernic Lake)",Canada,,50.4333,-95.45,"Tantalum, lithium, cesium, rubidium",Igneous,,,,,"Bamburak, 2001",0101000020E6100000CDCCCCCCCCDC57C0ACADD85F76374940,0101000020110F00004BD1ADAC344464C1D4C3402CCEE05841,
1135,"Salar de Atacama",Chile,,-23.5539,-68.4072,"Lithium, potash",Sedimentary,,,,,"Chong, 1996",0101000020E610000099BB96900F1A51C02041F163CC8D37C0,0101000020110F00008501EBAA930C5DC1F9881E2BC39744C1,
2584,"Karibib District",Namibia,,-22.15,16,Lithium,Igneous,,,,,,0101000020E6100000000000000000304066666666662636C0,0101000020110F0000300C4ADA772D3B4150CBEA09844C43C1,
1527,Guarda,Portugal,,40.5,-7.33333333333333,Lithium,Hydrothermal,,,,Metallic,,0101000020E61000005255555555551DC00000000000404440,0101000020110F0000278B6EDDADE928C12915404B1DD75241,
1762,Tastygskoye,Russia,,49.8833333333333,97.3,Lithium,Igneous,,,,Metallic,,0101000020E610000033333333335358400C11111111F14840,0101000020110F000012B0884EC3A8644193EB38EC7B835841,
2234,Kitotolo,"Congo (Kinshasa)",,-7.325,27.3833,"Lithium, Columbium (Niobium), Tin",Igneous,,,,,,0101000020E61000008A8EE4F21F623B40CDCCCCCCCC4C1DC0,0101000020110F0000EE0F9181B34147418A5ADF47DBF328C1,
2235,Manono,"Congo (Kinshasa)",,-7.2792,27.45,"Lithium, Tantalum, Tin",Igneous,,,,,,0101000020E61000003333333333733B403D2CD49AE61D1DC0,0101000020110F000042EBD902345047411753470AB3CB28C1,
2244,"Bishasha (Mumba and Kasangura deposits)","Congo (Kinshasa)",,-1.6667,29.2333,"Tin, Tungsten, Columbium (Niobium), Tantalum, Lithium, Gold)",Igneous,,,,,,0101000020E610000024287E8CB93B3D4026E4839ECDAAFABF,0101000020110F00000C8BFC08EED34841C62A7CF0D2A606C1,
2494,Sinsinkourou,Mali,,11.4167,-7.4833,Lithium,Igneous,,,,,,0101000020E610000090A0F831E6EE1DC0857CD0B359D52640,0101000020110F00000DDB784A1A6C29C1599250B1A3853341,
2556,Maridge,Mozambique,,-15.7125,38.2125,Lithium,Igneous,,,,,,0101000020E610000033333333331B4340CDCCCCCCCC6C2FC0,0101000020110F0000951CAF02193A5041A588FB71BC073BC1,
2557,Nanro,Mozambique,,-15.775,38.2625,Lithium,Igneous,,,,,,0101000020E61000009A99999999214340CDCCCCCCCC8C2FC0,0101000020110F000030F80D81883F5041DD720E19F9233BC1,
2558,"Nahora (Nahoza)",Mozambique,,-15.5792,38.3333,"Lithium, Tantalum",Igneous,,,,,,0101000020E6100000DFE00B93A92A4340B8AF03E78C282FC0,0101000020110F00007466EEDB3A47504142FC77928ACB3AC1,
2581,Usakos,Namibia,,-22,15.6167,"Gem (tourmaline, garnet, aquamarine, topaz), Lithium, Tantalum",Igneous,,,,,,0101000020E6100000EBE2361AC03B2F4000000000000036C0,0101000020110F0000E7E08417CB863A41A26C0F9E522943C1,
2585,"Tantalite Valley",Namibia,,-28.71667,18.8,"Lithium, Columbium (Niobium), Tantalum",Igneous,,,,,,0101000020E6100000CDCCCCCCCCCC32403A0664AF77B73CC0,0101000020110F0000BA344A6D06EF3F416AD5B6D4B87A49C1,
2707,"Piet Retief Witkop 507","South Africa",,-27,30.7333,"Columbium (Niobium), Tantalum, Lithium",Igneous,,,,,,0101000020E610000024287E8CB9BB3E400000000000003BC0,0101000020110F00009A0338A70F1A4A41A6A8E2DF87D447C1,
3021,"Gamba Hill Nampeyo",Uganda,,0.5833,32.9167,"Lithium, Tantalum, Columbium (Niobium)",Igneous,,,,,,0101000020E6100000211FF46C56754040B537F8C264AAE23F,0101000020110F00003C122C24C7F44B41A8A303FBB8B4EF40,
3152,"Bikita (Mdara)",Zimbabwe,,-19.95,31.43333,"Lithium, REE, Tantalum, Clay (Kaolin), Tin",Igneous,,,,,,0101000020E61000002D6002B7EE6E3F403333333333F333C0,0101000020110F0000D28B0F2543B24A4175D01457F24B41C1,
12,Pasghushta,Afghanistan,,35.3928,71.0144,Lithium-tantalum,Igneous,,,,,"Orris and Bliss, 2002",0101000020E6100000FE43FAEDEBC0514035EF384547B24140,0101000020110F0000E71435B601285E416D2727838B165041,
44,Greenbushes,Australia,,-33.8594,116.0653,Lithium,Igneous,,,,,"Driessen, 1990",0101000020E6100000711B0DE02D045D405917B7D100EE40C0,0101000020110F000006580843C1A4684143DD193CE9974EC1,
631,"Bessemer City","United States","South Carolina",35.333,-81.167,lithium,Igneous,Pegmatite,13b,"Li pegmatites",,"Anstett and others (1990)",0101000020E6100000A69BC420B04A54C0B4C876BE9FAA4140,0101000020110F0000FCB57EA3D93B61C111D97DC6920E5041,
876,"Salar del Hombre Muerto",Argentina,,-25.3833,-67.1,"Lithium, boron",Sedimentary,,,,,"Godeas and others, 1999",0101000020E61000006666666666C650C08A8EE4F21F6239C0,0101000020110F0000FB3B4375787E5CC11550782AC94C46C1,
800,"Michigan Basin - Ludington Operation","United States",Michigan,43.939,-86.433,"potash, bromine, lithium, magnesia",Sedimentary,"Marine evaporite - potash-rich brine",35a.2,"Potash-bearing bedded salt",,"British Sulphur Corporation (1979)",0101000020E6100000C1CAA145B69B55C0D578E92631F84540,0101000020110F0000950B87B1155A62C1526FFCC821D05441,Potash
801,"Great Salt Lake","United States",Utah,40.914,-112.733,"potash, magnesia, lithium, sodium sulfate",Sedimentary,"Lacustrine evaporite deposit",na,"no model",,"Warren (1999)",0101000020E6100000F4FDD478E92E5CC0A245B6F3FD744440,0101000020110F0000E3A8FA84A0EF67C18F939D3C7C125341,Potash